"STATION","DATE","REPORT_TYPE","SOURCE","AWND","BackupDirection","BackupDistance","BackupDistanceUnit","BackupElements","BackupElevation","BackupElevationUnit","BackupEquipment","BackupLatitude","BackupLongitude","BackupName","CDSD","CLDD","DSNW","DYHF","DYTS","DailyAverageDewPointTemperature","DailyAverageDryBulbTemperature","DailyAverageRelativeHumidity","DailyAverageSeaLevelPressure","DailyAverageStationPressure","DailyAverageWetBulbTemperature","DailyAverageWindSpeed","DailyCoolingDegreeDays","DailyDepartureFromNormalAverageTemperature","DailyHeatingDegreeDays","DailyMaximumDryBulbTemperature","DailyMinimumDryBulbTemperature","DailyPeakWindDirection","DailyPeakWindSpeed","DailyPrecipitation","DailySnowDepth","DailySnowfall","DailySustainedWindDirection","DailySustainedWindSpeed","DailyWeather","HDSD","HTDD","HourlyAltimeterSetting","HourlyDewPointTemperature","HourlyDryBulbTemperature","HourlyPrecipitation","HourlyPresentWeatherType","HourlyPressureChange","HourlyPressureTendency","HourlyRelativeHumidity","HourlySeaLevelPressure","HourlySkyConditions","HourlyStationPressure","HourlyVisibility","HourlyWetBulbTemperature","HourlyWindDirection","HourlyWindGustSpeed","HourlyWindSpeed","MonthlyAverageRH","MonthlyDaysWithGT001Precip","MonthlyDaysWithGT010Precip","MonthlyDaysWithGT32Temp","MonthlyDaysWithGT90Temp","MonthlyDaysWithLT0Temp","MonthlyDaysWithLT32Temp","MonthlyDepartureFromNormalAverageTemperature","MonthlyDepartureFromNormalCoolingDegreeDays","MonthlyDepartureFromNormalHeatingDegreeDays","MonthlyDepartureFromNormalMaximumTemperature","MonthlyDepartureFromNormalMinimumTemperature","MonthlyDepartureFromNormalPrecipitation","MonthlyDewpointTemperature","MonthlyGreatestPrecip","MonthlyGreatestPrecipDate","MonthlyGreatestSnowDepth","MonthlyGreatestSnowDepthDate","MonthlyGreatestSnowfall","MonthlyGreatestSnowfallDate","MonthlyMaxSeaLevelPressureValue","MonthlyMaxSeaLevelPressureValueDate","MonthlyMaxSeaLevelPressureValueTime","MonthlyMaximumTemperature","MonthlyMeanTemperature","MonthlyMinSeaLevelPressureValue","MonthlyMinSeaLevelPressureValueDate","MonthlyMinSeaLevelPressureValueTime","MonthlyMinimumTemperature","MonthlySeaLevelPressure","MonthlyStationPressure","MonthlyTotalLiquidPrecipitation","MonthlyTotalSnowfall","MonthlyWetBulb","NormalsCoolingDegreeDay","NormalsHeatingDegreeDay","REM","REPORT_TYPE","SOURCE","ShortDurationEndDate005","ShortDurationEndDate010","ShortDurationEndDate015","ShortDurationEndDate020","ShortDurationEndDate030","ShortDurationEndDate045","ShortDurationEndDate060","ShortDurationEndDate080","ShortDurationEndDate100","ShortDurationEndDate120","ShortDurationEndDate150","ShortDurationEndDate180","ShortDurationPrecipitationValue005","ShortDurationPrecipitationValue010","ShortDurationPrecipitationValue015","ShortDurationPrecipitationValue020","ShortDurationPrecipitationValue030","ShortDurationPrecipitationValue045","ShortDurationPrecipitationValue060","ShortDurationPrecipitationValue080","ShortDurationPrecipitationValue100","ShortDurationPrecipitationValue120","ShortDurationPrecipitationValue150","ShortDurationPrecipitationValue180","Sunrise","Sunset","WindEquipmentChangeDate"
"74486094789","2018-01-01T00:51:00","FM-15","7",,"ESE","1.5","mi","TEMP, PRECIP, SNOW",,,"PSY, SRG, SNOWBOARD",,,"FAA CWO",,,,,,,,,,,,,,,,,,,,,,,,,,,,"30.34","-3","9","0.00",,"-0.01","3","58","30.34","FEW:02 30","30.32","10.00","7","330",,"18",,,,,,,,,,,,,,,,,,,,,,,,,,,,,,,,,,,,,"MET11801/01/18 00:51:02 METAR KJFK 010551Z 33016KT 10SM FEW030 M13/M19 A3034 RMK AO2 SLP274 T11281194 11111 21128 53005 (BH)","FM-15","7",,,,,,,,,,,,,,,,,,,,,,,,,,,"2009-05-01"
"74486094789","2018-01-01T01:00:00","FM-12","4",,"ESE","1.5","mi","TEMP, PRECIP, SNOW",,,"PSY, SRG, SNOWBOARD",,,"FAA CWO",,,,,,,,,,,,,,,,,,,,,,,,,,,,,"-3","9",,,"-0.01","3","58","30.34","26","30.31","9.94","7","330",,"18",,,,,,,,,,,,,,,,,,,,,,,,,,,,,,,,,,,,,"SYN08074486 32566 23316 11128 21194 30263 40274 53005 90551 333 11083 21128 555 90106=","FM-12","4",,,,,,,,,,,,,,,,,,,,,,,,,,,"2009-05-01"
"74486094789","2018-01-01T01:51:00","FM-15","7",,"ESE","1.5","mi","TEMP, PRECIP, SNOW",,,"PSY, SRG, SNOWBOARD",,,"FAA CWO",,,,,,,,,,,,,,,,,,,,,,,,,,,,"30.35","-3","8","0.00",,,,"60","30.34","CLR:00","30.32","10.00","6","310",,"14",,,,,,,,,,,,,,,,,,,,,,,,,,,,,,,,,,,,,"MET09701/01/18 01:51:02 METAR KJFK 010651Z 31012KT 10SM CLR M13/M19 A3035 RMK AO2 SLP275 T11331194 (BH)","FM-15","7",,,,,,,,,,,,,,,,,,,,,,,,,,,"2009-05-01"
"74486094789","2018-01-01T02:51:00","FM-15","7",,"ESE","1.5","mi","TEMP, PRECIP, SNOW",,,"PSY, SRG, SNOWBOARD",,,"FAA CWO",,,,,,,,,,,,,,,,,,,,,,,,,,,,"30.35","-4","8","0.00",,,,"57","30.35","CLR:00","30.32","10.00","6","330",,"14",,,,,,,,,,,,,,,,,,,,,,,,,,,,,,,,,,,,,"MET09701/01/18 02:51:02 METAR KJFK 010751Z 33012KT 10SM CLR M13/M20 A3035 RMK AO2 SLP277 T11331200 (BH)","FM-15","7",,,,,,,,,,,,,,,,,,,,,,,,,,,"2009-05-01"
"74486094789","2018-01-01T03:51:00","FM-15","7",,"ESE","1.5","mi","TEMP, PRECIP, SNOW",,,"PSY, SRG, SNOWBOARD",,,"FAA CWO",,,,,,,,,,,,,,,,,,,,,,,,,,,,"30.34","-4","8","0.00",,"-0.00","0","57","30.34","FEW:02 35","30.32","10.00","6","310",,"13",,,,,,,,,,,,,,,,,,,,,,,,,,,,,,,,,,,,,"MET10601/01/18 03:51:02 METAR KJFK 010851Z 31011KT 10SM FEW035 M13/M20 A3034 RMK AO2 SLP275 T11331200 50001 (BH)","FM-15","7",,,,,,,,,,,,,,,,,,,,,,,,,,,"2009-05-01"
"74486094789","2018-01-01T04:00:00","FM-12","4",,"ESE","1.5","mi","TEMP, PRECIP, SNOW",,,"PSY, SRG, SNOWBOARD",,,"FAA CWO",,,,,,,,,,,,,,,,,,,,,,,,,,,,,"-4","8",,,"0.00","9","57","30.34","41","30.31","9.94","6","310",,"13",,,,,,,,,,,,,,,,,,,,,,,,,,,,,,,,,,,,,"SYN06474486 32666 23111 11133 21200 30263 40275 50001 90851 555 90109=","FM-12","4",,,,,,,,,,,,,,,,,,,,,,,,,,,"2009-05-01"
"74486094789","2018-01-01T04:51:00","FM-15","7",,"ESE","1.5","mi","TEMP, PRECIP, SNOW",,,"PSY, SRG, SNOWBOARD",,,"FAA CWO",,,,,,,,,,,,,,,,,,,,,,,,,,,,"30.35","-5","7","0.00",,,,"57","30.35","FEW:02 35","30.32","10.00","5","320",,"17",,,,,,,,,,,,,,,,,,,,,,,,,,,,,,,,,,,,,"MET10001/01/18 04:51:02 METAR KJFK 010951Z 32015KT 10SM FEW035 M14/M21 A3035 RMK AO2 SLP277 T11391206 (BH)","FM-15","7",,,,,,,,,,,,,,,,,,,,,,,,,,,"2009-05-01"
"74486094789","2018-01-01T05:51:00","FM-15","7",,"ESE","1.5","mi","TEMP, PRECIP, SNOW",,,"PSY, SRG, SNOWBOARD",,,"FAA CWO",,,,,,,,,,,,,,,,,,,,,,,,,,,,"30.36","-5","7","0.00",,,,"57","30.36","FEW:02 35","30.34","10.00","5","310",,"16",,,,,,,,,,,,,,,,,,,,,,,,,,,,,,,,,,,,,"MET10001/01/18 05:51:02 METAR KJFK 011051Z 31014KT 10SM FEW035 M14/M21 A3036 RMK AO2 SLP280 T11391206 (BH)","FM-15","7",,,,,,,,,,,,,,,,,,,,,,,,,,,"2009-05-01"
"74486094789","2018-01-01T06:51:00","FM-15","7",,"ESE","1.5","mi","TEMP, PRECIP, SNOW",,,"PSY, SRG, SNOWBOARD",,,"FAA CWO",,,,,,,,,,,,,,,,,,,,,,,,,,,,"30.37","-5","7","0.00",,"-0.03","3","57","30.37","FEW:02 35","30.35","10.00","5","310",,"21",,,,,,,,,,,,,,,,,,,,,,,,,,,,,,,,,,,,,"MET11801/01/18 06:51:02 METAR KJFK 011151Z 31018KT 10SM FEW035 M14/M21 A3037 RMK AO2 SLP284 T11391206 11128 21139 53009 (BH)","FM-15","7",,,,,,,,,,,,,,,,,,,,,,,,,,,"2009-05-01"
"74486094789","2018-01-01T07:00:00","FM-12","4",,"ESE","1.5","mi","TEMP, PRECIP, SNOW",,,"PSY, SRG, SNOWBOARD",,,"FAA CWO",,,,,,,,,,,,,,,,,,,,,,,,,,,,,"-5","7",,,"-0.03","3","57","30.37","41","30.34","9.94","5","310",,"21",,,,,,,,,,,,,,,,,,,,,,,,,,,,,,,,,,,,,"SYN08074486 32666 23118 11139 21206 30273 40284 53009 91151 333 11061 21139 555 90112=","FM-12","4",,,,,,,,,,,,,,,,,,,,,,,,,,,"2009-05-01"
"74486094789","2018-01-01T07:51:00","FM-15","7",,"ESE","1.5","mi","TEMP, PRECIP, SNOW",,,"PSY, SRG, SNOWBOARD",,,"FAA CWO",,,,,,,,,,,,,,,,,,,,,,,,,,,,"30.38","-5","8","0.00",,,,"55","30.38","FEW:02 35","30.35","10.00","6","320",,"18",,,,,,,,,,,,,,,,,,,,,,,,,,,,,,,,,,,,,"MET10001/01/18 07:51:02 METAR KJFK 011251Z 32016KT 10SM FEW035 M13/M21 A3038 RMK AO2 SLP287 T11331206 (BH)","FM-15","7",,,,,,,,,,,,,,,,,,,,,,,,,,,"2009-05-01"
"74486094789","2018-01-01T08:51:00","FM-15","7",,"ESE","1.5","mi","TEMP, PRECIP, SNOW",,,"PSY, SRG, SNOWBOARD",,,"FAA CWO",,,,,,,,,,,,,,,,,,,,,,,,,,,,"30.39","-3","10","0.00",,,,"55","30.39","FEW:02 38","30.37","10.00","8","310","32","24",,,,,,,,,,,,,,,,,,,,,,,,,,,,,,,,,,,,,"MET12101/01/18 08:51:02 METAR KJFK 011351Z 31021G28KT 10SM FEW038 M12/M19 A3039 RMK AO2 PK WND 31028/1344 SLP290 T11221194 (BH)","FM-15","7",,,,,,,,,,,,,,,,,,,,,,,,,,,"2009-05-01"
"74486094789","2018-01-01T09:51:00","FM-15","7",,"ESE","1.5","mi","TEMP, PRECIP, SNOW",,,"PSY, SRG, SNOWBOARD",,,"FAA CWO",,,,,,,,,,,,,,,,,,,,,,,,,,,,"30.40","-2","12","0.00",,"-0.03","3","53","30.40","FEW:02 40","30.37","10.00","9","320","31","21",,,,,,,,,,,,,,,,,,,,,,,,,,,,,,,,,,,,,"MET12701/01/18 09:51:02 METAR KJFK 011451Z 32018G27KT 10SM FEW040 M11/M19 A3040 RMK AO2 PK WND 33027/1415 SLP295 T11111189 53011 (BH)","FM-15","7",,,,,,,,,,,,,,,,,,,,,,,,,,,"2009-05-01"
"74486094789","2018-01-01T10:00:00","FM-12","4",,"ESE","1.5","mi","TEMP, PRECIP, SNOW",,,"PSY, SRG, SNOWBOARD",,,"FAA CWO",,,,,,,,,,,,,,,,,,,,,,,,,,,,,"-2","12",,,"-0.03","3","53","30.40","41","30.37","9.94","9","320",,"21",,,,,,,,,,,,,,,,,,,,,,,,,,,,,,,,,,,,,"SYN07474486 32666 23218 11111 21189 30283 40295 53011 91451 333 91027 555 90115=","FM-12","4",,,,,,,,,,,,,,,,,,,,,,,,,,,"2009-05-01"
"74486094789","2018-01-01T10:51:00","FM-15","7",,"ESE","1.5","mi","TEMP, PRECIP, SNOW",,,"PSY, SRG, SNOWBOARD",,,"FAA CWO",,,,,,,,,,,,,,,,,,,,,,,,,,,,"30.39","-3","13","0.00",,,,"49","30.38","FEW:02 40","30.37","10.00","10","310",,"24",,,,,,,,,,,,,,,,,,,,,,,,,,,,,,,,,,,,,"MET11801/01/18 10:51:02 METAR KJFK 011551Z 31021KT 10SM FEW040 M11/M19 A3039 RMK AO2 PK WND 31030/1501 SLP289 T11061194 (BH)","FM-15","7",,,,,,,,,,,,,,,,,,,,,,,,,,,"2009-05-01"
"74486094789","2018-01-01T11:51:00","FM-15","7",,"ESE","1.5","mi","TEMP, PRECIP, SNOW",,,"PSY, SRG, SNOWBOARD",,,"FAA CWO",,,,,,,,,,,,,,,,,,,,,,,,,,,,"30.37","-3","15","0.00",,,,"44","30.37","FEW:02 43","30.35","10.00","11","320",,"21",,,,,,,,,,,,,,,,,,,,,,,,,,,,,,,,,,,,,"MET11801/01/18 11:51:02 METAR KJFK 011651Z 32018KT 10SM FEW043 M09/M19 A3037 RMK AO2 PK WND 31026/1607 SLP285 T10941194 (BH)","FM-15","7",,,,,,,,,,,,,,,,,,,,,,,,,,,"2009-05-01"
"74486094789","2018-01-01T12:51:00","FM-15","7",,"ESE","1.5","mi","TEMP, PRECIP, SNOW",,,"PSY, SRG, SNOWBOARD",,,"FAA CWO",,,,,,,,,,,,,,,,,,,,,,,,,,,,"30.36","-3","17","0.00",,"+0.04","6","41","30.36","FEW:02 45","30.34","10.00","13","320","26","20",,,,,,,,,,,,,,,,,,,,,,,,,,,,,,,,,,,,,"MET13901/01/18 12:51:02 METAR KJFK 011751Z 32017G23KT 10SM FEW045 M08/M19 A3036 RMK AO2 PK WND 30026/1729 SLP280 T10831194 11083 21139 56015 (BH)","FM-15","7",,,,,,,,,,,,,,,,,,,,,,,,,,,"2009-05-01"
"74486094789","2018-01-01T13:00:00","FM-12","4",,"ESE","1.5","mi","TEMP, PRECIP, SNOW",,,"PSY, SRG, SNOWBOARD",,,"FAA CWO",,,,,,,,,,,,,,,,,,,,,,,,,,,,,"-3","17",,,"+0.04","6","41","30.36","41","30.33","9.94","13","320",,"20",,,,,,,,,,,,,,,,,,,,,,,,,,,,,,,,,,,,,"SYN08674486 32666 23217 11083 21194 30270 40280 56015 91751 333 11083 21139 91023 555 90118=","FM-12","4",,,,,,,,,,,,,,,,,,,,,,,,,,,"2009-05-01"
"74486094789","2018-01-01T13:51:00","FM-15","7",,"ESE","1.5","mi","TEMP, PRECIP, SNOW",,,"PSY, SRG, SNOWBOARD",,,"FAA CWO",,,,,,,,,,,,,,,,,,,,,,,,,,,,"30.35","-4","17","0.00",,,,"39","30.34","FEW:02 45","30.32","10.00","13","330",,"24",,,,,,,,,,,,,,,,,,,,,,,,,,,,,,,,,,,,,"MET11801/01/18 13:51:02 METAR KJFK 011851Z 33021KT 10SM FEW045 M08/M20 A3035 RMK AO2 PK WND 31026/1838 SLP275 T10831200 (BH)","FM-15","7",,,,,,,,,,,,,,,,,,,,,,,,,,,"2009-05-01"
"74486094789","2018-01-01T14:51:00","FM-15","7",,"ESE","1.5","mi","TEMP, PRECIP, SNOW",,,"PSY, SRG, SNOWBOARD",,,"FAA CWO",,,,,,,,,,,,,,,,,,,,,,,,,,,,"30.35","-5","18","0.00",,,,"35","30.35","FEW:02 50","30.32","10.00","13","330","25","20",,,,,,,,,,,,,,,,,,,,,,,,,,,,,,,,,,,,,"MET12101/01/18 14:51:02 METAR KJFK 011951Z 33017G22KT 10SM FEW050 M08/M21 A3035 RMK AO2 PK WND 32029/1926 SLP276 T10781206 (RR)","FM-15","7",,,,,,,,,,,,,,,,,,,,,,,,,,,"2009-05-01"
"74486094789","2018-01-01T15:51:00","FM-15","7",,"ESE","1.5","mi","TEMP, PRECIP, SNOW",,,"PSY, SRG, SNOWBOARD",,,"FAA CWO",,,,,,,,,,,,,,,,,,,,,,,,,,,,"30.35","-5","18","0.00",,"+0.01","5","35","30.35","FEW:02 50","30.32","10.00","13","320",,"17",,,,,,,,,,,,,,,,,,,,,,,,,,,,,,,,,,,,,"MET10601/01/18 15:51:02 METAR KJFK 012051Z 32015KT 10SM FEW050 M08/M21 A3035 RMK AO2 SLP277 T10781206 55003 (RR)","FM-15","7",,,,,,,,,,,,,,,,,,,,,,,,,,,"2009-05-01"
"74486094789","2018-01-01T16:00:00","FM-12","4",,"ESE","1.5","mi","TEMP, PRECIP, SNOW",,,"PSY, SRG, SNOWBOARD",,,"FAA CWO",,,,,,,,,,,,,,,,,,,,,,,,,,,,,"-5","18",,,"+0.01","5","35","30.35","57","30.32","9.94","13","320",,"17",,,,,,,,,,,,,,,,,,,,,,,,,,,,,,,,,,,,,"SYN06474486 32766 23215 11078 21206 30266 40277 55003 92051 555 90121=","FM-12","4",,,,,,,,,,,,,,,,,,,,,,,,,,,"2009-05-01"
"74486094789","2018-01-01T16:51:00","FM-15","7",,"ESE","1.5","mi","TEMP, PRECIP, SNOW",,,"PSY, SRG, SNOWBOARD",,,"FAA CWO",,,,,,,,,,,,,,,,,,,,,,,,,,,,"30.36","-6","17","0.00",,,,"35","30.35","FEW:02 50","30.34","10.00","13","310",,"16",,,,,,,,,,,,,,,,,,,,,,,,,,,,,,,,,,,,,"MET10001/01/18 16:51:02 METAR KJFK 012151Z 31014KT 10SM FEW050 M08/M21 A3036 RMK AO2 SLP279 T10831211 (RR)","FM-15","7",,,,,,,,,,,,,,,,,,,,,,,,,,,"2009-05-01"
"74486094789","2018-01-01T17:51:00","FM-15","7",,"ESE","1.5","mi","TEMP, PRECIP, SNOW",,,"PSY, SRG, SNOWBOARD",,,"FAA CWO",,,,,,,,,,,,,,,,,,,,,,,,,,,,"30.37","-6","18","0.00",,,,"34","30.37","FEW:02 50","30.35","10.00","13","280","22","15",,,,,,,,,,,,,,,,,,,,,,,,,,,,,,,,,,,,,"MET10301/01/18 17:51:02 METAR KJFK 012251Z 28013G19KT 10SM FEW050 M08/M21 A3037 RMK AO2 SLP283 T10781211 (RR)","FM-15","7",,,,,,,,,,,,,,,,,,,,,,,,,,,"2009-05-01"
"74486094789","2018-01-01T18:51:00","FM-15","7",,"ESE","1.5","mi","TEMP, PRECIP, SNOW",,,"PSY, SRG, SNOWBOARD",,,"FAA CWO",,,,,,,,,,,,,,,,,,,,,,,,,,,,"30.38","-5","18","0.00",,"-0.02","1","35","30.37","FEW:02 50","30.35","10.00","13","300",,"17",,,,,,,,,,,,,,,,,,,,,,,,,,,,,,,,,,,,,"MET11801/01/18 18:51:02 METAR KJFK 012351Z 30015KT 10SM FEW050 M08/M21 A3038 RMK AO2 SLP285 T10781206 11078 21089 51008 (RR)","FM-15","7",,,,,,,,,,,,,,,,,,,,,,,,,,,"2009-05-01"
"74486094789","2018-01-01T19:00:00","FM-12","4",,"ESE","1.5","mi","TEMP, PRECIP, SNOW",,,"PSY, SRG, SNOWBOARD",,,"FAA CWO",,,,,,,,,,,,,,,,,,,,,,,,,,,,,"-5","18",,,"-0.02","1","35","30.37","57","30.35","9.94","13","300",,"17",,,,,,,,,,,,,,,,,,,,,,,,,,,,,,,,,,,,,"SYN08074486 32766 23015 11078 21206 30276 40285 51008 92351 333 11078 21139 555 90200=","FM-12","4",,,,,,,,,,,,,,,,,,,,,,,,,,,"2009-05-01"
"74486094789","2018-01-01T19:51:00","FM-15","7",,"ESE","1.5","mi","TEMP, PRECIP, SNOW",,,"PSY, SRG, SNOWBOARD",,,"FAA CWO",,,,,,,,,,,,,,,,,,,,,,,,,,,,"30.38","-4","17","0.00",,,,"39","30.37","FEW:02 50","30.35","10.00","13","290",,"15",,,,,,,,,,,,,,,,,,,,,,,,,,,,,,,,,,,,,"MET09501/01/18 19:51:01 METAR KJFK 020051Z 29013KT 10SM FEW050 M08/M20 A3038 RMK AO2 SLP286 T10831200","FM-15","7",,,,,,,,,,,,,,,,,,,,,,,,,,,"2009-05-01"
"74486094789","2018-01-01T20:51:00","FM-15","7",,"ESE","1.5","mi","TEMP, PRECIP, SNOW",,,"PSY, SRG, SNOWBOARD",,,"FAA CWO",,,,,,,,,,,,,,,,,,,,,,,,,,,,"30.38","-2","17","0.00",,,,"43","30.38","FEW:02 50","30.35","10.00","13","270",,"14",,,,,,,,,,,,,,,,,,,,,,,,,,,,,,,,,,,,,"MET09501/01/18 20:51:01 METAR KJFK 020151Z 27012KT 10SM FEW050 M08/M19 A3038 RMK AO2 SLP287 T10831189","FM-15","7",,,,,,,,,,,,,,,,,,,,,,,,,,,"2009-05-01"
"74486094789","2018-01-01T21:51:00","FM-15","7",,"ESE","1.5","mi","TEMP, PRECIP, SNOW",,,"PSY, SRG, SNOWBOARD",,,"FAA CWO",,,,,,,,,,,,,,,,,,,,,,,,,,,,"30.38","2","17","0.00",,"-0.01","3","51","30.38","FEW:02 50","30.35","10.00","14","270",,"14",,,,,,,,,,,,,,,,,,,,,,,,,,,,,,,,,,,,,"MET10101/01/18 21:51:02 METAR KJFK 020251Z 27012KT 10SM FEW050 M08/M17 A3038 RMK AO2 SLP288 T10831167 53002","FM-15","7",,,,,,,,,,,,,,,,,,,,,,,,,,,"2009-05-01"
"74486094789","2018-01-01T22:00:00","FM-12","4",,"ESE","1.5","mi","TEMP, PRECIP, SNOW",,,"PSY, SRG, SNOWBOARD",,,"FAA CWO",,,,,,,,,,,,,,,,,,,,,,,,,,,,,"2","17",,,"-0.01","3","51","30.38","57","30.35","9.94","14","270",,"14",,,,,,,,,,,,,,,,,,,,,,,,,,,,,,,,,,,,,"SYN06474486 32766 22712 11083 21167 30276 40288 53002 90251 555 90203=","FM-12","4",,,,,,,,,,,,,,,,,,,,,,,,,,,"2009-05-01"
"74486094789","2018-01-01T22:51:00","FM-15","7",,"ESE","1.5","mi","TEMP, PRECIP, SNOW",,,"PSY, SRG, SNOWBOARD",,,"FAA CWO",,,,,,,,,,,,,,,,,,,,,,,,,,,,"30.38","4","17","0.00",,,,"56","30.38","FEW:02 50","30.35","10.00","14","280","22","15",,,,,,,,,,,,,,,,,,,,,,,,,,,,,,,,,,,,,"MET09801/01/18 22:51:02 METAR KJFK 020351Z 28013G19KT 10SM FEW050 M08/M16 A3038 RMK AO2 SLP287 T10831156","FM-15","7",,,,,,,,,,,,,,,,,,,,,,,,,,,"2009-05-01"
"74486094789","2018-01-01T23:51:00","FM-15","7",,"ESE","1.5","mi","TEMP, PRECIP, SNOW",,,"PSY, SRG, SNOWBOARD",,,"FAA CWO",,,,,,,,,,,,,,,,,,,,,,,,,,,,"30.37","4","16","0.00",,,,"59","30.37","FEW:02 50","30.35","10.00","13","270","24","15",,,,,,,,,,,,,,,,,,,,,,,,,,,,,,,,,,,,,"MET10801/01/18 23:51:02 METAR KJFK 020451Z 27013G21KT 10SM FEW050 M09/M16 A3037 RMK AO2 SLP284 T10891156 410781139","FM-15","7",,,,,,,,,,,,,,,,,,,,,,,,,,,"2009-05-01"
"74486094789","2018-01-01T23:59:00","SOD  ","6",,"ESE","1.5","mi","TEMP, PRECIP, SNOW",,,"PSY, SRG, SNOWBOARD",,,"FAA CWO",,,,,,"-2","13","48","30.36","30.34","10","17.6","0","-20.7","52","18","7","310","34","0.00","0","0.0","310","29",,,,,,,,,,,,,,,,,,,,,,,,,,,,,,,,,,,,,,,,,,,,,,,,,,,,,,,,"SOD73924 HR PRECIPITATION (IN): 0.00 SNOW DEPTH (IN):0     24 HR SNOWFALL (IN):0.0  24 HR MAX TEMP (F): 1824 HR MIN TEMP (F):  7AVERAGE STATION PRESSURE:30.335 MINIMUM SEA LEVEL PRESSURE:30.32 TIME OF OCCURRENCE:0011 PEAK WIND SPEED (MPH): 34 PEAK WIND DIR (DEG):310 PEAK WIND TIME (LST):      FASTEST 2MIN SPEED (MPH): 29FASTEST 2MIN DIR (DEG):310 FASTEST 2MIN TIME (LST):     AVERAGE WIND SPEED (MPH):17.6 24 HR AVG TEMP (F): 13DEPART FROM NORMAL:-21  HEATING DEGREE DAYS: 52 COOLING DEGREE DAYS:  0 LATEST DAY MAX TEMP (0700-1900 LST):18  LATEST NIGHT MIN TEMP(1900-0800 LST):7  HOURLY INCREMENTAL PRECIPITATION VALUES (IN):.00 0.00 0.00 0.00 0.00 0.00 0.00 0.00 0.00 0.00 0.00 0.00 0.00 0.00 0.00 0.00 0.00 0.00 0.00 0.00 0.00 0.00 0.00 0.00","SOD  ","6",,,,,,,,,,,,,,,,,,,,,,,,,"0719","1639","2009-05-01"
"74486094789","2018-01-02T00:51:00","FM-15","7",,"ESE","1.5","mi","TEMP, PRECIP, SNOW",,,"PSY, SRG, SNOWBOARD",,,"FAA CWO",,,,,,,,,,,,,,,,,,,,,,,,,,,,"30.37","3","15","0.00",,"+0.01","8","59","30.37","FEW:02 50","30.35","10.00","12","270",,"16",,,,,,,,,,,,,,,,,,,,,,,,,,,,,,,,,,,,,"MET11801/02/18 00:51:02 METAR KJFK 020551Z 27014KT 10SM FEW050 M09/M16 A3037 RMK AO2 SLP283 T10941161 11078 21094 58004 (JC)","FM-15","7",,,,,,,,,,,,,,,,,,,,,,,,,,,"2009-05-01"
"74486094789","2018-01-02T01:00:00","FM-12","4",,"ESE","1.5","mi","TEMP, PRECIP, SNOW",,,"PSY, SRG, SNOWBOARD",,,"FAA CWO",,,,,,,,,,,,,,,,,,,,,,,,,,,,,"3","15",,,"+0.01","8","59","30.37","57","30.34","9.94","12","270",,"16",,,,,,,,,,,,,,,,,,,,,,,,,,,,,,,,,,,,,"SYN08074486 32766 22714 11094 21161 30273 40283 58004 90551 333 11078 21139 555 90206=","FM-12","4",,,,,,,,,,,,,,,,,,,,,,,,,,,"2009-05-01"
"74486094789","2018-01-02T01:51:00","FM-15","7",,"ESE","1.5","mi","TEMP, PRECIP, SNOW",,,"PSY, SRG, SNOWBOARD",,,"FAA CWO",,,,,,,,,,,,,,,,,,,,,,,,,,,,"30.37","2","15","0.00",,,,"56","30.37","CLR:00","30.35","10.00","12","280",,"11",,,,,,,,,,,,,,,,,,,,,,,,,,,,,,,,,,,,,"MET09701/02/18 01:51:02 METAR KJFK 020651Z 28010KT 10SM CLR M09/M17 A3037 RMK AO2 SLP284 T10941167 (JC)","FM-15","7",,,,,,,,,,,,,,,,,,,,,,,,,,,"2009-05-01"
"74486094789","2018-01-02T02:51:00","FM-15","7",,"ESE","1.5","mi","TEMP, PRECIP, SNOW",,,"PSY, SRG, SNOWBOARD",,,"FAA CWO",,,,,,,,,,,,,,,,,,,,,,,,,,,,"30.39","2","15","0.00",,,,"56","30.39","CLR:00","30.37","10.00","12","280",,"15",,,,,,,,,,,,,,,,,,,,,,,,,,,,,,,,,,,,,"MET09701/02/18 02:51:02 METAR KJFK 020751Z 28013KT 10SM CLR M09/M17 A3039 RMK AO2 SLP290 T10941167 (JC)","FM-15","7",,,,,,,,,,,,,,,,,,,,,,,,,,,"2009-05-01"
"74486094789","2018-01-02T03:51:00","FM-15","7",,"ESE","1.5","mi","TEMP, PRECIP, SNOW",,,"PSY, SRG, SNOWBOARD",,,"FAA CWO",,,,,,,,,,,,,,,,,,,,,,,,,,,,"30.39","2","14","0.00",,"-0.02","0","58","30.39","CLR:00","30.37","10.00","11","270",,"16",,,,,,,,,,,,,,,,,,,,,,,,,,,,,,,,,,,,,"MET10301/02/18 03:51:02 METAR KJFK 020851Z 27014KT 10SM CLR M10/M17 A3039 RMK AO2 SLP290 T11001167 50006 (JC)","FM-15","7",,,,,,,,,,,,,,,,,,,,,,,,,,,"2009-05-01"
"74486094789","2018-01-02T04:00:00","FM-12","4",,"ESE","1.5","mi","TEMP, PRECIP, SNOW",,,"PSY, SRG, SNOWBOARD",,,"FAA CWO",,,,,,,,,,,,,,,,,,,,,,,,,,,,,"2","14",,,"0.02","9","58","30.39",,"30.36","9.94","11","270",,"16",,,,,,,,,,,,,,,,,,,,,,,,,,,,,,,,,,,,,"SYN06474486 32966 02714 11100 21167 30280 40290 50006 90851 555 90209=","FM-12","4",,,,,,,,,,,,,,,,,,,,,,,,,,,"2009-05-01"
"74486094789","2018-01-02T04:51:00","FM-15","7",,"ESE","1.5","mi","TEMP, PRECIP, SNOW",,,"PSY, SRG, SNOWBOARD",,,"FAA CWO",,,,,,,,,,,,,,,,,,,,,,,,,,,,"30.40","2","14","0.00",,,,"58","30.39","CLR:00","30.37","10.00","11","290","23","18",,,,,,,,,,,,,,,,,,,,,,,,,,,,,,,,,,,,,"MET10001/02/18 04:51:02 METAR KJFK 020951Z 29016G20KT 10SM CLR M10/M17 A3040 RMK AO2 SLP292 T11001167 (JC)","FM-15","7",,,,,,,,,,,,,,,,,,,,,,,,,,,"2009-05-01"
"74486094789","2018-01-02T05:51:00","FM-15","7",,"ESE","1.5","mi","TEMP, PRECIP, SNOW",,,"PSY, SRG, SNOWBOARD",,,"FAA CWO",,,,,,,,,,,,,,,,,,,,,,,,,,,,"30.41","2","14","0.00",,,,"58","30.41","FEW:02 40","30.38","10.00","11","280",,"16",,,,,,,,,,,,,,,,,,,,,,,,,,,,,,,,,,,,,"MET10001/02/18 05:51:02 METAR KJFK 021051Z 28014KT 10SM FEW040 M10/M17 A3041 RMK AO2 SLP298 T11001167 (JC)","FM-15","7",,,,,,,,,,,,,,,,,,,,,,,,,,,"2009-05-01"
"74486094789","2018-01-02T06:51:00","FM-15","7",,"ESE","1.5","mi","TEMP, PRECIP, SNOW",,,"PSY, SRG, SNOWBOARD",,,"FAA CWO",,,,,,,,,,,,,,,,,,,,,,,,,,,,"30.43","3","14","0.00",,"-0.05","3","61","30.43","FEW:02 40 SCT:04 50","30.40","10.00","12","270",,"15",,,,,,,,,,,,,,,,,,,,,,,,,,,,,,,,,,,,,"MET12501/02/18 06:51:02 METAR KJFK 021151Z 27013KT 10SM FEW040 SCT050 M10/M16 A3043 RMK AO2 SLP305 T11001161 11094 21106 53016 (BH)","FM-15","7",,,,,,,,,,,,,,,,,,,,,,,,,,,"2009-05-01"
"74486094789","2018-01-02T07:00:00","FM-12","4",,"ESE","1.5","mi","TEMP, PRECIP, SNOW",,,"PSY, SRG, SNOWBOARD",,,"FAA CWO",,,,,,,,,,,,,,,,,,,,,,,,,,,,,"3","14",,,"-0.05","3","61","30.43","41","30.40","9.94","12","270",,"15",,,,,,,,,,,,,,,,,,,,,,,,,,,,,,,,,,,,,"SYN08074486 32666 42713 11100 21161 30293 40305 53016 91151 333 11078 21106 555 90212=","FM-12","4",,,,,,,,,,,,,,,,,,,,,,,,,,,"2009-05-01"
"74486094789","2018-01-02T07:51:00","FM-15","7",,"ESE","1.5","mi","TEMP, PRECIP, SNOW",,,"PSY, SRG, SNOWBOARD",,,"FAA CWO",,,,,,,,,,,,,,,,,,,,,,,,,,,,"30.45","3","14","0.00",,,,"61","30.44","FEW:02 40 FEW:02 55","30.42","10.00","12","290",,"14",,,,,,,,,,,,,,,,,,,,,,,,,,,,,,,,,,,,,"MET10701/02/18 07:51:02 METAR KJFK 021251Z 29012KT 10SM FEW040 FEW055 M10/M16 A3045 RMK AO2 SLP309 T11001161 (BH)","FM-15","7",,,,,,,,,,,,,,,,,,,,,,,,,,,"2009-05-01"
"74486094789","2018-01-02T08:51:00","FM-15","7",,"ESE","1.5","mi","TEMP, PRECIP, SNOW",,,"PSY, SRG, SNOWBOARD",,,"FAA CWO",,,,,,,,,,,,,,,,,,,,,,,,,,,,"30.45","3","16","0.00",,,,"56","30.45","FEW:02 45 FEW:02 250","30.42","10.00","13","290",,"14",,,,,,,,,,,,,,,,,,,,,,,,,,,,,,,,,,,,,"MET10701/02/18 08:51:02 METAR KJFK 021351Z 29012KT 10SM FEW045 FEW250 M09/M16 A3045 RMK AO2 SLP311 T10891161 (BH)","FM-15","7",,,,,,,,,,,,,,,,,,,,,,,,,,,"2009-05-01"
"74486094789","2018-01-02T09:51:00","FM-15","7",,"ESE","1.5","mi","TEMP, PRECIP, SNOW",,,"PSY, SRG, SNOWBOARD",,,"FAA CWO",,,,,,,,,,,,,,,,,,,,,,,,,,,,"30.46","4","18","0.00",,"-0.02","1","54","30.45","FEW:02 47 SCT:04 250","30.43","10.00","15","270",,"17",,,,,,,,,,,,,,,,,,,,,,,,,,,,,,,,,,,,,"MET11301/02/18 09:51:02 METAR KJFK 021451Z 27015KT 10SM FEW047 SCT250 M08/M16 A3046 RMK AO2 SLP313 T10781156 51007 (BH)","FM-15","7",,,,,,,,,,,,,,,,,,,,,,,,,,,"2009-05-01"
"74486094789","2018-01-02T10:00:00","FM-12","4",,"ESE","1.5","mi","TEMP, PRECIP, SNOW",,,"PSY, SRG, SNOWBOARD",,,"FAA CWO",,,,,,,,,,,,,,,,,,,,,,,,,,,,,"4","18",,,"-0.02","1","54","30.45","41","30.42","9.94","15","270",,"17",,,,,,,,,,,,,,,,,,,,,,,,,,,,,,,,,,,,,"SYN06474486 32666 42715 11078 21156 30303 40313 51007 91451 555 90215=","FM-12","4",,,,,,,,,,,,,,,,,,,,,,,,,,,"2009-05-01"
"74486094789","2018-01-02T10:51:00","FM-15","7",,"ESE","1.5","mi","TEMP, PRECIP, SNOW",,,"PSY, SRG, SNOWBOARD",,,"FAA CWO",,,,,,,,,,,,,,,,,,,,,,,,,,,,"30.44","4","20","0.00",,,,"50","30.43","FEW:02 50 SCT:04 250","30.42","10.00","16","290",,"15",,,,,,,,,,,,,,,,,,,,,,,,,,,,,,,,,,,,,"MET10701/02/18 10:51:02 METAR KJFK 021551Z 29013KT 10SM FEW050 SCT250 M07/M16 A3044 RMK AO2 SLP306 T10671156 (BH)","FM-15","7",,,,,,,,,,,,,,,,,,,,,,,,,,,"2009-05-01"
"74486094789","2018-01-02T11:51:00","FM-15","7",,"ESE","1.5","mi","TEMP, PRECIP, SNOW",,,"PSY, SRG, SNOWBOARD",,,"FAA CWO",,,,,,,,,,,,,,,,,,,,,,,,,,,,"30.40","5","22","0.00",,,,"48","30.40","FEW:02 50 SCT:04 250","30.37","10.00","18","290","23","14",,,,,,,,,,,,,,,,,,,,,,,,,,,,,,,,,,,,,"MET11001/02/18 11:51:02 METAR KJFK 021651Z 29012G20KT 10SM FEW050 SCT250 M06/M15 A3040 RMK AO2 SLP294 T10561150 (BH)","FM-15","7",,,,,,,,,,,,,,,,,,,,,,,,,,,"2009-05-01"
"74486094789","2018-01-02T12:51:00","FM-15","7",,"ESE","1.5","mi","TEMP, PRECIP, SNOW",,,"PSY, SRG, SNOWBOARD",,,"FAA CWO",,,,,,,,,,,,,,,,,,,,,,,,,,,,"30.38","6","24","0.00",,"+0.08","8","46","30.37","FEW:02 50 SCT:04 250","30.35","10.00","19","260",,"17",,,,,,,,,,,,,,,,,,,,,,,,,,,,,,,,,,,,,"MET12501/02/18 12:51:02 METAR KJFK 021751Z 26015KT 10SM FEW050 SCT250 M04/M14 A3038 RMK AO2 SLP286 T10441144 11044 21100 58027 (BH)","FM-15","7",,,,,,,,,,,,,,,,,,,,,,,,,,,"2009-05-01"
"74486094789","2018-01-02T13:00:00","FM-12","4",,"ESE","1.5","mi","TEMP, PRECIP, SNOW",,,"PSY, SRG, SNOWBOARD",,,"FAA CWO",,,,,,,,,,,,,,,,,,,,,,,,,,,,,"6","24",,,"+0.08","8","46","30.37","57","30.35","9.94","19","260",,"17",,,,,,,,,,,,,,,,,,,,,,,,,,,,,,,,,,,,,"SYN08074486 32766 42615 11044 21144 30276 40286 58027 91751 333 11044 21100 555 90218=","FM-12","4",,,,,,,,,,,,,,,,,,,,,,,,,,,"2009-05-01"
"74486094789","2018-01-02T13:51:00","FM-15","7",,"ESE","1.5","mi","TEMP, PRECIP, SNOW",,,"PSY, SRG, SNOWBOARD",,,"FAA CWO",,,,,,,,,,,,,,,,,,,,,,,,,,,,"30.35","6","25","0.00",,,,"44","30.35","FEW:02 50 FEW:02 250","30.32","10.00","20","270",,"14",,,,,,,,,,,,,,,,,,,,,,,,,,,,,,,,,,,,,"MET10701/02/18 13:51:02 METAR KJFK 021851Z 27012KT 10SM FEW050 FEW250 M04/M14 A3035 RMK AO2 SLP278 T10391144 (BH)","FM-15","7",,,,,,,,,,,,,,,,,,,,,,,,,,,"2009-05-01"
"74486094789","2018-01-02T14:51:00","FM-15","7",,"ESE","1.5","mi","TEMP, PRECIP, SNOW",,,"PSY, SRG, SNOWBOARD",,,"FAA CWO",,,,,,,,,,,,,,,,,,,,,,,,,,,,"30.35","6","26","0.00",,,,"42","30.35","FEW:02 50 SCT:04 250","30.32","10.00","21","260",,"14",,,,,,,,,,,,,,,,,,,,,,,,,,,,,,,,,,,,,"MET10701/02/18 14:51:02 METAR KJFK 021951Z 26012KT 10SM FEW050 SCT250 M03/M14 A3035 RMK AO2 SLP277 T10331144 (RR)","FM-15","7",,,,,,,,,,,,,,,,,,,,,,,,,,,"2009-05-01"
"74486094789","2018-01-02T15:51:00","FM-15","7",,"ESE","1.5","mi","TEMP, PRECIP, SNOW",,,"PSY, SRG, SNOWBOARD",,,"FAA CWO",,,,,,,,,,,,,,,,,,,,,,,,,,,,"30.35","8","25","0.00",,"+0.03","6","48","30.35","FEW:02 50 SCT:04 250","30.32","10.00","20","250",,"16",,,,,,,,,,,,,,,,,,,,,,,,,,,,,,,,,,,,,"MET11301/02/18 15:51:02 METAR KJFK 022051Z 25014KT 10SM FEW050 SCT250 M04/M13 A3035 RMK AO2 SLP276 T10391133 56009 (RR)","FM-15","7",,,,,,,,,,,,,,,,,,,,,,,,,,,"2009-05-01"
"74486094789","2018-01-02T16:00:00","FM-12","4",,"ESE","1.5","mi","TEMP, PRECIP, SNOW",,,"PSY, SRG, SNOWBOARD",,,"FAA CWO",,,,,,,,,,,,,,,,,,,,,,,,,,,,,"8","25",,,"+0.03","6","48","30.35","57","30.32","9.94","20","250",,"16",,,,,,,,,,,,,,,,,,,,,,,,,,,,,,,,,,,,,"SYN06474486 32766 42514 11039 21133 30266 40276 56009 92051 555 90221=","FM-12","4",,,,,,,,,,,,,,,,,,,,,,,,,,,"2009-05-01"
"74486094789","2018-01-02T16:51:00","FM-15","7",,"ESE","1.5","mi","TEMP, PRECIP, SNOW",,,"PSY, SRG, SNOWBOARD",,,"FAA CWO",,,,,,,,,,,,,,,,,,,,,,,,,,,,"30.34","7","24","0.00",,,,"48","30.34","FEW:02 50 SCT:04 250","30.32","10.00","20","260",,"18",,,,,,,,,,,,,,,,,,,,,,,,,,,,,,,,,,,,,"MET10701/02/18 16:51:02 METAR KJFK 022151Z 26016KT 10SM FEW050 SCT250 M04/M14 A3034 RMK AO2 SLP273 T10441139 (RR)","FM-15","7",,,,,,,,,,,,,,,,,,,,,,,,,,,"2009-05-01"
"74486094789","2018-01-02T17:51:00","FM-15","7",,"ESE","1.5","mi","TEMP, PRECIP, SNOW",,,"PSY, SRG, SNOWBOARD",,,"FAA CWO",,,,,,,,,,,,,,,,,,,,,,,,,,,,"30.35","8","23","0.00",,,,"53","30.34","FEW:02 250","30.32","10.00","19","260",,"15",,,,,,,,,,,,,,,,,,,,,,,,,,,,,,,,,,,,,"MET10001/02/18 17:51:02 METAR KJFK 022251Z 26013KT 10SM FEW250 M05/M13 A3035 RMK AO2 SLP275 T10501133 (RR)","FM-15","7",,,,,,,,,,,,,,,,,,,,,,,,,,,"2009-05-01"
"74486094789","2018-01-02T18:51:00","FM-15","7",,"ESE","1.5","mi","TEMP, PRECIP, SNOW",,,"PSY, SRG, SNOWBOARD",,,"FAA CWO",,,,,,,,,,,,,,,,,,,,,,,,,,,,"30.36","8","23","0.00",,"-0.01","3","53","30.35","SCT:04 250","30.34","10.00","19","260",,"20",,,,,,,,,,,,,,,,,,,,,,,,,,,,,,,,,,,,,"MET11801/02/18 18:51:02 METAR KJFK 022351Z 26017KT 10SM SCT250 M05/M13 A3036 RMK AO2 SLP279 T10501133 11033 21050 53003 (RR)","FM-15","7",,,,,,,,,,,,,,,,,,,,,,,,,,,"2009-05-01"
"74486094789","2018-01-02T19:00:00","FM-12","4",,"ESE","1.5","mi","TEMP, PRECIP, SNOW",,,"PSY, SRG, SNOWBOARD",,,"FAA CWO",,,,,,,,,,,,,,,,,,,,,,,,,,,,,"8","23",,,"-0.01","3","53","30.35",,"30.33","9.94","19","260",,"20",,,,,,,,,,,,,,,,,,,,,,,,,,,,,,,,,,,,,"SYN08074486 32966 42617 11050 21133 30270 40279 53003 92351 333 11033 21106 555 90300=","FM-12","4",,,,,,,,,,,,,,,,,,,,,,,,,,,"2009-05-01"
"74486094789","2018-01-02T19:51:00","FM-15","7",,"ESE","1.5","mi","TEMP, PRECIP, SNOW",,,"PSY, SRG, SNOWBOARD",,,"FAA CWO",,,,,,,,,,,,,,,,,,,,,,,,,,,,"30.35","7","21","0.00",,,,"54","30.35","FEW:02 250","30.32","10.00","17","260",,"20",,,,,,,,,,,,,,,,,,,,,,,,,,,,,,,,,,,,,"MET09501/02/18 19:51:01 METAR KJFK 030051Z 26017KT 10SM FEW250 M06/M14 A3035 RMK AO2 SLP278 T10611139","FM-15","7",,,,,,,,,,,,,,,,,,,,,,,,,,,"2009-05-01"
"74486094789","2018-01-02T20:51:00","FM-15","7",,"ESE","1.5","mi","TEMP, PRECIP, SNOW",,,"PSY, SRG, SNOWBOARD",,,"FAA CWO",,,,,,,,,,,,,,,,,,,,,,,,,,,,"30.36","6","20","0.00",,,,"55","30.36","SCT:04 250","30.34","10.00","17","260",,"17",,,,,,,,,,,,,,,,,,,,,,,,,,,,,,,,,,,,,"MET09501/02/18 20:51:01 METAR KJFK 030151Z 26015KT 10SM SCT250 M07/M14 A3036 RMK AO2 SLP280 T10671144","FM-15","7",,,,,,,,,,,,,,,,,,,,,,,,,,,"2009-05-01"
"74486094789","2018-01-02T21:51:00","FM-15","7",,"ESE","1.5","mi","TEMP, PRECIP, SNOW",,,"PSY, SRG, SNOWBOARD",,,"FAA CWO",,,,,,,,,,,,,,,,,,,,,,,,,,,,"30.36","5","20","0.00",,"+0.00","7","52","30.35","FEW:02 250","30.34","10.00","16","250",,"17",,,,,,,,,,,,,,,,,,,,,,,,,,,,,,,,,,,,,"MET10101/02/18 21:51:02 METAR KJFK 030251Z 25015KT 10SM FEW250 M07/M15 A3036 RMK AO2 SLP279 T10671150 57000","FM-15","7",,,,,,,,,,,,,,,,,,,,,,,,,,,"2009-05-01"
"74486094789","2018-01-02T22:00:00","FM-12","4",,"ESE","1.5","mi","TEMP, PRECIP, SNOW",,,"PSY, SRG, SNOWBOARD",,,"FAA CWO",,,,,,,,,,,,,,,,,,,,,,,,,,,,,"5","20",,,"0.00","4","52","30.35",,"30.33","9.94","16","250",,"17",,,,,,,,,,,,,,,,,,,,,,,,,,,,,,,,,,,,,"SYN06474486 32966 22515 11067 21150 30270 40279 57000 90251 555 90303=","FM-12","4",,,,,,,,,,,,,,,,,,,,,,,,,,,"2009-05-01"
"74486094789","2018-01-02T22:51:00","FM-15","7",,"ESE","1.5","mi","TEMP, PRECIP, SNOW",,,"PSY, SRG, SNOWBOARD",,,"FAA CWO",,,,,,,,,,,,,,,,,,,,,,,,,,,,"30.35","4","19","0.00",,,,"51","30.35","FEW:02 250","30.32","10.00","15","260",,"11",,,,,,,,,,,,,,,,,,,,,,,,,,,,,,,,,,,,,"MET09501/02/18 22:51:02 METAR KJFK 030351Z 26010KT 10SM FEW250 M07/M16 A3035 RMK AO2 SLP278 T10721156","FM-15","7",,,,,,,,,,,,,,,,,,,,,,,,,,,"2009-05-01"
"74486094789","2018-01-02T23:51:00","FM-15","7",,"ESE","1.5","mi","TEMP, PRECIP, SNOW",,,"PSY, SRG, SNOWBOARD",,,"FAA CWO",,,,,,,,,,,,,,,,,,,,,,,,,,,,"30.35","4","20","0.00",,,,"50","30.35","FEW:02 250","30.32","10.00","16","270",,"13",,,,,,,,,,,,,,,,,,,,,,,,,,,,,,,,,,,,,"MET10501/02/18 23:51:02 METAR KJFK 030451Z 27011KT 10SM FEW250 M07/M16 A3035 RMK AO2 SLP278 T10671156 410331106","FM-15","7",,,,,,,,,,,,,,,,,,,,,,,,,,,"2009-05-01"
"74486094789","2018-01-02T23:59:00","SOD  ","6",,"ESE","1.5","mi","TEMP, PRECIP, SNOW",,,"PSY, SRG, SNOWBOARD",,,"FAA CWO",,,,,,"5","20","53","30.38","30.35","16","15.6","0","-13.6","45","26","13","270","29","0.00","0","0.0","260","23",,,,,,,,,,,,,,,,,,,,,,,,,,,,,,,,,,,,,,,,,,,,,,,,,,,,,,,,"SOD73924 HR PRECIPITATION (IN): 0.00 SNOW DEPTH (IN):0     24 HR SNOWFALL (IN):0.0  24 HR MAX TEMP (F): 2624 HR MIN TEMP (F): 13AVERAGE STATION PRESSURE:30.355 MINIMUM SEA LEVEL PRESSURE:30.34 TIME OF OCCURRENCE:1809 PEAK WIND SPEED (MPH): 29 PEAK WIND DIR (DEG):270 PEAK WIND TIME (LST):      FASTEST 2MIN SPEED (MPH): 23FASTEST 2MIN DIR (DEG):260 FASTEST 2MIN TIME (LST):     AVERAGE WIND SPEED (MPH):15.6 24 HR AVG TEMP (F): 20DEPART FROM NORMAL:-14  HEATING DEGREE DAYS: 45 COOLING DEGREE DAYS:  0 LATEST DAY MAX TEMP (0700-1900 LST):26  LATEST NIGHT MIN TEMP(1900-0800 LST):13 HOURLY INCREMENTAL PRECIPITATION VALUES (IN):.00 0.00 0.00 0.00 0.00 0.00 0.00 0.00 0.00 0.00 0.00 0.00 0.00 0.00 0.00 0.00 0.00 0.00 0.00 0.00 0.00 0.00 0.00 0.00","SOD  ","6",,,,,,,,,,,,,,,,,,,,,,,,,"0719","1639","2009-05-01"
"74486094789","2018-01-03T00:51:00","FM-15","7",,"ESE","1.5","mi","TEMP, PRECIP, SNOW",,,"PSY, SRG, SNOWBOARD",,,"FAA CWO",,,,,,,,,,,,,,,,,,,,,,,,,,,,"30.35","4","19","0.00",,"+0.01","8","51","30.34","FEW:02 250","30.32","10.00","15","260",,"17",,,,,,,,,,,,,,,,,,,,,,,,,,,,,,,,,,,,,"MET11801/03/18 00:51:02 METAR KJFK 030551Z 26015KT 10SM FEW250 M07/M16 A3035 RMK AO2 SLP275 T10721156 11050 21072 58003 (JC)","FM-15","7",,,,,,,,,,,,,,,,,,,,,,,,,,,"2009-05-01"
"74486094789","2018-01-03T01:00:00","FM-12","4",,"ESE","1.5","mi","TEMP, PRECIP, SNOW",,,"PSY, SRG, SNOWBOARD",,,"FAA CWO",,,,,,,,,,,,,,,,,,,,,,,,,,,,,"4","19",,,"+0.01","8","51","30.34",,"30.32","9.94","15","260",,"17",,,,,,,,,,,,,,,,,,,,,,,,,,,,,,,,,,,,,"SYN08074486 32966 22615 11072 21156 30266 40275 58003 90551 333 11050 21106 555 90306=","FM-12","4",,,,,,,,,,,,,,,,,,,,,,,,,,,"2009-05-01"
"74486094789","2018-01-03T01:51:00","FM-15","7",,"ESE","1.5","mi","TEMP, PRECIP, SNOW",,,"PSY, SRG, SNOWBOARD",,,"FAA CWO",,,,,,,,,,,,,,,,,,,,,,,,,,,,"30.36","4","18","0.00",,,,"54","30.35","FEW:02 250","30.34","10.00","15","260",,"16",,,,,,,,,,,,,,,,,,,,,,,,,,,,,,,,,,,,,"MET10001/03/18 01:51:02 METAR KJFK 030651Z 26014KT 10SM FEW250 M08/M16 A3036 RMK AO2 SLP279 T10781156 (JC)","FM-15","7",,,,,,,,,,,,,,,,,,,,,,,,,,,"2009-05-01"
"74486094789","2018-01-03T02:51:00","FM-15","7",,"ESE","1.5","mi","TEMP, PRECIP, SNOW",,,"PSY, SRG, SNOWBOARD",,,"FAA CWO",,,,,,,,,,,,,,,,,,,,,,,,,,,,"30.37","3","17","0.00",,,,"54","30.37","FEW:02 250","30.35","10.00","14","250",,"13",,,,,,,,,,,,,,,,,,,,,,,,,,,,,,,,,,,,,"MET10001/03/18 02:51:02 METAR KJFK 030751Z 25011KT 10SM FEW250 M08/M16 A3037 RMK AO2 SLP283 T10831161 (JC)","FM-15","7",,,,,,,,,,,,,,,,,,,,,,,,,,,"2009-05-01"
"74486094789","2018-01-03T03:51:00","FM-15","7",,"ESE","1.5","mi","TEMP, PRECIP, SNOW",,,"PSY, SRG, SNOWBOARD",,,"FAA CWO",,,,,,,,,,,,,,,,,,,,,,,,,,,,"30.36","3","18","0.00",,"-0.01","0","52","30.36","FEW:02 250","30.34","10.00","15","270",,"16",,,,,,,,,,,,,,,,,,,,,,,,,,,,,,,,,,,,,"MET10601/03/18 03:51:02 METAR KJFK 030851Z 27014KT 10SM FEW250 M08/M16 A3036 RMK AO2 SLP281 T10781161 50005 (JC)","FM-15","7",,,,,,,,,,,,,,,,,,,,,,,,,,,"2009-05-01"
"74486094789","2018-01-03T04:00:00","FM-12","4",,"ESE","1.5","mi","TEMP, PRECIP, SNOW",,,"PSY, SRG, SNOWBOARD",,,"FAA CWO",,,,,,,,,,,,,,,,,,,,,,,,,,,,,"3","18",,,"0.01","9","52","30.36",,"30.33","9.94","15","270",,"16",,,,,,,,,,,,,,,,,,,,,,,,,,,,,,,,,,,,,"SYN06474486 32966 22714 11078 21161 30270 40281 50005 90851 555 90309=","FM-12","4",,,,,,,,,,,,,,,,,,,,,,,,,,,"2009-05-01"
"74486094789","2018-01-03T04:51:00","FM-15","7",,"ESE","1.5","mi","TEMP, PRECIP, SNOW",,,"PSY, SRG, SNOWBOARD",,,"FAA CWO",,,,,,,,,,,,,,,,,,,,,,,,,,,,"30.35","1","18","0.00",,,,"47","30.35","BKN:07 250","30.32","10.00","14","280",,"10",,,,,,,,,,,,,,,,,,,,,,,,,,,,,,,,,,,,,"MET10001/03/18 04:51:02 METAR KJFK 030951Z 28009KT 10SM BKN250 M08/M17 A3035 RMK AO2 SLP276 T10781172 (JC)","FM-15","7",,,,,,,,,,,,,,,,,,,,,,,,,,,"2009-05-01"
"74486094789","2018-01-03T05:51:00","FM-15","7",,"ESE","1.5","mi","TEMP, PRECIP, SNOW",,,"PSY, SRG, SNOWBOARD",,,"FAA CWO",,,,,,,,,,,,,,,,,,,,,,,,,,,,"30.34","2","17","0.00",,,,"51","30.34","BKN:07 240","30.32","10.00","14","280",,"9",,,,,,,,,,,,,,,,,,,,,,,,,,,,,,,,,,,,,"MET10001/03/18 05:51:02 METAR KJFK 031051Z 28008KT 10SM BKN240 M08/M17 A3034 RMK AO2 SLP273 T10831167 (JC)","FM-15","7",,,,,,,,,,,,,,,,,,,,,,,,,,,"2009-05-01"
"74486094789","2018-01-03T06:51:00","FM-15","7",,"ESE","1.5","mi","TEMP, PRECIP, SNOW",,,"PSY, SRG, SNOWBOARD",,,"FAA CWO",,,,,,,,,,,,,,,,,,,,,,,,,,,,"30.35","2","15","0.00",,"+0.01","5","56","30.35","SCT:04 240","30.32","10.00","12","250",,"9",,,,,,,,,,,,,,,,,,,,,,,,,,,,,,,,,,,,,"MET11801/03/18 06:51:02 METAR KJFK 031151Z 25008KT 10SM SCT240 M09/M17 A3035 RMK AO2 SLP276 T10941167 11072 21100 55005 (BH)","FM-15","7",,,,,,,,,,,,,,,,,,,,,,,,,,,"2009-05-01"
"74486094789","2018-01-03T07:00:00","FM-12","4",,"ESE","1.5","mi","TEMP, PRECIP, SNOW",,,"PSY, SRG, SNOWBOARD",,,"FAA CWO",,,,,,,,,,,,,,,,,,,,,,,,,,,,,"2","15",,,"+0.01","5","56","30.35",,"30.32","9.94","12","250",,"9",,,,,,,,,,,,,,,,,,,,,,,,,,,,,,,,,,,,,"SYN08074486 32966 42508 11094 21167 30266 40276 55005 91151 333 11033 21100 555 90312=","FM-12","4",,,,,,,,,,,,,,,,,,,,,,,,,,,"2009-05-01"
"74486094789","2018-01-03T07:51:00","FM-15","7",,"ESE","1.5","mi","TEMP, PRECIP, SNOW",,,"PSY, SRG, SNOWBOARD",,,"FAA CWO",,,,,,,,,,,,,,,,,,,,,,,,,,,,"30.37","3","17","0.00",,,,"54","30.36","FEW:02 250","30.35","10.00","14","240",,"10",,,,,,,,,,,,,,,,,,,,,,,,,,,,,,,,,,,,,"MET10001/03/18 07:51:02 METAR KJFK 031251Z 24009KT 10SM FEW250 M08/M16 A3037 RMK AO2 SLP282 T10831161 (BH)","FM-15","7",,,,,,,,,,,,,,,,,,,,,,,,,,,"2009-05-01"
"74486094789","2018-01-03T08:51:00","FM-15","7",,"ESE","1.5","mi","TEMP, PRECIP, SNOW",,,"PSY, SRG, SNOWBOARD",,,"FAA CWO",,,,,,,,,,,,,,,,,,,,,,,,,,,,"30.37","2","19","0.00",,,,"47","30.37","FEW:02 250","30.35","10.00","15","240",,"11",,,,,,,,,,,,,,,,,,,,,,,,,,,,,,,,,,,,,"MET10001/03/18 08:51:02 METAR KJFK 031351Z 24010KT 10SM FEW250 M07/M17 A3037 RMK AO2 SLP284 T10721167 (BH)","FM-15","7",,,,,,,,,,,,,,,,,,,,,,,,,,,"2009-05-01"
"74486094789","2018-01-03T09:51:00","FM-15","7",,"ESE","1.5","mi","TEMP, PRECIP, SNOW",,,"PSY, SRG, SNOWBOARD",,,"FAA CWO",,,,,,,,,,,,,,,,,,,,,,,,,,,,"30.36","2","21","0.00",,"-0.01","0","43","30.36","SCT:04 250","30.34","10.00","17","260",,"5",,,,,,,,,,,,,,,,,,,,,,,,,,,,,,,,,,,,,"MET10601/03/18 09:51:02 METAR KJFK 031451Z 26004KT 10SM SCT250 M06/M17 A3036 RMK AO2 SLP280 T10611167 50004 (BH)","FM-15","7",,,,,,,,,,,,,,,,,,,,,,,,,,,"2009-05-01"
"74486094789","2018-01-03T10:00:00","FM-12","4",,"ESE","1.5","mi","TEMP, PRECIP, SNOW",,,"PSY, SRG, SNOWBOARD",,,"FAA CWO",,,,,,,,,,,,,,,,,,,,,,,,,,,,,"2","21",,,"0.01","9","43","30.36",,"30.33","9.94","17","260",,"5",,,,,,,,,,,,,,,,,,,,,,,,,,,,,,,,,,,,,"SYN06474486 32966 42604 11061 21167 30270 40280 50004 91451 555 90315=","FM-12","4",,,,,,,,,,,,,,,,,,,,,,,,,,,"2009-05-01"
"74486094789","2018-01-03T10:51:00","FM-15","7",,"ESE","1.5","mi","TEMP, PRECIP, SNOW",,,"PSY, SRG, SNOWBOARD",,,"FAA CWO",,,,,,,,,,,,,,,,,,,,,,,,,,,,"30.34","2","23","0.00",,,,"40","30.34","BKN:07 250","30.32","10.00","18","VRB",,"6",,,,,,,,,,,,,,,,,,,,,,,,,,,,,,,,,,,,,"MET10001/03/18 10:51:02 METAR KJFK 031551Z VRB05KT 10SM BKN250 M05/M17 A3034 RMK AO2 SLP274 T10501167 (BH)","FM-15","7",,,,,,,,,,,,,,,,,,,,,,,,,,,"2009-05-01"
"74486094789","2018-01-03T11:51:00","FM-15","7",,"ESE","1.5","mi","TEMP, PRECIP, SNOW",,,"PSY, SRG, SNOWBOARD",,,"FAA CWO",,,,,,,,,,,,,,,,,,,,,,,,,,,,"30.31","0","24","0.00",,,,"35","30.31","BKN:07 250","30.29","10.00","18","240",,"5",,,,,,,,,,,,,,,,,,,,,,,,,,,,,,,,,,,,,"MET10001/03/18 11:51:02 METAR KJFK 031651Z 24004KT 10SM BKN250 M04/M18 A3031 RMK AO2 SLP263 T10441178 (BH)","FM-15","7",,,,,,,,,,,,,,,,,,,,,,,,,,,"2009-05-01"
"74486094789","2018-01-03T12:51:00","FM-15","7",,"ESE","1.5","mi","TEMP, PRECIP, SNOW",,,"PSY, SRG, SNOWBOARD",,,"FAA CWO",,,,,,,,,,,,,,,,,,,,,,,,,,,,"30.28","3","25","0.00",,"+0.08","8","39","30.27","BKN:07 250","30.25","10.00","19","200",,"5",,,,,,,,,,,,,,,,,,,,,,,,,,,,,,,,,,,,,"MET11801/03/18 12:51:02 METAR KJFK 031751Z 20004KT 10SM BKN250 M04/M16 A3028 RMK AO2 SLP252 T10391161 11039 21111 58027 (BH)","FM-15","7",,,,,,,,,,,,,,,,,,,,,,,,,,,"2009-05-01"
"74486094789","2018-01-03T13:00:00","FM-12","4",,"ESE","1.5","mi","TEMP, PRECIP, SNOW",,,"PSY, SRG, SNOWBOARD",,,"FAA CWO",,,,,,,,,,,,,,,,,,,,,,,,,,,,,"3","25",,,"+0.08","8","39","30.27",,"30.25","9.94","19","200",,"5",,,,,,,,,,,,,,,,,,,,,,,,,,,,,,,,,,,,,"SYN08074486 32966 62004 11039 21161 30243 40252 58027 91751 333 11039 21111 555 90318=","FM-12","4",,,,,,,,,,,,,,,,,,,,,,,,,,,"2009-05-01"
"74486094789","2018-01-03T13:51:00","FM-15","7",,"ESE","1.5","mi","TEMP, PRECIP, SNOW",,,"PSY, SRG, SNOWBOARD",,,"FAA CWO",,,,,,,,,,,,,,,,,,,,,,,,,,,,"30.24","8","26","0.00",,,,"46","30.24","BKN:07 250","30.22","10.00","21","200",,"7",,,,,,,,,,,,,,,,,,,,,,,,,,,,,,,,,,,,,"MET10001/03/18 13:51:02 METAR KJFK 031851Z 20006KT 10SM BKN250 M03/M13 A3024 RMK AO2 SLP240 T10331133 (BH)","FM-15","7",,,,,,,,,,,,,,,,,,,,,,,,,,,"2009-05-01"
"74486094789","2018-01-03T14:51:00","FM-15","7",,"ESE","1.5","mi","TEMP, PRECIP, SNOW",,,"PSY, SRG, SNOWBOARD",,,"FAA CWO",,,,,,,,,,,,,,,,,,,,,,,,,,,,"30.21","1","27","0.00",,,,"32","30.20","SCT:04 190 BKN:07 250","30.19","10.00","21","190",,"3",,,,,,,,,,,,,,,,,,,,,,,,,,,,,,,,,,,,,"MET10701/03/18 14:51:02 METAR KJFK 031951Z 19003KT 10SM SCT190 BKN250 M03/M17 A3021 RMK AO2 SLP228 T10281172 (RR)","FM-15","7",,,,,,,,,,,,,,,,,,,,,,,,,,,"2009-05-01"
"74486094789","2018-01-03T15:51:00","FM-15","7",,"ESE","1.5","mi","TEMP, PRECIP, SNOW",,,"PSY, SRG, SNOWBOARD",,,"FAA CWO",,,,,,,,,,,,,,,,,,,,,,,,,,,,"30.20","4","26","0.00",,"+0.08","6","38","30.19","FEW:02 190 BKN:07 250","30.17","10.00","20","190",,"5",,,,,,,,,,,,,,,,,,,,,,,,,,,,,,,,,,,,,"MET11301/03/18 15:51:02 METAR KJFK 032051Z 19004KT 10SM FEW190 BKN250 M03/M16 A3020 RMK AO2 SLP224 T10331156 56028 (RR)","FM-15","7",,,,,,,,,,,,,,,,,,,,,,,,,,,"2009-05-01"
"74486094789","2018-01-03T16:00:00","FM-12","4",,"ESE","1.5","mi","TEMP, PRECIP, SNOW",,,"PSY, SRG, SNOWBOARD",,,"FAA CWO",,,,,,,,,,,,,,,,,,,,,,,,,,,,,"4","26",,,"+0.08","6","38","30.19",,"30.16","9.94","20","190",,"5",,,,,,,,,,,,,,,,,,,,,,,,,,,,,,,,,,,,,"SYN06474486 32966 61904 11033 21156 30215 40224 56028 92051 555 90321=","FM-12","4",,,,,,,,,,,,,,,,,,,,,,,,,,,"2009-05-01"
"74486094789","2018-01-03T16:51:00","FM-15","7",,"ESE","1.5","mi","TEMP, PRECIP, SNOW",,,"PSY, SRG, SNOWBOARD",,,"FAA CWO",,,,,,,,,,,,,,,,,,,,,,,,,,,,"30.23","7","24","0.00",,,,"48","30.22","BKN:07 140 BKN:07 250","30.21","10.00","20","220",,"3",,,,,,,,,,,,,,,,,,,,,,,,,,,,,,,,,,,,,"MET10701/03/18 16:51:02 METAR KJFK 032151Z 22003KT 10SM BKN140 BKN250 M04/M14 A3023 RMK AO2 SLP235 T10441139 (RR)","FM-15","7",,,,,,,,,,,,,,,,,,,,,,,,,,,"2009-05-01"
"74486094789","2018-01-03T17:51:00","FM-15","7",,"ESE","1.5","mi","TEMP, PRECIP, SNOW",,,"PSY, SRG, SNOWBOARD",,,"FAA CWO",,,,,,,,,,,,,,,,,,,,,,,,,,,,"30.20","7","26","0.00",,,,"44","30.19","FEW:02 130 BKN:07 250","30.17","10.00","21","000",,"0",,,,,,,,,,,,,,,,,,,,,,,,,,,,,,,,,,,,,"MET10701/03/18 17:51:02 METAR KJFK 032251Z 00000KT 10SM FEW130 BKN250 M03/M14 A3020 RMK AO2 SLP225 T10331139 (RR)","FM-15","7",,,,,,,,,,,,,,,,,,,,,,,,,,,"2009-05-01"
"74486094789","2018-01-03T18:51:00","FM-15","7",,"ESE","1.5","mi","TEMP, PRECIP, SNOW",,,"PSY, SRG, SNOWBOARD",,,"FAA CWO",,,,,,,,,,,,,,,,,,,,,,,,,,,,"30.18","9","24","0.00",,"+0.02","8","52","30.17","SCT:04 130 BKN:07 250","30.16","10.00","20","060",,"6",,,,,,,,,,,,,,,,,,,,,,,,,,,,,,,,,,,,,"MET12501/03/18 18:51:02 METAR KJFK 032351Z 06005KT 10SM SCT130 BKN250 M04/M13 A3018 RMK AO2 SLP218 T10441128 11022 21056 58007 (RR)","FM-15","7",,,,,,,,,,,,,,,,,,,,,,,,,,,"2009-05-01"
"74486094789","2018-01-03T19:00:00","FM-12","4",,"ESE","1.5","mi","TEMP, PRECIP, SNOW",,,"PSY, SRG, SNOWBOARD",,,"FAA CWO",,,,,,,,,,,,,,,,,,,,,,,,,,,,,"9","24",,,"+0.02","8","52","30.17",,"30.15","9.94","20","060",,"6",,,,,,,,,,,,,,,,,,,,,,,,,,,,,,,,,,,,,"SYN08074486 32966 60605 11044 21128 30209 40218 58007 92351 333 11022 21100 555 90400=","FM-12","4",,,,,,,,,,,,,,,,,,,,,,,,,,,"2009-05-01"
"74486094789","2018-01-03T19:51:00","FM-15","7",,"ESE","1.5","mi","TEMP, PRECIP, SNOW",,,"PSY, SRG, SNOWBOARD",,,"FAA CWO",,,,,,,,,,,,,,,,,,,,,,,,,,,,"30.15","12","25","0.00",,,,"58","30.14","SCT:04 130 SCT:04 200 BKN:07 250","30.12","10.00","21","060",,"6",,,,,,,,,,,,,,,,,,,,,,,,,,,,,,,,,,,,,"MET10901/03/18 19:51:01 METAR KJFK 040051Z 06005KT 10SM SCT130 SCT200 BKN250 M04/M11 A3015 RMK AO2 SLP208 T10391111","FM-15","7",,,,,,,,,,,,,,,,,,,,,,,,,,,"2009-05-01"
"74486094789","2018-01-03T20:51:00","FM-15","7",,"ESE","1.5","mi","TEMP, PRECIP, SNOW",,,"PSY, SRG, SNOWBOARD",,,"FAA CWO",,,,,,,,,,,,,,,,,,,,,,,,,,,,"30.14","13","26","0.00",,,,"57","30.14","BKN:07 130 BKN:07 170 OVC:08 250","30.11","10.00","22","070",,"6",,,,,,,,,,,,,,,,,,,,,,,,,,,,,,,,,,,,,"MET10901/03/18 20:51:01 METAR KJFK 040151Z 07005KT 10SM BKN130 BKN170 OVC250 M03/M11 A3014 RMK AO2 SLP207 T10331106","FM-15","7",,,,,,,,,,,,,,,,,,,,,,,,,,,"2009-05-01"
"74486094789","2018-01-03T21:51:00","FM-15","7",,"ESE","1.5","mi","TEMP, PRECIP, SNOW",,,"PSY, SRG, SNOWBOARD",,,"FAA CWO",,,,,,,,,,,,,,,,,,,,,,,,,,,,"30.10","14","26","0.00",,"+0.07","8","60","30.10","BKN:07 160 BKN:07 200 OVC:08 250","30.08","10.00","22","030",,"7",,,,,,,,,,,,,,,,,,,,,,,,,,,,,,,,,,,,,"MET11501/03/18 21:51:02 METAR KJFK 040251Z 03006KT 10SM BKN160 BKN200 OVC250 M03/M10 A3010 RMK AO2 SLP194 T10331100 58024","FM-15","7",,,,,,,,,,,,,,,,,,,,,,,,,,,"2009-05-01"
"74486094789","2018-01-03T22:00:00","FM-12","4",,"ESE","1.5","mi","TEMP, PRECIP, SNOW",,,"PSY, SRG, SNOWBOARD",,,"FAA CWO",,,,,,,,,,,,,,,,,,,,,,,,,,,,,"14","26",,,"+0.07","8","60","30.10",,"30.07","9.94","22","030",,"7",,,,,,,,,,,,,,,,,,,,,,,,,,,,,,,,,,,,,"SYN06474486 32966 80306 11033 21100 30182 40194 58024 90251 555 90403=","FM-12","4",,,,,,,,,,,,,,,,,,,,,,,,,,,"2009-05-01"
"74486094789","2018-01-03T22:51:00","FM-15","7",,"ESE","1.5","mi","TEMP, PRECIP, SNOW",,,"PSY, SRG, SNOWBOARD",,,"FAA CWO",,,,,,,,,,,,,,,,,,,,,,,,,,,,"30.04","13","27","0.00",,,,"55","30.04","OVC:08 100","30.01","10.00","23","010",,"10",,,,,,,,,,,,,,,,,,,,,,,,,,,,,,,,,,,,,"MET09501/03/18 22:51:02 METAR KJFK 040351Z 01009KT 10SM OVC100 M03/M11 A3004 RMK AO2 SLP173 T10281106","FM-15","7",,,,,,,,,,,,,,,,,,,,,,,,,,,"2009-05-01"
"74486094789","2018-01-03T23:51:00","FM-15","7",,"ESE","1.5","mi","TEMP, PRECIP, SNOW",,,"PSY, SRG, SNOWBOARD",,,"FAA CWO",,,,,,,,,,,,,,,,,,,,,,,,,,,,"30.01","14","28","0.00",,,,"56","30.01","BKN:07 40 OVC:08 95","29.98","10.00","24","020",,"11",,,,,,,,,,,,,,,,,,,,,,,,,,,,,,,,,,,,,"MET11201/03/18 23:51:02 METAR KJFK 040451Z 02010KT 10SM BKN040 OVC095 M02/M10 A3001 RMK AO2 SLP161 T10221100 410221111","FM-15","7",,,,,,,,,,,,,,,,,,,,,,,,,,,"2009-05-01"
"74486094789","2018-01-03T23:59:00","SOD  ","6",,"ESE","1.5","mi","TEMP, PRECIP, SNOW",,,"PSY, SRG, SNOWBOARD",,,"FAA CWO",,,,,,"6","20","49","30.25","30.26","18","8.2","0","-13.4","45","28","12","270","23","0.00","0","0.0","260","20",,,,,,,,,,,,,,,,,,,,,,,,,,,,,,,,,,,,,,,,,,,,,,,,,,,,,,,,"SOD73924 HR PRECIPITATION (IN): 0.00 SNOW DEPTH (IN):0     24 HR SNOWFALL (IN):0.0  24 HR MAX TEMP (F): 2824 HR MIN TEMP (F): 12AVERAGE STATION PRESSURE:30.260 MINIMUM SEA LEVEL PRESSURE:30.00 TIME OF OCCURRENCE:2359 PEAK WIND SPEED (MPH): 23 PEAK WIND DIR (DEG):270 PEAK WIND TIME (LST):      FASTEST 2MIN SPEED (MPH): 20FASTEST 2MIN DIR (DEG):260 FASTEST 2MIN TIME (LST):     AVERAGE WIND SPEED (MPH): 8.2 24 HR AVG TEMP (F): 20DEPART FROM NORMAL:-13  HEATING DEGREE DAYS: 45 COOLING DEGREE DAYS:  0 LATEST DAY MAX TEMP (0700-1900 LST):28  LATEST NIGHT MIN TEMP(1900-0800 LST):12 HOURLY INCREMENTAL PRECIPITATION VALUES (IN):.00 0.00 0.00 0.00 0.00 0.00 0.00 0.00 0.00 0.00 0.00 0.00 0.00 0.00 0.00 0.00 0.00 0.00 0.00 0.00 0.00 0.00 0.00 0.00","SOD  ","6",,,,,,,,,,,,,,,,,,,,,,,,,"0719","1640","2009-05-01"
"74486094789","2018-01-04T00:39:00","FM-16","7",,"ESE","1.5","mi","TEMP, PRECIP, SNOW",,,"PSY, SRG, SNOWBOARD",,,"FAA CWO",,,,,,,,,,,,,,,,,,,,,,,,,,,,"29.96","18","28","T","-SN:03 |SN |",,,"66",,"OVC:08 28","29.93","10.00","25","010",,"14",,,,,,,,,,,,,,,,,,,,,,,,,,,,,,,,,,,,,"MET11601/04/18 00:39:02 SPECI KJFK 040539Z 01012KT 10SM -SN OVC028 M02/M08 A2996 RMK AO2 SNB39 PRESFR P0000 T10221078 (JC)","FM-16","7",,,,,,,,,,,,,,,,,,,,,,,,,,,"2009-05-01"
"74486094789","2018-01-04T00:51:00","FM-15","7",,"ESE","1.5","mi","TEMP, PRECIP, SNOW",,,"PSY, SRG, SNOWBOARD",,,"FAA CWO",,,,,,,,,,,,,,,,,,,,,,,,,,,,"29.94","17","28","T","-SN:03 |SN |","+0.16","8","63","29.94","OVC:08 28","29.91","10.00","25","020",,"14",,,,,,,,,,,,,,,,,,,,,,,,,,,,,,,,,,,,,"MET14701/04/18 00:51:02 METAR KJFK 040551Z 02012KT 10SM -SN OVC028 M02/M08 A2994 RMK AO2 SNB39 SLP140 931000 P0000 60000 T10221083 11022 21050 58054 (JC)","FM-15","7",,,,,,,,,,,,,,,,,,,,,,,,,,,"2009-05-01"
"74486094789","2018-01-04T01:00:00","FM-12","4",,"ESE","1.5","mi","TEMP, PRECIP, SNOW",,,"PSY, SRG, SNOWBOARD",,,"FAA CWO",,,,,,,,,,,,,,,,,,,,,,,,,,,,,"17","28",,,"+0.16","8","63","29.94","26","29.91","9.94","25","020",,"14",,,,,,,,,,,,,,,,,,,,,,,,,,,,,,,,,,,,,"SYN09274486 11566 80212 11022 21083 30128 40140 58054 69901 771// 90551 333 11022 21100 555 90406=","FM-12","4",,,,,,,,,,,,,,,,,,,,,,,,,,,"2009-05-01"
"74486094789","2018-01-04T01:29:00","FM-16","7",,"ESE","1.5","mi","TEMP, PRECIP, SNOW",,,"PSY, SRG, SNOWBOARD",,,"FAA CWO",,,,,,,,,,,,,,,,,,,,,,,,,,,,"29.89","17","28","T",,,,"63",,"SCT:04 25 OVC:08 60","29.87","10.00","25","010",,"13",,,,,,,,,,,,,,,,,,,,,,,,,,,,,,,,,,,,,"MET11201/04/18 01:29:02 SPECI KJFK 040629Z 01011KT 10SM SCT025 OVC060 M02/M08 A2989 RMK AO2 SNE28 P0000 T10221083 (JC)","FM-16","7",,,,,,,,,,,,,,,,,,,,,,,,,,,"2009-05-01"
"74486094789","2018-01-04T01:51:00","FM-15","7",,"ESE","1.5","mi","TEMP, PRECIP, SNOW",,,"PSY, SRG, SNOWBOARD",,,"FAA CWO",,,,,,,,,,,,,,,,,,,,,,,,,,,,"29.89","17","29","T",,,,"61","29.88","BKN:07 25 OVC:08 49","29.87","10.00","25","010",,"15",,,,,,,,,,,,,,,,,,,,,,,,,,,,,,,,,,,,,"MET11901/04/18 01:51:02 METAR KJFK 040651Z 01013KT 10SM BKN025 OVC049 M02/M08 A2989 RMK AO2 SNE28 SLP120 P0000 T10171083 (JC)","FM-15","7",,,,,,,,,,,,,,,,,,,,,,,,,,,"2009-05-01"
"74486094789","2018-01-04T02:51:00","FM-15","7",,"ESE","1.5","mi","TEMP, PRECIP, SNOW",,,"PSY, SRG, SNOWBOARD",,,"FAA CWO",,,,,,,,,,,,,,,,,,,,,,,,,,,,"29.83","16","28","T","-SN:03 |SN |",,,"60","29.82","OVC:08 21","29.80","10.00","24","010",,"17",,,,,,,,,,,,,,,,,,,,,,,,,,,,,,,,,,,,,"MET11601/04/18 02:51:02 METAR KJFK 040751Z 01015KT 10SM -SN OVC021 M02/M09 A2983 RMK AO2 SNB44 SLP099 P0000 T10221089 (JC)","FM-15","7",,,,,,,,,,,,,,,,,,,,,,,,,,,"2009-05-01"
"74486094789","2018-01-04T03:41:00","FM-16","7",,"ESE","1.5","mi","TEMP, PRECIP, SNOW",,,"PSY, SRG, SNOWBOARD",,,"FAA CWO",,,,,,,,,,,,,,,,,,,,,,,,,,,,"29.75","21","25","0.01","-SN:03 BR:1 |s SN s |",,,"85",,"OVC:08 12","29.72","0.50","24","010",,"20",,,,,,,,,,,,,,,,,,,,,,,,,,,,,,,,,,,,,"MET14601/04/18 03:41:02 SPECI KJFK 040841Z 01017KT 1/2SM R04R/4500VP6000FT -SN BR OVC012 M04/M06 A2975 RMK AO2 SFC VIS 1 1/2 PRESFR P0001 T10391061 (JC)","FM-16","7",,,,,,,,,,,,,,,,,,,,,,,,,,,"2009-05-01"
"74486094789","2018-01-04T03:51:00","FM-15","7",,"ESE","1.5","mi","TEMP, PRECIP, SNOW",,,"PSY, SRG, SNOWBOARD",,,"FAA CWO",,,,,,,,,,,,,,,,,,,,,,,,,,,,"29.72","22","25","0.02","-SN:03 BR:1 |s SN s |","+0.22","8","88","29.72","OVC:08 10","29.70","0.50","24","010","29","20",,,,,,,,,,,,,,,,,,,,,,,,,,,,,,,,,,,,,"MET18201/04/18 03:51:02 METAR KJFK 040851Z 01017G25KT 1/2SM R04R/4500VP6000FT -SN BR OVC010 M04/M06 A2972 RMK AO2 SFC VIS 3/4 PRESFR SLP065 PRESENT WX DRSN P0002 60002 T10391056 58075 (JC)","FM-15","7",,,,,,,,,,,,,,,,,,,,,,,,,,,"2009-05-01"
"74486094789","2018-01-04T04:00:00","FM-12","4",,"ESE","1.5","mi","TEMP, PRECIP, SNOW",,,"PSY, SRG, SNOWBOARD",,,"FAA CWO",,,,,,,,,,,,,,,,,,,,,,,,,,,,,"22","25",,,"+0.22","8","88","29.72","15","29.69","0.50","24","010",,"20",,,,,,,,,,,,,,,,,,,,,,,,,,,,,,,,,,,,,"SYN09274486 11408 80117 11039 21056 30053 40065 58075 69957 771// 90851 333 91025 96010 555 90409=","FM-12","4",,,,,,,,,,,,,,,,,,,,,,,,,,,"2009-05-01"
"74486094789","2018-01-04T04:25:00","FM-16","7",,"ESE","1.5","mi","TEMP, PRECIP, SNOW",,,"PSY, SRG, SNOWBOARD",,,"FAA CWO",,,,,,,,,,,,,,,,,,,,,,,,,,,,"29.68","23","25","T","-SN:03 BR:1 |SN |",,,"92",,"SCT:04 11 BKN:07 18 OVC:08 29","29.65","1.00","24","360",,"21",,,,,,,,,,,,,,,,,,,,,,,,,,,,,,,,,,,,,"MET18101/04/18 04:25:02 SPECI KJFK 040925Z 36018KT 1SM R04R/4000VP6000FT -SN BR SCT011 BKN018 OVC029 M04/M05 A2968 RMK AO2 PK WND 36027/0900 SFC VIS 2 PRESENT WX DRSN P0000 T10391050 (BH)","FM-16","7",,,,,,,,,,,,,,,,,,,,,,,,,,,"2009-05-01"
"74486094789","2018-01-04T04:51:00","FM-15","7",,"ESE","1.5","mi","TEMP, PRECIP, SNOW",,,"PSY, SRG, SNOWBOARD",,,"FAA CWO",,,,,,,,,,,,,,,,,,,,,,,,,,,,"29.65","22","25","T","-SN:03 BR:1 |SN |",,,"88","29.65","FEW:02 10 SCT:04 17 OVC:08 28","29.62","1.00","24","360",,"23",,,,,,,,,,,,,,,,,,,,,,,,,,,,,,,,,,,,,"MET19401/04/18 04:51:02 METAR KJFK 040951Z 36020KT 1SM R04R/P6000FT -SN BR FEW010 SCT017 OVC028 M04/M06 A2965 RMK AO2 PK WND 36027/0900 SFC VIS 1 3/4 PRESFR SLP040 PRESENT WX DRSN P0000 T10391056 (BH)","FM-15","7",,,,,,,,,,,,,,,,,,,,,,,,,,,"2009-05-01"
"74486094789","2018-01-04T05:33:00","FM-16","7",,"ESE","1.5","mi","TEMP, PRECIP, SNOW",,,"PSY, SRG, SNOWBOARD",,,"FAA CWO",,,,,,,,,,,,,,,,,,,,,,,,,,,,"29.61","23","25","T","-SN:03 BR:1 |SN |",,,"92",,"X:10 0 OVC:08 13","29.59","0.75","24","360","34","23",,,,,,,,,,,,,,,,,,,,,,,,,,,,,,,,,,,,,"MET18801/04/18 05:33:02 SPECI KJFK 041033Z 36020G30KT 3/4SM R04R/3500V5500FT -SN BR SCT000 OVC013 M04/M05 A2961 RMK AO2 PK WND 35030/1024 SFC VIS 1 SN SCT000 PRESENT WX DRSN P0000 T10391050 (BH)","FM-16","7",,,,,,,,,,,,,,,,,,,,,,,,,,,"2009-05-01"
"74486094789","2018-01-04T05:49:00","FM-16","6",,"ESE","1.5","mi","TEMP, PRECIP, SNOW",,,"PSY, SRG, SNOWBOARD",,,"FAA CWO",,,,,,,,,,,,,,,,,,,,,,,,,,,,"29.60","23","25",,"-SN:03 BL:5 SN:03 BR:1 |SN |",,,"93",,"X:10 0 BKN:07 7 OVC:08 11","29.57","0.75","24","350","34","26",,,,,,,,,,,,,,,,,,,,,,,,,,,,,,,,,,,,,"MET17401/04/18 05:49:02 SPECI KJFK 041049Z 35023G30KT 3/4SM R04R/4000V4500FT -SN BLSN BR SCT000 BKN007 OVC011 M04/M05 A2960 RMK AO2 PK WND 35030/1024 SN BLSN SCT000 P0001 FIBI (BH)","FM-16","6",,,,,,,,,,,,,,,,,,,,,,,,,,,"2009-05-01"
"74486094789","2018-01-04T05:51:00","FM-15","7",,"ESE","1.5","mi","TEMP, PRECIP, SNOW",,,"PSY, SRG, SNOWBOARD",,,"FAA CWO",,,,,,,,,,,,,,,,,,,,,,,,,,,,"29.59","23","24","0.01","-SN:03 BL:5 SN:03 BR:1 |SN |",,,"96","29.59","X:10 0 BKN:07 7 OVC:08 11","29.57","0.75","24","350","37","28",,,,,,,,,,,,,,,,,,,,,,,,,,,,,,,,,,,,,"MET18601/04/18 05:51:02 METAR KJFK 041051Z 35024G32KT 3/4SM R04R/4000V5000FT -SN BLSN BR SCT000 BKN007 OVC011 M04/M05 A2959 RMK AO2 PK WND 01032/1051 SLP020 SN BLSN SCT000 P0001 T10441050 (BH)","FM-15","7",,,,,,,,,,,,,,,,,,,,,,,,,,,"2009-05-01"
"74486094789","2018-01-04T06:51:00","FM-15","7",,"ESE","1.5","mi","TEMP, PRECIP, SNOW",,,"PSY, SRG, SNOWBOARD",,,"FAA CWO",,,,,,,,,,,,,,,,,,,,,,,,,,,,"29.52","22","24","0.01","-SN:03 BL:5 SN:03 BR:1 |SN |","+0.20","6","91","29.52","X:10 0 BKN:07 7 OVC:08 10","29.49","0.75","23","350","34","28",,,,,,,,,,,,,,,,,,,,,,,,,,,,,,,,,,,,,"MET23801/04/18 06:51:02 METAR KJFK 041151Z 35024G30KT 3/4SM R04R/2200V5000FT -SN BLSN BR SCT000 BKN007 OVC010 M04/M06 A2952 RMK AO2 PK WND 36034/1102 PRESFR SLP997 SN BLSN SCT000 931006 4/001 P0001 60004 70004 T10441056 11017 21044 56067 $ (BH)","FM-15","7",,,,,,,,,,,,,,,,,,,,,,,,,,,"2009-05-01"
"74486094789","2018-01-04T07:00:00","FM-12","4",,"ESE","1.5","mi","TEMP, PRECIP, SNOW",,,"PSY, SRG, SNOWBOARD",,,"FAA CWO",,,,,,,,,,,,,,,,,,,,,,,,,,,,,"22","24",,,"+0.20","6","91","29.52","8","29.49","0.75","23","350",,"28",,,,,,,,,,,,,,,,,,,,,,,,,,,,,,,,,,,,,"SYN12274486 11312 83524 11044 21056 39985 49997 56067 60011 771// 91151 333 11022 21050 4/003 70010 91030 96038 96010 555 90412=","FM-12","4",,,,,,,,,,,,,,,,,,,,,,,,,,,"2009-05-01"
"74486094789","2018-01-04T07:51:00","FM-15","7",,"ESE","1.5","mi","TEMP, PRECIP, SNOW",,,"PSY, SRG, SNOWBOARD",,,"FAA CWO",,,,,,,,,,,,,,,,,,,,,,,,,,,,"29.48","23","24","0.03","-SN:03 BL:5 SN:03 FZ:8 FG:2 |FG SN |",,,"96","29.47","VV:09 8","29.46","0.50","24","350","40","28",,,,,,,,,,,,,,,,,,,,,,,,,,,,,,,,,,,,,"MET16001/04/18 07:51:02 METAR KJFK 041251Z 35024G35KT 1/2SM R04R/2200V2600FT -SN BLSN FZFG VV008 M04/M05 A2948 RMK AO2 PK WND 34035/1243 SLP981 P0003 T10441050 $ (BH)","FM-15","7",,,,,,,,,,,,,,,,,,,,,,,,,,,"2009-05-01"
"74486094789","2018-01-04T08:11:00","FM-16","7",,"ESE","1.5","mi","TEMP, PRECIP, SNOW",,,"PSY, SRG, SNOWBOARD",,,"FAA CWO",,,,,,,,,,,,,,,,,,,,,,,,,,,,"29.46","22","24","0.01","SN:03 BL:5 SN:03 FZ:8 FG:2 |FG SN |",,,"91",,"VV:09 6","29.44","0.25","23","350","40","29",,,,,,,,,,,,,,,,,,,,,,,,,,,,,,,,,,,,,"MET15201/04/18 08:11:02 SPECI KJFK 041311Z 35025G35KT 1/4SM R04R/1600V2200FT SN BLSN FZFG VV006 M04/M06 A2946 RMK AO2 PK WND 36035/1306 P0001 T10441056 $ (BH)","FM-16","7",,,,,,,,,,,,,,,,,,,,,,,,,,,"2009-05-01"
"74486094789","2018-01-04T08:25:00","FM-16","7",,"ESE","1.5","mi","TEMP, PRECIP, SNOW",,,"PSY, SRG, SNOWBOARD",,,"FAA CWO",,,,,,,,,,,,,,,,,,,,,,,,,,,,"29.46","22","24","0.01","SN:03 BL:5 SN:03 FZ:8 FG:2 |FG SN |",,,"91",,"VV:09 6","29.44","0.25","23","350","41","30",,,,,,,,,,,,,,,,,,,,,,,,,,,,,,,,,,,,,"MET15201/04/18 08:25:02 SPECI KJFK 041325Z 35026G36KT 1/4SM R04R/1800V2400FT SN BLSN FZFG VV006 M04/M06 A2946 RMK AO2 PK WND 36036/1317 P0001 T10441056 $ (BH)","FM-16","7",,,,,,,,,,,,,,,,,,,,,,,,,,,"2009-05-01"
"74486094789","2018-01-04T08:39:00","FM-16","7",,"ESE","1.5","mi","TEMP, PRECIP, SNOW",,,"PSY, SRG, SNOWBOARD",,,"FAA CWO",,,,,,,,,,,,,,,,,,,,,,,,,,,,"29.45","22","24","0.02","SN:03 BL:5 SN:03 FZ:8 FG:2 |FG SN |",,,"91",,"VV:09 6","29.43","0.25","23","350","39","28",,,,,,,,,,,,,,,,,,,,,,,,,,,,,,,,,,,,,"MET15201/04/18 08:39:02 SPECI KJFK 041339Z 35024G34KT 1/4SM R04R/1000V2000FT SN BLSN FZFG VV006 M04/M06 A2945 RMK AO2 PK WND 36036/1326 P0002 T10441056 $ (BH)","FM-16","7",,,,,,,,,,,,,,,,,,,,,,,,,,,"2009-05-01"
"74486094789","2018-01-04T08:51:00","FM-15","7",,"ESE","1.5","mi","TEMP, PRECIP, SNOW",,,"PSY, SRG, SNOWBOARD",,,"FAA CWO",,,,,,,,,,,,,,,,,,,,,,,,,,,,"29.45","22","23","0.06s","SN:03 BL:5 SN:03 FZ:8 FG:2 |FG SN |",,,"96","29.44","VV:09 5","29.43","0.25","23","350","44","32",,,,,,,,,,,,,,,,,,,,,,,,,,,,,,,,,,,,,"MET17001/04/18 08:51:02 METAR KJFK 041351Z 35028G38KT 1/4SM R04R/1400V1800FT SN BLSN FZFG VV005 M05/M06 A2945 RMK AO2 PK WND 36038/1351 SLP971 SNINCR 1/2 P0002 T10501056 $ (BH)","FM-15","7",,,,,,,,,,,,,,,,,,,,,,,,,,,"2009-05-01"
"74486094789","2018-01-04T09:26:00","FM-16","7",,"ESE","1.5","mi","TEMP, PRECIP, SNOW",,,"PSY, SRG, SNOWBOARD",,,"FAA CWO",,,,,,,,,,,,,,,,,,,,,,,,,,,,"29.41","21","22","0.02","+SN:03 BL:5 SN:03 FZ:8 FG:2 |s FG s SN s |",,,"96",,"VV:09 4","29.39","0.12","22","340","46","31",,,,,,,,,,,,,,,,,,,,,,,,,,,,,,,,,,,,,"MET15301/04/18 09:26:02 SPECI KJFK 041426Z 34027G40KT 1/8SM R04R/0800V1600FT +SN BLSN FZFG VV004 M06/M06 A2941 RMK AO2 PK WND 35040/1423 P0002 T10561061 $ (BH)","FM-16","7",,,,,,,,,,,,,,,,,,,,,,,,,,,"2009-05-01"
"74486094789","2018-01-04T09:51:00","FM-15","7",,"ESE","1.5","mi","TEMP, PRECIP, SNOW",,,"PSY, SRG, SNOWBOARD",,,"FAA CWO",,,,,,,,,,,,,,,,,,,,,,,,,,,,"29.39","20","22","0.10","+SN:03 BL:5 SN:03 FZ:8 FG:2 |s FG s SN s |","+0.14","8","92","29.38","VV:09 4","29.36","0.12","21","340","43","31",,,,,,,,,,,,,,,,,,,,,,,,,,,,,,,,,,,,,"MET17701/04/18 09:51:02 METAR KJFK 041451Z 34027G37KT 1/8SM R04R/1400V2200FT +SN BLSN FZFG VV004 M06/M07 A2939 RMK AO2 PK WND 35040/1423 SLP950 SNINCR 2/4 60019 T10561067 58047 $ (BH)","FM-15","7",,,,,,,,,,,,,,,,,,,,,,,,,,,"2009-05-01"
"74486094789","2018-01-04T10:00:00","FM-12","4",,"ESE","1.5","mi","TEMP, PRECIP, SNOW",,,"PSY, SRG, SNOWBOARD",,,"FAA CWO",,,,,,,,,,,,,,,,,,,,,,,,,,,,,"20","22",,,"+0.14","8","92","29.38",,"29.36","0.12","21","340",,"31",,,,,,,,,,,,,,,,,,,,,,,,,,,,,,,,,,,,,"SYN09874486 11202 /3427 11056 21067 39941 49950 58047 60057 775// 91451 333 91037 96038 96041 555 90415=","FM-12","4",,,,,,,,,,,,,,,,,,,,,,,,,,,"2009-05-01"
"74486094789","2018-01-04T10:51:00","FM-15","7",,"ESE","1.5","mi","TEMP, PRECIP, SNOW",,,"PSY, SRG, SNOWBOARD",,,"FAA CWO",,,,,,,,,,,,,,,,,,,,,,,,,,,,"29.33","21","22","0.06s","SN:03 BL:5 SN:03 FZ:8 FG:2 |s FG s SN s |",,,"96","29.33","VV:09 4","29.31","0.12","22","340","45","34",,,,,,,,,,,,,,,,,,,,,,,,,,,,,,,,,,,,,"MET17001/04/18 10:51:02 METAR KJFK 041551Z 34030G39KT 1/8SM R04R/0800V1400FT SN BLSN FZFG VV004 M06/M06 A2933 RMK AO2 PK WND 34041/1504 SLP933 SNINCR 1/5 P0001 T10561061 $ (BH)","FM-15","7",,,,,,,,,,,,,,,,,,,,,,,,,,,"2009-05-01"
"74486094789","2018-01-04T11:51:00","FM-15","7",,"ESE","1.5","mi","TEMP, PRECIP, SNOW",,,"PSY, SRG, SNOWBOARD",,,"FAA CWO",,,,,,,,,,,,,,,,,,,,,,,,,,,,"29.27","22","23","0.06s","SN:03 BL:5 SN:03 FZ:8 FG:2 |s FG s SN s |",,,"96","29.27","VV:09 4","29.25","0.12","23","340","53","33",,,,,,,,,,,,,,,,,,,,,,,,,,,,,,,,,,,,,"MET17001/04/18 11:51:02 METAR KJFK 041651Z 34029G46KT 1/8SM R04R/1200V1800FT SN BLSN FZFG VV004 M05/M06 A2927 RMK AO2 PK WND 35046/1642 SLP912 SNINCR 1/6 P0002 T10501056 $ (BH)","FM-15","7",,,,,,,,,,,,,,,,,,,,,,,,,,,"2009-05-01"
"74486094789","2018-01-04T12:08:00","FM-16","7",,"ESE","1.5","mi","TEMP, PRECIP, SNOW",,,"PSY, SRG, SNOWBOARD",,,"FAA CWO",,,,,,,,,,,,,,,,,,,,,,,,,,,,"29.26","21","23","0.01","-SN:03 BL:5 SN:03 FZ:8 FG:2 |s FG s SN s |",,,"92",,"VV:09 6","29.23","0.12","22","330","53","37",,,,,,,,,,,,,,,,,,,,,,,,,,,,,,,,,,,,,"MET16501/04/18 12:08:02 SPECI KJFK 041708Z 33032G46KT 1/8SM R04R/1400V2400FT -SN BLSN FZFG VV006 M05/M06 A2926 RMK AO2 PK WND 33046/1701 SFC VIS 1/4 P0001 T10501061 $ (BH)","FM-16","7",,,,,,,,,,,,,,,,,,,,,,,,,,,"2009-05-01"
"74486094789","2018-01-04T12:51:00","FM-15","7",,"ESE","1.5","mi","TEMP, PRECIP, SNOW",,,"PSY, SRG, SNOWBOARD",,,"FAA CWO",,,,,,,,,,,,,,,,,,,,,,,,,,,,"29.22s","21","23","0.03","-SN:03 BL:5 SN:03 FZ:8 FG:2 |s FG s SN s |","+0.17","7","92","29.22s","VV:09 8","29.20","0.12","22","330","49","36",,,,,,,,,,,,,,,,,,,,,,,,,,,,,,,,,,,,,"MET21001/04/18 12:51:02 METAR KJFK 041751Z 33031G43KT 1/8SM R04R/1400V2000FT -SN BLSN FZFG VV008 M05/M06 A2922 RMK AO2 PK WND 33048/1716 SFC VIS 1/4 SLP894 931056 4/006 933004 60034 T10501061 11044 21056 57056 $ (BH)","FM-15","7",,,,,,,,,,,,,,,,,,,,,,,,,,,"2009-05-01"
"74486094789","2018-01-04T13:00:00","FM-12","4",,"ESE","1.5","mi","TEMP, PRECIP, SNOW",,,"PSY, SRG, SNOWBOARD",,,"FAA CWO",,,,,,,,,,,,,,,,,,,,,,,,,,,,,"21","23",,,"+0.17","7","92","29.22s",,"29.19s","0.12","22","330",,"36",,,,,,,,,,,,,,,,,,,,,,,,,,,,,,,,,,,,,"SYN11674486 11302 /3331 11050 21061 39884 49894 57056 60091 771// 91751 333 11017 21056 4/015 91043 96038 96041 555 90418=","FM-12","4",,,,,,,,,,,,,,,,,,,,,,,,,,,"2009-05-01"
"74486094789","2018-01-04T13:16:00","FM-16","7",,"ESE","1.5","mi","TEMP, PRECIP, SNOW",,,"PSY, SRG, SNOWBOARD",,,"FAA CWO",,,,,,,,,,,,,,,,,,,,,,,,,,,,"29.22s","21","23","T","-SN:03 BL:5 SN:03 FZ:8 FG:2 |s FG s SN s |",,,"92",,"VV:09 8","29.20s","0.12","22","330","49","41",,,,,,,,,,,,,,,,,,,,,,,,,,,,,,,,,,,,,"MET16501/04/18 13:16:02 SPECI KJFK 041816Z 33036G43KT 1/8SM R04R/1800V2400FT -SN BLSN FZFG VV008 M05/M06 A2922 RMK AO2 PK WND 34043/1808 SFC VIS 1/4 P0000 T10501061 $ (BH)","FM-16","7",,,,,,,,,,,,,,,,,,,,,,,,,,,"2009-05-01"
"74486094789","2018-01-04T13:43:00","FM-16","7",,"ESE","1.5","mi","TEMP, PRECIP, SNOW",,,"PSY, SRG, SNOWBOARD",,,"FAA CWO",,,,,,,,,,,,,,,,,,,,,,,,,,,,"29.24","21","23","T","-SN:03 BL:5 SN:03 |s SN s |",,,"92",,"X:10 0 OVC:08 12","29.22","0.50","22","330","51","37",,,,,,,,,,,,,,,,,,,,,,,,,,,,,,,,,,,,,"MET18301/04/18 13:43:02 SPECI KJFK 041843Z 33032G44KT 1/2SM R04R/2000V3000FT -SN BLSN SCT000 OVC012 M05/M06 A2924 RMK AO2 PK WND 34044/1835 SFC VIS 3/4 SN BLSN SCT000 P0000 T10501061 $ (BH)","FM-16","7",,,,,,,,,,,,,,,,,,,,,,,,,,,"2009-05-01"
"74486094789","2018-01-04T13:51:00","FM-15","7",,"ESE","1.5","mi","TEMP, PRECIP, SNOW",,,"PSY, SRG, SNOWBOARD",,,"FAA CWO",,,,,,,,,,,,,,,,,,,,,,,,,,,,"29.23s","21","23","0.03s","-SN:03 BL:5 SN:03 |s SN s |",,,"92","29.23s","X:10 0 OVC:08 12","29.21s","0.50","22","330","51","36",,,,,,,,,,,,,,,,,,,,,,,,,,,,,,,,,,,,,"MET20101/04/18 13:51:02 METAR KJFK 041851Z 33031G44KT 1/2SM R04R/1600V3000FT -SN BLSN SCT000 OVC012 M05/M06 A2923 RMK AO2 PK WND 33044/1847 SFC VIS 3/4 SLP897 SN BLSN SCT000 SNINCR 1/7 P0000 T10501061 $ (BH)","FM-15","7",,,,,,,,,,,,,,,,,,,,,,,,,,,"2009-05-01"
"74486094789","2018-01-04T14:51:00","FM-15","7",,"ESE","1.5","mi","TEMP, PRECIP, SNOW",,,"PSY, SRG, SNOWBOARD",,,"FAA CWO",,,,,,,,,,,,,,,,,,,,,,,,,,,,"29.24s","21","23","0.03","-SN:03 BL:5 SN:03 |s SN s |",,,"92","29.24","X:10 0 BKN:07 14 OVC:08 22","29.22","0.50","22","320","43","32",,,,,,,,,,,,,,,,,,,,,,,,,,,,,,,,,,,,,"MET19701/04/18 14:51:02 METAR KJFK 041951Z 32028G37KT 1/2SM R04R/2800V4500FT -SN BLSN SCT000 BKN014 OVC022 M05/M06 A2924 RMK AO2 PK WND 33039/1928 SFC VIS 3/4 SLP901 SN BLSN SCT000 P0001 T10501061 $ (BH)","FM-15","7",,,,,,,,,,,,,,,,,,,,,,,,,,,"2009-05-01"
"74486094789","2018-01-04T15:28:00","FM-16","7",,"ESE","1.5","mi","TEMP, PRECIP, SNOW",,,"PSY, SRG, SNOWBOARD",,,"FAA CWO",,,,,,,,,,,,,,,,,,,,,,,,,,,,"29.26","21","23","T","-SN:03 BL:5 SN:03 |s SN s |",,,"92",,"X:10 0 BKN:07 18 OVC:08 33","29.23","0.50","22","320","43","30",,,,,,,,,,,,,,,,,,,,,,,,,,,,,,,,,,,,,"MET18901/04/18 15:28:02 SPECI KJFK 042028Z 32026G37KT 1/2SM R04R/3500VP6000FT -SN BLSN FEW000 BKN018 OVC033 M05/M06 A2926 RMK AO2 PK WND 31042/2016 SFC VIS 1 SN BLSN FEW000 P0000 T10501061 $ (BH)","FM-16","7",,,,,,,,,,,,,,,,,,,,,,,,,,,"2009-05-01"
"74486094789","2018-01-04T15:49:00","FM-16","6",,"ESE","1.5","mi","TEMP, PRECIP, SNOW",,,"PSY, SRG, SNOWBOARD",,,"FAA CWO",,,,,,,,,,,,,,,,,,,,,,,,,,,,"29.27","19","23",,"-SN:03 BL:5 SN:03 |SN |",,,"86",,"FEW:02 13 BKN:07 25 OVC:08 45","29.25","2.50","22","320","44","32",,,,,,,,,,,,,,,,,,,,,,,,,,,,,,,,,,,,,"MET16101/04/18 15:49:02 SPECI KJFK 042049Z 32028G38KT 2 1/2SM R04R/4000VP6000FT -SN BLSN FEW013 BKN025 OVC045 M05/M07 A2927 RMK AO2 PK WND 31042/2016 60008 $ FIBI (BH)","FM-16","6",,,,,,,,,,,,,,,,,,,,,,,,,,,"2009-05-01"
"74486094789","2018-01-04T15:51:00","FM-15","7",,"ESE","1.5","mi","TEMP, PRECIP, SNOW",,,"PSY, SRG, SNOWBOARD",,,"FAA CWO",,,,,,,,,,,,,,,,,,,,,,,,,,,,"29.28","20","24","0.02","-SN:03 BL:5 SN:03 |SN |","-0.06","3","84","29.27","FEW:02 13 BKN:07 25 OVC:08 45","29.26","2.50","23","320","44","29",,,,,,,,,,,,,,,,,,,,,,,,,,,,,,,,,,,,,"MET17901/04/18 15:51:02 METAR KJFK 042051Z 32025G38KT 2 1/2SM R04R/4000VP6000FT -SN BLSN FEW013 BKN025 OVC045 M04/M07 A2928 RMK AO2 PK WND 31042/2016 SLP913 60008 T10441067 53019 $ (BH)","FM-15","7",,,,,,,,,,,,,,,,,,,,,,,,,,,"2009-05-01"
"74486094789","2018-01-04T16:00:00","FM-12","4",,"ESE","1.5","mi","TEMP, PRECIP, SNOW",,,"PSY, SRG, SNOWBOARD",,,"FAA CWO",,,,,,,,,,,,,,,,,,,,,,,,,,,,,"20","24",,,"-0.06","3","84","29.27","15","29.25","2.49","23","320",,"29",,,,,,,,,,,,,,,,,,,,,,,,,,,,,,,,,,,,,"SYN09274486 11440 83225 11044 21067 39904 49913 53019 60027 771// 92051 333 91038 96038 555 90421=","FM-12","4",,,,,,,,,,,,,,,,,,,,,,,,,,,"2009-05-01"
"74486094789","2018-01-04T16:34:00","FM-16","7",,"ESE","1.5","mi","TEMP, PRECIP, SNOW",,,"PSY, SRG, SNOWBOARD",,,"FAA CWO",,,,,,,,,,,,,,,,,,,,,,,,,,,,"29.30","20","24","T","-SN:03 BL:5 SN:03 |SN |",,,"84",,"BKN:07 22 OVC:08 39","29.28","1.50","23","310","41","32",,,,,,,,,,,,,,,,,,,,,,,,,,,,,,,,,,,,,"MET16901/04/18 16:34:02 SPECI KJFK 042134Z 31028G36KT 1 1/2SM R04R/5500VP6000FT -SN BLSN BKN022 OVC039 M04/M07 A2930 RMK AO2 PK WND 33039/2057 TWR VIS 2 P0000 T10441067 $ (BH)","FM-16","7",,,,,,,,,,,,,,,,,,,,,,,,,,,"2009-05-01"
"74486094789","2018-01-04T16:49:00","FM-16","6",,"ESE","1.5","mi","TEMP, PRECIP, SNOW",,,"PSY, SRG, SNOWBOARD",,,"FAA CWO",,,,,,,,,,,,,,,,,,,,,,,,,,,,"29.31","19","25",,"-SN:03 BL:5 SN:03 |SN |",,,"80",,"BKN:07 21 OVC:08 40","29.28","2.00","23","320","51","37",,,,,,,,,,,,,,,,,,,,,,,,,,,,,,,,,,,,,"MET16401/04/18 16:49:02 SPECI KJFK 042149Z 32032G44KT 2SM R04R/5500VP6000FT -SN BLSN BKN021 OVC040 M04/M07 A2931 RMK AO2 PK WND 33044/2147 TWR VIS 2 1/2 P0000 $ FIBI (BH)","FM-16","6",,,,,,,,,,,,,,,,,,,,,,,,,,,"2009-05-01"
"74486094789","2018-01-04T16:51:00","FM-15","7",,"ESE","1.5","mi","TEMP, PRECIP, SNOW",,,"PSY, SRG, SNOWBOARD",,,"FAA CWO",,,,,,,,,,,,,,,,,,,,,,,,,,,,"29.31","20","24","0.01","-SN:03 BL:5 SN:03 |SN |",,,"84","29.30","BKN:07 21 OVC:08 40","29.28","2.00","23","310","51","30",,,,,,,,,,,,,,,,,,,,,,,,,,,,,,,,,,,,,"MET17601/04/18 16:51:02 METAR KJFK 042151Z 31026G44KT 2SM R04R/5500VP6000FT -SN BLSN BKN021 OVC040 M04/M07 A2931 RMK AO2 PK WND 33044/2147 TWR VIS 2 1/2 SLP923 P0000 T10441067 $ (BH)","FM-15","7",,,,,,,,,,,,,,,,,,,,,,,,,,,"2009-05-01"
"74486094789","2018-01-04T17:49:00","FM-16","6",,"ESE","1.5","mi","TEMP, PRECIP, SNOW",,,"PSY, SRG, SNOWBOARD",,,"FAA CWO",,,,,,,,,,,,,,,,,,,,,,,,,,,,"29.34","18","25",,"BL:5 SN:03 ||",,,"74",,"SCT:04 26 BKN:07 45 OVC:08 70","29.31","5.00","23","310","48","31",,,,,,,,,,,,,,,,,,,,,,,,,,,,,,,,,,,,,"MET14101/04/18 17:49:02 SPECI KJFK 042249Z 31027G42KT 5SM BLSN SCT026 BKN045 OVC070 M04/M08 A2934 RMK AO2 PK WND 31042/2244 SNE24 P0000 $ FIBI (BH)","FM-16","6",,,,,,,,,,,,,,,,,,,,,,,,,,,"2009-05-01"
"74486094789","2018-01-04T17:51:00","FM-15","7",,"ESE","1.5","mi","TEMP, PRECIP, SNOW",,,"PSY, SRG, SNOWBOARD",,,"FAA CWO",,,,,,,,,,,,,,,,,,,,,,,,,,,,"29.34","18","25","0.02","BL:5 SN:03 ||",,,"75","29.34","SCT:04 26 BKN:07 45 OVC:08 70","29.31","5.00","23","310","48","31",,,,,,,,,,,,,,,,,,,,,,,,,,,,,,,,,,,,,"MET15301/04/18 17:51:02 METAR KJFK 042251Z 31027G42KT 5SM BLSN SCT026 BKN045 OVC070 M04/M08 A2934 RMK AO2 PK WND 31042/2244 SNE24 SLP934 P0000 T10391078 $ (BH)","FM-15","7",,,,,,,,,,,,,,,,,,,,,,,,,,,"2009-05-01"
"74486094789","2018-01-04T18:51:00","FM-15","7",,"ESE","1.5","mi","TEMP, PRECIP, SNOW",,,"PSY, SRG, SNOWBOARD",,,"FAA CWO",,,,,,,,,,,,,,,,,,,,,,,,,,,,"29.38","16","25","0.00",,"-0.11","3","69","29.38","SCT:04 37 OVC:08 75","29.36","8.00","22","310","43","34",,,,,,,,,,,,,,,,,,,,,,,,,,,,,,,,,,,,,"MET18201/04/18 18:51:02 METAR KJFK 042351Z 31030G37KT 8SM SCT037 OVC075 M04/M09 A2938 RMK AO2 PK WND 31045/2337 SLP950 PRESENT WX DRSN 931018 4/008 60011 T10391089 11039 21050 53037 $ (BH)","FM-15","7",,,,,,,,,,,,,,,,,,,,,,,,,,,"2009-05-01"
"74486094789","2018-01-04T19:00:00","FM-12","4",,"ESE","1.5","mi","TEMP, PRECIP, SNOW",,,"PSY, SRG, SNOWBOARD",,,"FAA CWO",,,,,,,,,,,,,,,,,,,,,,,,,,,,,"16","25",,,"-0.11","3","69","29.38","41","29.35","7.46","22","310",,"34",,,,,,,,,,,,,,,,,,,,,,,,,,,,,,,,,,,,,"SYN09874486 12662 83130 11039 21089 39938 49950 53037 60031 92351 333 11039 21050 4/020 91037 555 90500=","FM-12","4",,,,,,,,,,,,,,,,,,,,,,,,,,,"2009-05-01"
"74486094789","2018-01-04T19:51:00","FM-15","7",,"ESE","1.5","mi","TEMP, PRECIP, SNOW",,,"PSY, SRG, SNOWBOARD",,,"FAA CWO",,,,,,,,,,,,,,,,,,,,,,,,,,,,"29.44","14","24","0.00",,,,"65","29.44","FEW:02 37 SCT:04 70 OVC:08 120","29.41","9.00","21","310","40","26",,,,,,,,,,,,,,,,,,,,,,,,,,,,,,,,,,,,,"MET14701/04/18 19:51:01 METAR KJFK 050051Z 31023G35KT 9SM FEW037 SCT070 OVC120 M04/M10 A2944 RMK AO2 PK WND 32041/2356 SLP969 PRESENT WX DRSN T10441100 $","FM-15","7",,,,,,,,,,,,,,,,,,,,,,,,,,,"2009-05-01"
"74486094789","2018-01-04T20:51:00","FM-15","7",,"ESE","1.5","mi","TEMP, PRECIP, SNOW",,,"PSY, SRG, SNOWBOARD",,,"FAA CWO",,,,,,,,,,,,,,,,,,,,,,,,,,,,"29.48","12","22","0.00",,,,"66","29.47","FEW:02 40 SCT:04 70 OVC:08 140","29.46","10.00","19","300","43","25",,,,,,,,,,,,,,,,,,,,,,,,,,,,,,,,,,,,,"MET14801/04/18 20:51:01 METAR KJFK 050151Z 30022G37KT 10SM FEW040 SCT070 OVC140 M06/M11 A2948 RMK AO2 PK WND 28037/0148 SLP981 PRESENT WX DRSN T10561111 $","FM-15","7",,,,,,,,,,,,,,,,,,,,,,,,,,,"2009-05-01"
"74486094789","2018-01-04T21:51:00","FM-15","7",,"ESE","1.5","mi","TEMP, PRECIP, SNOW",,,"PSY, SRG, SNOWBOARD",,,"FAA CWO",,,,,,,,,,,,,,,,,,,,,,,,,,,,"29.51","11","21","0.00",,"-0.13","1","65","29.51","FEW:02 40 BKN:07 70 OVC:08 140","29.49","10.00","18","300","44","29",,,,,,,,,,,,,,,,,,,,,,,,,,,,,,,,,,,,,"MET15401/04/18 21:51:02 METAR KJFK 050251Z 30025G38KT 10SM FEW040 BKN070 OVC140 M06/M12 A2951 RMK AO2 PK WND 29039/0227 SLP993 PRESENT WX DRSN T10611117 51044 $","FM-15","7",,,,,,,,,,,,,,,,,,,,,,,,,,,"2009-05-01"
"74486094789","2018-01-04T22:00:00","FM-12","4",,"ESE","1.5","mi","TEMP, PRECIP, SNOW",,,"PSY, SRG, SNOWBOARD",,,"FAA CWO",,,,,,,,,,,,,,,,,,,,,,,,,,,,,"11","21",,,"-0.13","1","65","29.51","41","29.48","9.94","18","300",,"29",,,,,,,,,,,,,,,,,,,,,,,,,,,,,,,,,,,,,"SYN07474486 32666 83025 11061 21117 39982 49993 51044 90251 333 91038 555 90503=","FM-12","4",,,,,,,,,,,,,,,,,,,,,,,,,,,"2009-05-01"
"74486094789","2018-01-04T22:51:00","FM-15","7",,"ESE","1.5","mi","TEMP, PRECIP, SNOW",,,"PSY, SRG, SNOWBOARD",,,"FAA CWO",,,,,,,,,,,,,,,,,,,,,,,,,,,,"29.53","10","20","0.00",,,,"65","29.52","FEW:02 37 BKN:07 80 OVC:08 170","29.51","10.00","17","300","45","34",,,,,,,,,,,,,,,,,,,,,,,,,,,,,,,,,,,,,"MET14801/04/18 22:51:02 METAR KJFK 050351Z 30030G39KT 10SM FEW037 BKN080 OVC170 M07/M12 A2953 RMK AO2 PK WND 31040/0308 SLP998 PRESENT WX DRSN T10671122 $","FM-15","7",,,,,,,,,,,,,,,,,,,,,,,,,,,"2009-05-01"
"74486094789","2018-01-04T23:51:00","FM-15","7",,"ESE","1.5","mi","TEMP, PRECIP, SNOW",,,"PSY, SRG, SNOWBOARD",,,"FAA CWO",,,,,,,,,,,,,,,,,,,,,,,,,,,,"29.54","9","19","0.00",,,,"65","29.54","FEW:02 35 OVC:08 90","29.52","10.00","16","290","39","31",,,,,,,,,,,,,,,,,,,,,,,,,,,,,,,,,,,,,"MET15101/04/18 23:51:02 METAR KJFK 050451Z 29027G34KT 10SM FEW035 OVC090 M07/M13 A2954 RMK AO2 PK WND 29036/0401 SLP003 PRESENT WX DRSN T10721128 410171072 $","FM-15","7",,,,,,,,,,,,,,,,,,,,,,,,,,,"2009-05-01"
"74486094789","2018-01-04T23:59:00","SOD  ","6",,"ESE","1.5","mi","TEMP, PRECIP, SNOW",,,"PSY, SRG, SNOWBOARD",,,"FAA CWO",,,,,,"18","24","81","29.48","29.49","22","28.2","0","-9.3","41","29","19","330","55","0.49","1","8.0","340","44","SN FZFG BR BLSN FG",,,,,,,,,,,,,,,,,,,,,,,,,,,,,,,,,,,,,,,,,,,,,,,,,,,,,,,"SOD78524 HR PRECIPITATION (IN): 0.49 SNOW DEPTH (IN):1     24 HR SNOWFALL (IN):8.0  WEATHER(CODE):129  24 HR MAX TEMP (F): 2924 HR MIN TEMP (F): 19AVERAGE STATION PRESSURE:29.490 MINIMUM SEA LEVEL PRESSURE:29.21 TIME OF OCCURRENCE:1331 PEAK WIND SPEED (MPH): 55 PEAK WIND DIR (DEG):330 PEAK WIND TIME (LST):      FASTEST 2MIN SPEED (MPH): 44FASTEST 2MIN DIR (DEG):340 FASTEST 2MIN TIME (LST):     AVERAGE WIND SPEED (MPH):28.2 24 HR AVG TEMP (F): 24DEPART FROM NORMAL: -9  SKY COVER SR-SS (TENTHS): 1HEATING DEGREE DAYS: 41 COOLING DEGREE DAYS:  0 LATEST DAY MAX TEMP (0700-1900 LST):25  LATEST NIGHT MIN TEMP(1900-0800 LST):24 HOURLY INCREMENTAL PRECIPITATION VALUES (IN):    T    T    0.02 T    0.01 0.01 0.03 0.06 0.10 0.06 0.06 0.03 0.03 0.03 0.02 0.01 0.02 0.00 0.00 0.00 0.00 0.00 0.00","SOD  ","6",,,,,,,,,,,,,,,,,,,,,,,,,"0719","1641","2009-05-01"
"74486094789","2018-01-05T00:51:00","FM-15","7",,"ESE","1.5","mi","TEMP, PRECIP, SNOW",,,"PSY, SRG, SNOWBOARD",,,"FAA CWO",,,,,,,,,,,,,,,,,,,,,,,,,,,,"29.58","6","17","0.00",,"-0.06","3","62","29.57","FEW:02 35 BKN:07 85","29.56","10.00","14","290","39","28",,,,,,,,,,,,,,,,,,,,,,,,,,,,,,,,,,,,,"MET17001/05/18 00:51:02 METAR KJFK 050551Z 29024G34KT 10SM FEW035 BKN085 M08/M14 A2958 RMK AO2 PK WND 30037/0513 SLP015 PRESENT WX DRSN 4/008 T10831144 11039 21083 53022 $ (JC)","FM-15","7",,,,,,,,,,,,,,,,,,,,,,,,,,,"2009-05-01"
"74486094789","2018-01-05T01:00:00","FM-12","4",,"ESE","1.5","mi","TEMP, PRECIP, SNOW",,,"PSY, SRG, SNOWBOARD",,,"FAA CWO",,,,,,,,,,,,,,,,,,,,,,,,,,,,,"6","17",,,"-0.06","3","62","29.57","41","29.55","9.94","14","290",,"28",,,,,,,,,,,,,,,,,,,,,,,,,,,,,,,,,,,,,"SYN09274486 32666 62924 11083 21144 30006 40015 53022 90551 333 11017 21083 4/020 91034 555 90506=","FM-12","4",,,,,,,,,,,,,,,,,,,,,,,,,,,"2009-05-01"
"74486094789","2018-01-05T01:51:00","FM-15","7",,"ESE","1.5","mi","TEMP, PRECIP, SNOW",,,"PSY, SRG, SNOWBOARD",,,"FAA CWO",,,,,,,,,,,,,,,,,,,,,,,,,,,,"29.61","4","15","0.00",,,,"61","29.60","FEW:02 35 FEW:02 85","29.59","10.00","12","290","39","28",,,,,,,,,,,,,,,,,,,,,,,,,,,,,,,,,,,,,"MET14601/05/18 01:51:02 METAR KJFK 050651Z 29024G34KT 10SM FEW035 FEW085 M09/M16 A2961 RMK AO2 PK WND 29039/0637 SLP025 PRESENT WX DRSN T10941156 $ (JC)","FM-15","7",,,,,,,,,,,,,,,,,,,,,,,,,,,"2009-05-01"
"74486094789","2018-01-05T02:51:00","FM-15","7",,"ESE","1.5","mi","TEMP, PRECIP, SNOW",,,"PSY, SRG, SNOWBOARD",,,"FAA CWO",,,,,,,,,,,,,,,,,,,,,,,,,,,,"29.62","2","14","0.00",,,,"58","29.62","FEW:02 40","29.59","10.00","11","280","41","31",,,,,,,,,,,,,,,,,,,,,,,,,,,,,,,,,,,,,"MET13901/05/18 02:51:02 METAR KJFK 050751Z 28027G36KT 10SM FEW040 M10/M17 A2962 RMK AO2 PK WND 29039/0736 SLP031 PRESENT WX DRSN T11001167 $ (JC)","FM-15","7",,,,,,,,,,,,,,,,,,,,,,,,,,,"2009-05-01"
"74486094789","2018-01-05T03:51:00","FM-15","7",,"ESE","1.5","mi","TEMP, PRECIP, SNOW",,,"PSY, SRG, SNOWBOARD",,,"FAA CWO",,,,,,,,,,,,,,,,,,,,,,,,,,,,"29.66","2","13","0.00",,"-0.08","3","61","29.66","FEW:02 40","29.64","10.00","11","290","46","24",,,,,,,,,,,,,,,,,,,,,,,,,,,,,,,,,,,,,"MET14501/05/18 03:51:02 METAR KJFK 050851Z 29021G40KT 10SM FEW040 M11/M17 A2966 RMK AO2 PK WND 29040/0847 SLP043 PRESENT WX DRSN T11061167 53028 $ (JC)","FM-15","7",,,,,,,,,,,,,,,,,,,,,,,,,,,"2009-05-01"
"74486094789","2018-01-05T04:00:00","FM-12","4",,"ESE","1.5","mi","TEMP, PRECIP, SNOW",,,"PSY, SRG, SNOWBOARD",,,"FAA CWO",,,,,,,,,,,,,,,,,,,,,,,,,,,,,"2","13",,,"-0.08","3","61","29.66","41","29.63","9.94","11","290",,"24",,,,,,,,,,,,,,,,,,,,,,,,,,,,,,,,,,,,,"SYN07474486 32666 22921 11106 21167 30033 40043 53028 90851 333 91040 555 90509=","FM-12","4",,,,,,,,,,,,,,,,,,,,,,,,,,,"2009-05-01"
"74486094789","2018-01-05T04:51:00","FM-15","7",,"ESE","1.5","mi","TEMP, PRECIP, SNOW",,,"PSY, SRG, SNOWBOARD",,,"FAA CWO",,,,,,,,,,,,,,,,,,,,,,,,,,,,"29.69","0","12","0.00",,,,"58","29.68","FEW:02 40","29.67","10.00","10","290","33","23",,,,,,,,,,,,,,,,,,,,,,,,,,,,,,,,,,,,,"MET13901/05/18 04:51:02 METAR KJFK 050951Z 29020G29KT 10SM FEW040 M11/M18 A2969 RMK AO2 PK WND 28034/0941 SLP052 PRESENT WX DRSN T11111178 $ (JC)","FM-15","7",,,,,,,,,,,,,,,,,,,,,,,,,,,"2009-05-01"
"74486094789","2018-01-05T05:51:00","FM-15","7",,"ESE","1.5","mi","TEMP, PRECIP, SNOW",,,"PSY, SRG, SNOWBOARD",,,"FAA CWO",,,,,,,,,,,,,,,,,,,,,,,,,,,,"29.72","-1","11","0.00",,,,"58","29.71","FEW:02 40","29.70","10.00","9","290","39","23",,,,,,,,,,,,,,,,,,,,,,,,,,,,,,,,,,,,,"MET13901/05/18 05:51:02 METAR KJFK 051051Z 29020G34KT 10SM FEW040 M12/M18 A2972 RMK AO2 PK WND 29038/1038 SLP062 PRESENT WX DRSN T11171183 $ (JC)","FM-15","7",,,,,,,,,,,,,,,,,,,,,,,,,,,"2009-05-01"
"74486094789","2018-01-05T06:51:00","FM-15","7",,"ESE","1.5","mi","TEMP, PRECIP, SNOW",,,"PSY, SRG, SNOWBOARD",,,"FAA CWO",,,,,,,,,,,,,,,,,,,,,,,,,,,,"29.75","-2","10","0.00",,"-0.09","3","58","29.75","FEW:02 40","29.72","10.00","8","280","33","24",,,,,,,,,,,,,,,,,,,,,,,,,,,,,,,,,,,,,"MET16901/05/18 06:51:02 METAR KJFK 051151Z 28021G29KT 10SM FEW040 M12/M19 A2975 RMK AO2 PK WND 29034/1104 SLP074 PRESENT WX DRSN 4/008 70045 T11221189 11083 21122 53031 $ (RR)","FM-15","7",,,,,,,,,,,,,,,,,,,,,,,,,,,"2009-05-01"
"74486094789","2018-01-05T07:00:00","FM-12","4",,"ESE","1.5","mi","TEMP, PRECIP, SNOW",,,"PSY, SRG, SNOWBOARD",,,"FAA CWO",,,,,,,,,,,,,,,,,,,,,,,,,,,,,"-2","10",,,"-0.09","3","58","29.75","41","29.72","9.94","8","280",,"24",,,,,,,,,,,,,,,,,,,,,,,,,,,,,,,,,,,,,"SYN09874486 32666 22821 11122 21189 30063 40074 53031 91151 333 11017 21122 4/020 70114 91029 555 90512=","FM-12","4",,,,,,,,,,,,,,,,,,,,,,,,,,,"2009-05-01"
"74486094789","2018-01-05T07:51:00","FM-15","7",,"ESE","1.5","mi","TEMP, PRECIP, SNOW",,,"PSY, SRG, SNOWBOARD",,,"FAA CWO",,,,,,,,,,,,,,,,,,,,,,,,,,,,"29.78","-2","10","0.00",,,,"58","29.78","FEW:02 40","29.75","10.00","8","290","37","26",,,,,,,,,,,,,,,,,,,,,,,,,,,,,,,,,,,,,"MET13701/05/18 07:51:02 METAR KJFK 051251Z 29023G32KT 10SM FEW040 M12/M19 A2978 RMK AO2 PK WND 29037/1157 SLP084 PRESENT WX DRSN T11221189 (RR)","FM-15","7",,,,,,,,,,,,,,,,,,,,,,,,,,,"2009-05-01"
"74486094789","2018-01-05T08:51:00","FM-15","7",,"ESE","1.5","mi","TEMP, PRECIP, SNOW",,,"PSY, SRG, SNOWBOARD",,,"FAA CWO",,,,,,,,,,,,,,,,,,,,,,,,,,,,"29.80","-2","10","0.00",,,,"58","29.80","FEW:02 40","29.78","10.00","8","300","38","26",,,,,,,,,,,,,,,,,,,,,,,,,,,,,,,,,,,,,"MET13701/05/18 08:51:02 METAR KJFK 051351Z 30023G33KT 10SM FEW040 M12/M19 A2980 RMK AO2 PK WND 31036/1338 SLP091 PRESENT WX DRSN T11221189 (RR)","FM-15","7",,,,,,,,,,,,,,,,,,,,,,,,,,,"2009-05-01"
"74486094789","2018-01-05T09:51:00","FM-15","7",,"ESE","1.5","mi","TEMP, PRECIP, SNOW",,,"PSY, SRG, SNOWBOARD",,,"FAA CWO",,,,,,,,,,,,,,,,,,,,,,,,,,,,"29.82","-2","11","0.00",,"-0.07","1","55","29.82","FEW:02 40","29.80","10.00","8","290","40","22",,,,,,,,,,,,,,,,,,,,,,,,,,,,,,,,,,,,,"MET14301/05/18 09:51:02 METAR KJFK 051451Z 29019G35KT 10SM FEW040 M12/M19 A2982 RMK AO2 PK WND 29037/1441 SLP097 PRESENT WX DRSN T11171189 51023 (RR)","FM-15","7",,,,,,,,,,,,,,,,,,,,,,,,,,,"2009-05-01"
"74486094789","2018-01-05T10:00:00","FM-12","4",,"ESE","1.5","mi","TEMP, PRECIP, SNOW",,,"PSY, SRG, SNOWBOARD",,,"FAA CWO",,,,,,,,,,,,,,,,,,,,,,,,,,,,,"-2","11",,,"-0.07","1","55","29.82","41","29.79","9.94","8","290",,"22",,,,,,,,,,,,,,,,,,,,,,,,,,,,,,,,,,,,,"SYN07474486 32666 22919 11117 21189 30087 40097 51023 91451 333 91035 555 90515=","FM-12","4",,,,,,,,,,,,,,,,,,,,,,,,,,,"2009-05-01"
"74486094789","2018-01-05T10:51:00","FM-15","7",,"ESE","1.5","mi","TEMP, PRECIP, SNOW",,,"PSY, SRG, SNOWBOARD",,,"FAA CWO",,,,,,,,,,,,,,,,,,,,,,,,,,,,"29.83","-3","12","0.00",,,,"51","29.83","FEW:02 40","29.80","10.00","9","280","37","23",,,,,,,,,,,,,,,,,,,,,,,,,,,,,,,,,,,,,"MET13701/05/18 10:51:02 METAR KJFK 051551Z 28020G32KT 10SM FEW040 M11/M19 A2983 RMK AO2 PK WND 30034/1517 SLP101 PRESENT WX DRSN T11111194 (RR)","FM-15","7",,,,,,,,,,,,,,,,,,,,,,,,,,,"2009-05-01"
"74486094789","2018-01-05T11:51:00","FM-15","7",,"ESE","1.5","mi","TEMP, PRECIP, SNOW",,,"PSY, SRG, SNOWBOARD",,,"FAA CWO",,,,,,,,,,,,,,,,,,,,,,,,,,,,"29.82","-3","13","0.00",,,,"49","29.82","FEW:02 40","29.80","10.00","10","280","36","23",,,,,,,,,,,,,,,,,,,,,,,,,,,,,,,,,,,,,"MET13701/05/18 11:51:02 METAR KJFK 051651Z 28020G31KT 10SM FEW040 M11/M19 A2982 RMK AO2 PK WND 29035/1604 SLP097 PRESENT WX DRSN T11061194 (RR)","FM-15","7",,,,,,,,,,,,,,,,,,,,,,,,,,,"2009-05-01"
"74486094789","2018-01-05T12:51:00","FM-15","7",,"ESE","1.5","mi","TEMP, PRECIP, SNOW",,,"PSY, SRG, SNOWBOARD",,,"FAA CWO",,,,,,,,,,,,,,,,,,,,,,,,,,,,"29.82","-2","14","0.00",,"-0.01","1","49","29.82","FEW:02 40","29.80","10.00","11","280","39","30",,,,,,,,,,,,,,,,,,,,,,,,,,,,,,,,,,,,,"MET16801/05/18 12:51:02 METAR KJFK 051751Z 28026G34KT 10SM FEW040 M10/M19 A2982 RMK AO2 PK WND 28037/1721 SLP099 PRESENT WX DRSN 4/008 933014 T11001189 11094 21128 51002 (RR)","FM-15","7",,,,,,,,,,,,,,,,,,,,,,,,,,,"2009-05-01"
"74486094789","2018-01-05T13:00:00","FM-12","4",,"ESE","1.5","mi","TEMP, PRECIP, SNOW",,,"PSY, SRG, SNOWBOARD",,,"FAA CWO",,,,,,,,,,,,,,,,,,,,,,,,,,,,,"-2","14",,,"-0.01","1","49","29.82","41","29.79","9.94","11","280",,"30",,,,,,,,,,,,,,,,,,,,,,,,,,,,,,,,,,,,,"SYN09274486 32666 22826 11100 21189 30087 40099 51002 91751 333 11083 21128 4/020 91034 555 90518=","FM-12","4",,,,,,,,,,,,,,,,,,,,,,,,,,,"2009-05-01"
"74486094789","2018-01-05T13:51:00","FM-15","7",,"ESE","1.5","mi","TEMP, PRECIP, SNOW",,,"PSY, SRG, SNOWBOARD",,,"FAA CWO",,,,,,,,,,,,,,,,,,,,,,,,,,,,"29.83","-2","15","0.00",,,,"46","29.83","FEW:02 40","29.80","10.00","12","290","40","28",,,,,,,,,,,,,,,,,,,,,,,,,,,,,,,,,,,,,"MET13701/05/18 13:51:02 METAR KJFK 051851Z 29024G35KT 10SM FEW040 M09/M19 A2983 RMK AO2 PK WND 30037/1818 SLP102 PRESENT WX DRSN T10941189 (RR)","FM-15","7",,,,,,,,,,,,,,,,,,,,,,,,,,,"2009-05-01"
"74486094789","2018-01-05T14:51:00","FM-15","7",,"ESE","1.5","mi","TEMP, PRECIP, SNOW",,,"PSY, SRG, SNOWBOARD",,,"FAA CWO",,,,,,,,,,,,,,,,,,,,,,,,,,,,"29.85","-4","16","0.00",,,,"41","29.85","FEW:02 50","29.83","10.00","12","280","40","29",,,,,,,,,,,,,,,,,,,,,,,,,,,,,,,,,,,,,"MET13701/05/18 14:51:02 METAR KJFK 051951Z 28025G35KT 10SM FEW050 M09/M20 A2985 RMK AO2 PK WND 29036/1913 SLP108 PRESENT WX DRSN T10891200 (RR)","FM-15","7",,,,,,,,,,,,,,,,,,,,,,,,,,,"2009-05-01"
"74486094789","2018-01-05T15:51:00","FM-15","7",,"ESE","1.5","mi","TEMP, PRECIP, SNOW",,,"PSY, SRG, SNOWBOARD",,,"FAA CWO",,,,,,,,,,,,,,,,,,,,,,,,,,,,"29.88","-6","16","0.00",,"-0.06","3","37","29.88","FEW:02 50","29.85","10.00","12","290","41","31",,,,,,,,,,,,,,,,,,,,,,,,,,,,,,,,,,,,,"MET14301/05/18 15:51:02 METAR KJFK 052051Z 29027G36KT 10SM FEW050 M09/M21 A2988 RMK AO2 PK WND 29038/2000 SLP118 PRESENT WX DRSN T10891211 53019 (RR)","FM-15","7",,,,,,,,,,,,,,,,,,,,,,,,,,,"2009-05-01"
"74486094789","2018-01-05T16:00:00","FM-12","4",,"ESE","1.5","mi","TEMP, PRECIP, SNOW",,,"PSY, SRG, SNOWBOARD",,,"FAA CWO",,,,,,,,,,,,,,,,,,,,,,,,,,,,,"-6","16",,,"-0.06","3","37","29.88","57","29.85","9.94","12","290",,"31",,,,,,,,,,,,,,,,,,,,,,,,,,,,,,,,,,,,,"SYN07474486 32766 22927 11089 21211 30107 40118 53019 92051 333 91036 555 90521=","FM-12","4",,,,,,,,,,,,,,,,,,,,,,,,,,,"2009-05-01"
"74486094789","2018-01-05T16:51:00","FM-15","7",,"ESE","1.5","mi","TEMP, PRECIP, SNOW",,,"PSY, SRG, SNOWBOARD",,,"FAA CWO",,,,,,,,,,,,,,,,,,,,,,,,,,,,"29.91","-6","16","0.00",,,,"37","29.90","FEW:02 50","29.88","10.00","12","300","31","23",,,,,,,,,,,,,,,,,,,,,,,,,,,,,,,,,,,,,"MET13701/05/18 16:51:02 METAR KJFK 052151Z 30020G27KT 10SM FEW050 M09/M21 A2991 RMK AO2 PK WND 28033/2100 SLP126 PRESENT WX DRSN T10891211 (RR)","FM-15","7",,,,,,,,,,,,,,,,,,,,,,,,,,,"2009-05-01"
"74486094789","2018-01-05T17:51:00","FM-15","7",,"ESE","1.5","mi","TEMP, PRECIP, SNOW",,,"PSY, SRG, SNOWBOARD",,,"FAA CWO",,,,,,,,,,,,,,,,,,,,,,,,,,,,"29.94","-5","15","0.00",,,,"40","29.94","FEW:02 50","29.91","10.00","11","290","26","17",,,,,,,,,,,,,,,,,,,,,,,,,,,,,,,,,,,,,"MET13701/05/18 17:51:02 METAR KJFK 052251Z 29015G23KT 10SM FEW050 M09/M21 A2994 RMK AO2 PK WND 30028/2231 SLP139 PRESENT WX DRSN T10941206 (RR)","FM-15","7",,,,,,,,,,,,,,,,,,,,,,,,,,,"2009-05-01"
"74486094789","2018-01-05T18:51:00","FM-15","7",,"ESE","1.5","mi","TEMP, PRECIP, SNOW",,,"PSY, SRG, SNOWBOARD",,,"FAA CWO",,,,,,,,,,,,,,,,,,,,,,,,,,,,"29.97","-6","15","0.00",,"-0.08","1","38","29.96","FEW:02 50","29.95","10.00","11","300","31","24",,,,,,,,,,,,,,,,,,,,,,,,,,,,,,,,,,,,,"MET16101/05/18 18:51:02 METAR KJFK 052351Z 30021G27KT 10SM FEW050 M09/M21 A2997 RMK AO2 PK WND 30028/2259 SLP146 PRESENT WX DRSN 4/008 T10941211 11089 21100 51028 (RR)","FM-15","7",,,,,,,,,,,,,,,,,,,,,,,,,,,"2009-05-01"
"74486094789","2018-01-05T19:00:00","FM-12","4",,"ESE","1.5","mi","TEMP, PRECIP, SNOW",,,"PSY, SRG, SNOWBOARD",,,"FAA CWO",,,,,,,,,,,,,,,,,,,,,,,,,,,,,"-6","15",,,"-0.08","1","38","29.96","57","29.94","9.94","11","300",,"24",,,,,,,,,,,,,,,,,,,,,,,,,,,,,,,,,,,,,"SYN09274486 32766 23021 11094 21211 30138 40146 51028 92351 333 11089 21122 4/020 91027 555 90600=","FM-12","4",,,,,,,,,,,,,,,,,,,,,,,,,,,"2009-05-01"
"74486094789","2018-01-05T19:51:00","FM-15","7",,"ESE","1.5","mi","TEMP, PRECIP, SNOW",,,"PSY, SRG, SNOWBOARD",,,"FAA CWO",,,,,,,,,,,,,,,,,,,,,,,,,,,,"29.99","-7","14","0.00",,,,"38","29.98","FEW:02 65","29.96","10.00","10","290","36","26",,,,,,,,,,,,,,,,,,,,,,,,,,,,,,,,,,,,,"MET13201/05/18 19:51:01 METAR KJFK 060051Z 29023G31KT 10SM FEW065 M10/M22 A2999 RMK AO2 PK WND 28031/0050 SLP154 PRESENT WX DRSN T11001217","FM-15","7",,,,,,,,,,,,,,,,,,,,,,,,,,,"2009-05-01"
"74486094789","2018-01-05T20:51:00","FM-15","7",,"ESE","1.5","mi","TEMP, PRECIP, SNOW",,,"PSY, SRG, SNOWBOARD",,,"FAA CWO",,,,,,,,,,,,,,,,,,,,,,,,,,,,"30.02","-7","13","0.00",,,,"40","30.02","FEW:02 65","30.00","10.00","9","280",,"21",,,,,,,,,,,,,,,,,,,,,,,,,,,,,,,,,,,,,"MET12901/05/18 20:51:01 METAR KJFK 060151Z 28018KT 10SM FEW065 M11/M22 A3002 RMK AO2 PK WND 30035/0132 SLP166 PRESENT WX DRSN T11061217","FM-15","7",,,,,,,,,,,,,,,,,,,,,,,,,,,"2009-05-01"
"74486094789","2018-01-05T21:51:00","FM-15","7",,"ESE","1.5","mi","TEMP, PRECIP, SNOW",,,"PSY, SRG, SNOWBOARD",,,"FAA CWO",,,,,,,,,,,,,,,,,,,,,,,,,,,,"30.05","-7","12","0.00",,"-0.09","3","42","30.05","FEW:02 60","30.03","10.00","9","290","36","22",,,,,,,,,,,,,,,,,,,,,,,,,,,,,,,,,,,,,"MET13801/05/18 21:51:02 METAR KJFK 060251Z 29019G31KT 10SM FEW060 M11/M22 A3005 RMK AO2 PK WND 27036/0203 SLP175 PRESENT WX DRSN T11111217 53029","FM-15","7",,,,,,,,,,,,,,,,,,,,,,,,,,,"2009-05-01"
"74486094789","2018-01-05T22:00:00","FM-12","4",,"ESE","1.5","mi","TEMP, PRECIP, SNOW",,,"PSY, SRG, SNOWBOARD",,,"FAA CWO",,,,,,,,,,,,,,,,,,,,,,,,,,,,,"-7","12",,,"-0.09","3","42","30.05","57","30.02","9.94","9","290",,"22",,,,,,,,,,,,,,,,,,,,,,,,,,,,,,,,,,,,,"SYN07474486 32766 22919 11111 21217 30165 40175 53029 90251 333 91031 555 90603=","FM-12","4",,,,,,,,,,,,,,,,,,,,,,,,,,,"2009-05-01"
"74486094789","2018-01-05T22:51:00","FM-15","7",,"ESE","1.5","mi","TEMP, PRECIP, SNOW",,,"PSY, SRG, SNOWBOARD",,,"FAA CWO",,,,,,,,,,,,,,,,,,,,,,,,,,,,"30.07","-8","11","0.00",,,,"42","30.07","FEW:02 55","30.04","10.00","8","290","36","21",,,,,,,,,,,,,,,,,,,,,,,,,,,,,,,,,,,,,"MET13201/05/18 22:51:02 METAR KJFK 060351Z 29018G31KT 10SM FEW055 M12/M22 A3007 RMK AO2 PK WND 29034/0255 SLP182 PRESENT WX DRSN T11171222","FM-15","7",,,,,,,,,,,,,,,,,,,,,,,,,,,"2009-05-01"
"74486094789","2018-01-05T23:51:00","FM-15","7",,"ESE","1.5","mi","TEMP, PRECIP, SNOW",,,"PSY, SRG, SNOWBOARD",,,"FAA CWO",,,,,,,,,,,,,,,,,,,,,,,,,,,,"30.08","-8","11","0.00",,,,"42","30.08","FEW:02 55","30.06","8.00","8","280","39","29",,,,,,,,,,,,,,,,,,,,,,,,,,,,,,,,,,,,,"MET14101/05/18 23:51:02 METAR KJFK 060451Z 28025G34KT 8SM FEW055 M12/M22 A3008 RMK AO2 PK WND 29034/0450 SLP187 PRESENT WX DRSN T11171222 410721128","FM-15","7",,,,,,,,,,,,,,,,,,,,,,,,,,,"2009-05-01"
"74486094789","2018-01-05T23:59:00","SOD  ","6",,"ESE","1.5","mi","TEMP, PRECIP, SNOW",,,"PSY, SRG, SNOWBOARD",,,"FAA CWO",,,,,,"-2","14","49","29.83","29.75","10","25.1","0","-19.2","51","19","9","290","46","0.00","8","0.0","290","36",,,,,,,,,,,,,,,,,,,,,,,,,,,,,,,,,,,,,,,,,,,,,,,,,,,,,,,,"SOD75624 HR PRECIPITATION (IN): 0.00 SNOW DEPTH (IN):8     24 HR SNOWFALL (IN):0.0  WEATHER(CODE):9  24 HR MAX TEMP (F): 1924 HR MIN TEMP (F):  9AVERAGE STATION PRESSURE:29.750 MINIMUM SEA LEVEL PRESSURE:29.54 TIME OF OCCURRENCE:0007 PEAK WIND SPEED (MPH): 46 PEAK WIND DIR (DEG):290 PEAK WIND TIME (LST):      FASTEST 2MIN SPEED (MPH): 36FASTEST 2MIN DIR (DEG):290 FASTEST 2MIN TIME (LST):     AVERAGE WIND SPEED (MPH):25.1 24 HR AVG TEMP (F): 14DEPART FROM NORMAL:-19  HEATING DEGREE DAYS: 51 COOLING DEGREE DAYS:  0 LATEST DAY MAX TEMP (0700-1900 LST):16  LATEST NIGHT MIN TEMP(1900-0800 LST):9  HOURLY INCREMENTAL PRECIPITATION VALUES (IN):.00 T    0.00 0.00 0.00 0.00 0.00 0.00 0.00 0.00 0.00 0.00 0.00 0.00 0.00 0.00 0.00 0.00 0.00 0.00 0.00 0.00 0.00 0.00","SOD  ","6",,,,,,,,,,,,,,,,,,,,,,,,,"0719","1642","2009-05-01"
"74486094789","2018-01-06T00:51:00","FM-15","7",,"ESE","1.5","mi","TEMP, PRECIP, SNOW",,,"PSY, SRG, SNOWBOARD",,,"FAA CWO",,,,,,,,,,,,,,,,,,,,,,,,,,,,"30.09","-8","10","0.00",,"-0.04","1","43","30.09","FEW:02 55","30.06","10.00","7","290","33","25",,,,,,,,,,,,,,,,,,,,,,,,,,,,,,,,,,,,,"MET16101/06/18 00:51:02 METAR KJFK 060551Z 29022G29KT 10SM FEW055 M12/M22 A3009 RMK AO2 PK WND 27034/0522 SLP188 PRESENT WX DRSN 4/008 T11221222 11094 21122 51013 (DM)","FM-15","7",,,,,,,,,,,,,,,,,,,,,,,,,,,"2009-05-01"
"74486094789","2018-01-06T01:00:00","FM-12","4",,"ESE","1.5","mi","TEMP, PRECIP, SNOW",,,"PSY, SRG, SNOWBOARD",,,"FAA CWO",,,,,,,,,,,,,,,,,,,,,,,,,,,,,"-8","10",,,"-0.04","1","43","30.09","57","30.06","9.94","7","290",,"25",,,,,,,,,,,,,,,,,,,,,,,,,,,,,,,,,,,,,"SYN09274486 32766 22922 11122 21222 30178 40188 51013 90551 333 11083 21122 4/020 91029 555 90606=","FM-12","4",,,,,,,,,,,,,,,,,,,,,,,,,,,"2009-05-01"
"74486094789","2018-01-06T01:51:00","FM-15","7",,"ESE","1.5","mi","TEMP, PRECIP, SNOW",,,"PSY, SRG, SNOWBOARD",,,"FAA CWO",,,,,,,,,,,,,,,,,,,,,,,,,,,,"30.11","-8","11","0.00",,,,"42","30.11","FEW:02 50","30.09","10.00","8","280","38","25",,,,,,,,,,,,,,,,,,,,,,,,,,,,,,,,,,,,,"MET13701/06/18 01:51:02 METAR KJFK 060651Z 28022G33KT 10SM FEW050 M12/M22 A3011 RMK AO2 PK WND 29033/0646 SLP196 PRESENT WX DRSN T11171222 (DM)","FM-15","7",,,,,,,,,,,,,,,,,,,,,,,,,,,"2009-05-01"
"74486094789","2018-01-06T02:51:00","FM-15","7",,"ESE","1.5","mi","TEMP, PRECIP, SNOW",,,"PSY, SRG, SNOWBOARD",,,"FAA CWO",,,,,,,,,,,,,,,,,,,,,,,,,,,,"30.12","-8","10","0.00",,,,"43","30.12","FEW:02 50","30.09","10.00","7","280","28","21",,,,,,,,,,,,,,,,,,,,,,,,,,,,,,,,,,,,,"MET13701/06/18 02:51:02 METAR KJFK 060751Z 28018G24KT 10SM FEW050 M12/M22 A3012 RMK AO2 PK WND 28031/0705 SLP199 PRESENT WX DRSN T11221222 (DM)","FM-15","7",,,,,,,,,,,,,,,,,,,,,,,,,,,"2009-05-01"
"74486094789","2018-01-06T03:51:00","FM-15","7",,"ESE","1.5","mi","TEMP, PRECIP, SNOW",,,"PSY, SRG, SNOWBOARD",,,"FAA CWO",,,,,,,,,,,,,,,,,,,,,,,,,,,,"30.13","-9","9","0.00",,"-0.04","1","43","30.13","FEW:02 50","30.11","10.00","6","290","29","17",,,,,,,,,,,,,,,,,,,,,,,,,,,,,,,,,,,,,"MET14301/06/18 03:51:02 METAR KJFK 060851Z 29015G25KT 10SM FEW050 M13/M23 A3013 RMK AO2 PK WND 27031/0813 SLP202 PRESENT WX DRSN T11281228 51014 (DM)","FM-15","7",,,,,,,,,,,,,,,,,,,,,,,,,,,"2009-05-01"
"74486094789","2018-01-06T04:00:00","FM-12","4",,"ESE","1.5","mi","TEMP, PRECIP, SNOW",,,"PSY, SRG, SNOWBOARD",,,"FAA CWO",,,,,,,,,,,,,,,,,,,,,,,,,,,,,"-9","9",,,"-0.04","1","43","30.13","57","30.10","9.94","6","290",,"17",,,,,,,,,,,,,,,,,,,,,,,,,,,,,,,,,,,,,"SYN07474486 32766 22915 11128 21228 30192 40202 51014 90851 333 91025 555 90609=","FM-12","4",,,,,,,,,,,,,,,,,,,,,,,,,,,"2009-05-01"
"74486094789","2018-01-06T04:51:00","FM-15","7",,"ESE","1.5","mi","TEMP, PRECIP, SNOW",,,"PSY, SRG, SNOWBOARD",,,"FAA CWO",,,,,,,,,,,,,,,,,,,,,,,,,,,,"30.15","-8","9","0.00",,,,"46","30.14","FEW:02 45","30.12","10.00","6","280","29","20",,,,,,,,,,,,,,,,,,,,,,,,,,,,,,,,,,,,,"MET13701/06/18 04:51:02 METAR KJFK 060951Z 28017G25KT 10SM FEW045 M13/M22 A3015 RMK AO2 PK WND 27030/0937 SLP208 PRESENT WX DRSN T11281222 (DM)","FM-15","7",,,,,,,,,,,,,,,,,,,,,,,,,,,"2009-05-01"
"74486094789","2018-01-06T05:51:00","FM-15","7",,"ESE","1.5","mi","TEMP, PRECIP, SNOW",,,"PSY, SRG, SNOWBOARD",,,"FAA CWO",,,,,,,,,,,,,,,,,,,,,,,,,,,,"30.17","-3","9","0.00",,,,"58","30.16","FEW:02 45","30.14","10.00","7","280","31","17",,,,,,,,,,,,,,,,,,,,,,,,,,,,,,,,,,,,,"MET13701/06/18 05:51:02 METAR KJFK 061051Z 28015G27KT 10SM FEW045 M13/M19 A3017 RMK AO2 PK WND 27027/1044 SLP215 PRESENT WX DRSN T11281194 (DM)","FM-15","7",,,,,,,,,,,,,,,,,,,,,,,,,,,"2009-05-01"
"74486094789","2018-01-06T06:51:00","FM-15","7",,"ESE","1.5","mi","TEMP, PRECIP, SNOW",,,"PSY, SRG, SNOWBOARD",,,"FAA CWO",,,,,,,,,,,,,,,,,,,,,,,,,,,,"30.18","-4","9","0.00",,"-0.05","1","55","30.18","SCT:04 41","30.16","10.00","7","270",,"22",,,,,,,,,,,,,,,,,,,,,,,,,,,,,,,,,,,,,"MET14201/06/18 06:51:02 METAR KJFK 061151Z 27019KT 10SM SCT041 M13/M20 A3018 RMK AO2 PK WND 26030/1139 SLP219 4/008 T11281200 11117 21133 51018 (RG)","FM-15","7",,,,,,,,,,,,,,,,,,,,,,,,,,,"2009-05-01"
"74486094789","2018-01-06T07:00:00","FM-12","4",,"ESE","1.5","mi","TEMP, PRECIP, SNOW",,,"PSY, SRG, SNOWBOARD",,,"FAA CWO",,,,,,,,,,,,,,,,,,,,,,,,,,,,,"-4","9",,,"-0.05","1","55","30.18","41","30.15","9.94","7","270",,"22",,,,,,,,,,,,,,,,,,,,,,,,,,,,,,,,,,,,,"SYN08674486 32666 42719 11128 21200 30209 40219 51018 91151 333 11072 21133 4/020 555 90612=","FM-12","4",,,,,,,,,,,,,,,,,,,,,,,,,,,"2009-05-01"
"74486094789","2018-01-06T07:51:00","FM-15","7",,"ESE","1.5","mi","TEMP, PRECIP, SNOW",,,"PSY, SRG, SNOWBOARD",,,"FAA CWO",,,,,,,,,,,,,,,,,,,,,,,,,,,,"30.21","-4","9","0.00",,,,"55","30.20","SCT:04 42","30.19","10.00","7","270",,"22",,,,,,,,,,,,,,,,,,,,,,,,,,,,,,,,,,,,,"MET11801/06/18 07:51:02 METAR KJFK 061251Z 27019KT 10SM SCT042 M13/M20 A3021 RMK AO2 PK WND 27032/1154 SLP228 T11281200 (RG)","FM-15","7",,,,,,,,,,,,,,,,,,,,,,,,,,,"2009-05-01"
"74486094789","2018-01-06T08:51:00","FM-15","7",,"ESE","1.5","mi","TEMP, PRECIP, SNOW",,,"PSY, SRG, SNOWBOARD",,,"FAA CWO",,,,,,,,,,,,,,,,,,,,,,,,,,,,"30.22","-6","9","0.00",,,,"50","30.22","SCT:04 45","30.19","10.00","6","280","34","25",,,,,,,,,,,,,,,,,,,,,,,,,,,,,,,,,,,,,"MET12101/06/18 08:51:02 METAR KJFK 061351Z 28022G30KT 10SM SCT045 M13/M21 A3022 RMK AO2 PK WND 27032/1330 SLP233 T11281211 (RG)","FM-15","7",,,,,,,,,,,,,,,,,,,,,,,,,,,"2009-05-01"
"74486094789","2018-01-06T09:51:00","FM-15","7",,"ESE","1.5","mi","TEMP, PRECIP, SNOW",,,"PSY, SRG, SNOWBOARD",,,"FAA CWO",,,,,,,,,,,,,,,,,,,,,,,,,,,,"30.22","-6","10","0.00",,"-0.04","0","48","30.22","SCT:04 42","30.19","10.00","7","290","33","20",,,,,,,,,,,,,,,,,,,,,,,,,,,,,,,,,,,,,"MET12701/06/18 09:51:02 METAR KJFK 061451Z 29017G29KT 10SM SCT042 M12/M21 A3022 RMK AO2 PK WND 29031/1403 SLP233 T11221211 50013 (RG)","FM-15","7",,,,,,,,,,,,,,,,,,,,,,,,,,,"2009-05-01"
"74486094789","2018-01-06T10:00:00","FM-12","4",,"ESE","1.5","mi","TEMP, PRECIP, SNOW",,,"PSY, SRG, SNOWBOARD",,,"FAA CWO",,,,,,,,,,,,,,,,,,,,,,,,,,,,,"-6","10",,,"0.04","9","48","30.22","41","30.19","9.94","7","290",,"20",,,,,,,,,,,,,,,,,,,,,,,,,,,,,,,,,,,,,"SYN07474486 32666 42917 11122 21211 30222 40233 50013 91451 333 91029 555 90615=","FM-12","4",,,,,,,,,,,,,,,,,,,,,,,,,,,"2009-05-01"
"74486094789","2018-01-06T10:51:00","FM-15","7",,"ESE","1.5","mi","TEMP, PRECIP, SNOW",,,"PSY, SRG, SNOWBOARD",,,"FAA CWO",,,,,,,,,,,,,,,,,,,,,,,,,,,,"30.24","-8","11","0.00",,,,"42","30.24","SCT:04 43","30.22","10.00","8","290","34","23",,,,,,,,,,,,,,,,,,,,,,,,,,,,,,,,,,,,,"MET13901/06/18 10:51:02 METAR KJFK 061551Z 29020G30KT 10SM R04R/5000VP6000FT SCT043 M12/M22 A3024 RMK AO2 PK WND 28030/1546 SLP241 T11171222 (RG)","FM-15","7",,,,,,,,,,,,,,,,,,,,,,,,,,,"2009-05-01"
"74486094789","2018-01-06T11:51:00","FM-15","7",,"ESE","1.5","mi","TEMP, PRECIP, SNOW",,,"PSY, SRG, SNOWBOARD",,,"FAA CWO",,,,,,,,,,,,,,,,,,,,,,,,,,,,"30.23","-10","12","0.00",,,,"36","30.22","FEW:02 45","30.21","10.00","8","280","31","23",,,,,,,,,,,,,,,,,,,,,,,,,,,,,,,,,,,,,"MET12101/06/18 11:51:02 METAR KJFK 061651Z 28020G27KT 10SM FEW045 M11/M23 A3023 RMK AO2 PK WND 30031/1629 SLP235 T11111233 (RG)","FM-15","7",,,,,,,,,,,,,,,,,,,,,,,,,,,"2009-05-01"
"74486094789","2018-01-06T12:51:00","FM-15","7",,"ESE","1.5","mi","TEMP, PRECIP, SNOW",,,"PSY, SRG, SNOWBOARD",,,"FAA CWO",,,,,,,,,,,,,,,,,,,,,,,,,,,,"30.22","-9","13","0.00",,"+0.00","8","36","30.21","FEW:02 45","30.19","10.00","9","290","31","23",,,,,,,,,,,,,,,,,,,,,,,,,,,,,,,,,,,,,"MET15201/06/18 12:51:02 METAR KJFK 061751Z 29020G27KT 10SM FEW045 M11/M23 A3022 RMK AO2 PK WND 29029/1725 SLP231 4/008 933018 T11061228 11106 21128 58001 (RG)","FM-15","7",,,,,,,,,,,,,,,,,,,,,,,,,,,"2009-05-01"
"74486094789","2018-01-06T13:00:00","FM-12","4",,"ESE","1.5","mi","TEMP, PRECIP, SNOW",,,"PSY, SRG, SNOWBOARD",,,"FAA CWO",,,,,,,,,,,,,,,,,,,,,,,,,,,,,"-9","13",,,"+0.00","8","36","30.21","41","30.19","9.94","9","290",,"23",,,,,,,,,,,,,,,,,,,,,,,,,,,,,,,,,,,,,"SYN09274486 32666 22920 11106 21228 30222 40231 58001 91751 333 11106 21128 4/020 91027 555 90618=","FM-12","4",,,,,,,,,,,,,,,,,,,,,,,,,,,"2009-05-01"
"74486094789","2018-01-06T13:51:00","FM-15","7",,"ESE","1.5","mi","TEMP, PRECIP, SNOW",,,"PSY, SRG, SNOWBOARD",,,"FAA CWO",,,,,,,,,,,,,,,,,,,,,,,,,,,,"30.23","-8","13","0.00",,,,"38","30.22","FEW:02 45","30.21","10.00","9","290","31","20",,,,,,,,,,,,,,,,,,,,,,,,,,,,,,,,,,,,,"MET13901/06/18 13:51:02 METAR KJFK 061851Z 29017G27KT 10SM R04R/5000VP6000FT FEW045 M11/M22 A3023 RMK AO2 PK WND 29029/1802 SLP235 T11061222 (RG)","FM-15","7",,,,,,,,,,,,,,,,,,,,,,,,,,,"2009-05-01"
"74486094789","2018-01-06T14:51:00","FM-15","7",,"ESE","1.5","mi","TEMP, PRECIP, SNOW",,,"PSY, SRG, SNOWBOARD",,,"FAA CWO",,,,,,,,,,,,,,,,,,,,,,,,,,,,"30.24","-9","13","0.00",,,,"36","30.24","FEW:02 45","30.22","10.00","9","310","34","26",,,,,,,,,,,,,,,,,,,,,,,,,,,,,,,,,,,,,"MET12101/06/18 14:51:02 METAR KJFK 061951Z 31023G30KT 10SM FEW045 M11/M23 A3024 RMK AO2 PK WND 31030/1905 SLP239 T11061228 (AW)","FM-15","7",,,,,,,,,,,,,,,,,,,,,,,,,,,"2009-05-01"
"74486094789","2018-01-06T15:51:00","FM-15","7",,"ESE","1.5","mi","TEMP, PRECIP, SNOW",,,"PSY, SRG, SNOWBOARD",,,"FAA CWO",,,,,,,,,,,,,,,,,,,,,,,,,,,,"30.26","-9","13","0.00",,"-0.05","3","36","30.26","FEW:02 45","30.24","10.00","9","290","36","23",,,,,,,,,,,,,,,,,,,,,,,,,,,,,,,,,,,,,"MET12701/06/18 15:51:02 METAR KJFK 062051Z 29020G31KT 10SM FEW045 M11/M23 A3026 RMK AO2 PK WND 32031/2046 SLP247 T11061228 53016 (AW)","FM-15","7",,,,,,,,,,,,,,,,,,,,,,,,,,,"2009-05-01"
"74486094789","2018-01-06T16:00:00","FM-12","4",,"ESE","1.5","mi","TEMP, PRECIP, SNOW",,,"PSY, SRG, SNOWBOARD",,,"FAA CWO",,,,,,,,,,,,,,,,,,,,,,,,,,,,,"-9","13",,,"-0.05","3","36","30.26","41","30.23","9.94","9","290",,"23",,,,,,,,,,,,,,,,,,,,,,,,,,,,,,,,,,,,,"SYN07474486 32666 22920 11106 21228 30236 40247 53016 92051 333 91031 555 90621=","FM-12","4",,,,,,,,,,,,,,,,,,,,,,,,,,,"2009-05-01"
"74486094789","2018-01-06T16:51:00","FM-15","7",,"ESE","1.5","mi","TEMP, PRECIP, SNOW",,,"PSY, SRG, SNOWBOARD",,,"FAA CWO",,,,,,,,,,,,,,,,,,,,,,,,,,,,"30.29","-10","12","0.00",,,,"36","30.29","FEW:02 45","30.27","10.00","8","300","28","23",,,,,,,,,,,,,,,,,,,,,,,,,,,,,,,,,,,,,"MET12101/06/18 16:51:02 METAR KJFK 062151Z 30020G24KT 10SM FEW045 M11/M23 A3029 RMK AO2 PK WND 32030/2127 SLP256 T11111233 (AW)","FM-15","7",,,,,,,,,,,,,,,,,,,,,,,,,,,"2009-05-01"
"74486094789","2018-01-06T17:51:00","FM-15","7",,"ESE","1.5","mi","TEMP, PRECIP, SNOW",,,"PSY, SRG, SNOWBOARD",,,"FAA CWO",,,,,,,,,,,,,,,,,,,,,,,,,,,,"30.32","-10","11","0.00",,,,"38","30.32","FEW:02 50","30.29","10.00","8","300","38","28",,,,,,,,,,,,,,,,,,,,,,,,,,,,,,,,,,,,,"MET12101/06/18 17:51:02 METAR KJFK 062251Z 30024G33KT 10SM FEW050 M12/M23 A3032 RMK AO2 PK WND 30033/2245 SLP267 T11171233 (AW)","FM-15","7",,,,,,,,,,,,,,,,,,,,,,,,,,,"2009-05-01"
"74486094789","2018-01-06T18:51:00","FM-15","7",,"ESE","1.5","mi","TEMP, PRECIP, SNOW",,,"PSY, SRG, SNOWBOARD",,,"FAA CWO",,,,,,,,,,,,,,,,,,,,,,,,,,,,"30.37","-10","10","0.00",,"-0.10","3","39","30.36","CLR:00","30.35","10.00","7","320","28","22",,,,,,,,,,,,,,,,,,,,,,,,,,,,,,,,,,,,,"MET14201/06/18 18:51:02 METAR KJFK 062351Z 32019G24KT 10SM CLR M12/M23 A3037 RMK AO2 PK WND 28027/2301 SLP282 4/008 T11221233 11100 21122 53035 (AW)","FM-15","7",,,,,,,,,,,,,,,,,,,,,,,,,,,"2009-05-01"
"74486094789","2018-01-06T19:00:00","FM-12","4",,"ESE","1.5","mi","TEMP, PRECIP, SNOW",,,"PSY, SRG, SNOWBOARD",,,"FAA CWO",,,,,,,,,,,,,,,,,,,,,,,,,,,,,"-10","10",,,"-0.10","3","39","30.36",,"30.34","9.94","7","320",,"22",,,,,,,,,,,,,,,,,,,,,,,,,,,,,,,,,,,,,"SYN09274486 32966 03219 11122 21233 30273 40282 53035 92351 333 11100 21133 4/020 91024 555 90700=","FM-12","4",,,,,,,,,,,,,,,,,,,,,,,,,,,"2009-05-01"
"74486094789","2018-01-06T19:51:00","FM-15","7",,"ESE","1.5","mi","TEMP, PRECIP, SNOW",,,"PSY, SRG, SNOWBOARD",,,"FAA CWO",,,,,,,,,,,,,,,,,,,,,,,,,,,,"30.38","-11","9","0.00",,,,"39","30.38","CLR:00","30.35","10.00","6","310","36","28",,,,,,,,,,,,,,,,,,,,,,,,,,,,,,,,,,,,,"MET11301/06/18 19:51:01 METAR KJFK 070051Z 31024G31KT 10SM CLR M13/M24 A3038 RMK AO2 PK WND 31031/0050 SLP288 T11281239","FM-15","7",,,,,,,,,,,,,,,,,,,,,,,,,,,"2009-05-01"
"74486094789","2018-01-06T20:51:00","FM-15","7",,"ESE","1.5","mi","TEMP, PRECIP, SNOW",,,"PSY, SRG, SNOWBOARD",,,"FAA CWO",,,,,,,,,,,,,,,,,,,,,,,,,,,,"30.41","-10","8","0.00",,,,"43","30.40","CLR:00","30.38","10.00","5","310","28","18",,,,,,,,,,,,,,,,,,,,,,,,,,,,,,,,,,,,,"MET11301/06/18 20:51:01 METAR KJFK 070151Z 31016G24KT 10SM CLR M13/M23 A3041 RMK AO2 PK WND 30031/0106 SLP296 T11331233","FM-15","7",,,,,,,,,,,,,,,,,,,,,,,,,,,"2009-05-01"
"74486094789","2018-01-06T21:51:00","FM-15","7",,"ESE","1.5","mi","TEMP, PRECIP, SNOW",,,"PSY, SRG, SNOWBOARD",,,"FAA CWO",,,,,,,,,,,,,,,,,,,,,,,,,,,,"30.43","-9","8","0.00",,"-0.07","3","45","30.43","FEW:02 45","30.40","10.00","5","310","29","22",,,,,,,,,,,,,,,,,,,,,,,,,,,,,,,,,,,,,"MET12201/06/18 21:51:02 METAR KJFK 070251Z 31019G25KT 10SM FEW045 M13/M23 A3043 RMK AO2 PK WND 30029/0203 SLP305 T11331228 53023","FM-15","7",,,,,,,,,,,,,,,,,,,,,,,,,,,"2009-05-01"
"74486094789","2018-01-06T22:00:00","FM-12","4",,"ESE","1.5","mi","TEMP, PRECIP, SNOW",,,"PSY, SRG, SNOWBOARD",,,"FAA CWO",,,,,,,,,,,,,,,,,,,,,,,,,,,,,"-9","8",,,"-0.07","3","45","30.43","41","30.40","9.94","5","310",,"22",,,,,,,,,,,,,,,,,,,,,,,,,,,,,,,,,,,,,"SYN07474486 32666 23119 11133 21228 30293 40305 53023 90251 333 91025 555 90703=","FM-12","4",,,,,,,,,,,,,,,,,,,,,,,,,,,"2009-05-01"
"74486094789","2018-01-06T22:51:00","FM-15","7",,"ESE","1.5","mi","TEMP, PRECIP, SNOW",,,"PSY, SRG, SNOWBOARD",,,"FAA CWO",,,,,,,,,,,,,,,,,,,,,,,,,,,,"30.44","-8","8","0.00",,,,"47","30.43","FEW:02 45","30.42","10.00","5","310","26","20",,,,,,,,,,,,,,,,,,,,,,,,,,,,,,,,,,,,,"MET11601/06/18 22:51:02 METAR KJFK 070351Z 31017G23KT 10SM FEW045 M13/M22 A3044 RMK AO2 PK WND 31026/0327 SLP306 T11331222","FM-15","7",,,,,,,,,,,,,,,,,,,,,,,,,,,"2009-05-01"
"74486094789","2018-01-06T23:51:00","FM-15","7",,"ESE","1.5","mi","TEMP, PRECIP, SNOW",,,"PSY, SRG, SNOWBOARD",,,"FAA CWO",,,,,,,,,,,,,,,,,,,,,,,,,,,,"30.45","-8","7","0.00",,,,"50","30.44","FEW:02 37","30.42","10.00","5","310","31","21",,,,,,,,,,,,,,,,,,,,,,,,,,,,,,,,,,,,,"MET12601/06/18 23:51:02 METAR KJFK 070451Z 31018G27KT 10SM FEW037 M14/M22 A3045 RMK AO2 PK WND 30027/0442 SLP309 T11391222 411001139","FM-15","7",,,,,,,,,,,,,,,,,,,,,,,,,,,"2009-05-01"
"74486094789","2018-01-06T23:59:00","SOD  ","6",,"ESE","1.5","mi","TEMP, PRECIP, SNOW",,,"PSY, SRG, SNOWBOARD",,,"FAA CWO",,,,,,"-7","11","44","30.25","30.19","7","22.2","0","-22.0","54","14","7","270","39","0.00","8","0.0","300","31",,,,,,,,,,,,,,,,,,,,,,,,,,,,,,,,,,,,,,,,,,,,,,,,,,,,,,,,"SOD73924 HR PRECIPITATION (IN): 0.00 SNOW DEPTH (IN):8     24 HR SNOWFALL (IN):0.0  24 HR MAX TEMP (F): 1424 HR MIN TEMP (F):  7AVERAGE STATION PRESSURE:30.185 MINIMUM SEA LEVEL PRESSURE:30.08 TIME OF OCCURRENCE:0045 PEAK WIND SPEED (MPH): 39 PEAK WIND DIR (DEG):270 PEAK WIND TIME (LST):      FASTEST 2MIN SPEED (MPH): 31FASTEST 2MIN DIR (DEG):300 FASTEST 2MIN TIME (LST):     AVERAGE WIND SPEED (MPH):22.2 24 HR AVG TEMP (F): 11DEPART FROM NORMAL:-22  HEATING DEGREE DAYS: 54 COOLING DEGREE DAYS:  0 LATEST DAY MAX TEMP (0700-1900 LST):14  LATEST NIGHT MIN TEMP(1900-0800 LST):8  HOURLY INCREMENTAL PRECIPITATION VALUES (IN):.00 0.00 0.00 0.00 0.00 0.00 0.00 0.00 0.00 0.00 0.00 0.00 0.00 0.00 0.00 0.00 0.00 0.00 0.00 0.00 0.00 0.00 0.00 0.00","SOD  ","6",,,,,,,,,,,,,,,,,,,,,,,,,"0719","1643","2009-05-01"
"74486094789","2018-01-07T00:51:00","FM-15","7",,"ESE","1.5","mi","TEMP, PRECIP, SNOW",,,"PSY, SRG, SNOWBOARD",,,"FAA CWO",,,,,,,,,,,,,,,,,,,,,,,,,,,,"30.45","-8","6","0.00",,"-0.01","2","52","30.45","FEW:02 37","30.42","10.00","4","310","31","21",,,,,,,,,,,,,,,,,,,,,,,,,,,,,,,,,,,,,"MET14501/07/18 00:51:02 METAR KJFK 070551Z 31018G27KT 10SM FEW037 M14/M22 A3045 RMK AO2 PK WND 32027/0546 SLP310 4/008 T11441222 11122 21144 52005 (DM)","FM-15","7",,,,,,,,,,,,,,,,,,,,,,,,,,,"2009-05-01"
"74486094789","2018-01-07T01:00:00","FM-12","4",,"ESE","1.5","mi","TEMP, PRECIP, SNOW",,,"PSY, SRG, SNOWBOARD",,,"FAA CWO",,,,,,,,,,,,,,,,,,,,,,,,,,,,,"-8","6",,,"-0.01","2","52","30.45","41","30.42","9.94","4","310",,"21",,,,,,,,,,,,,,,,,,,,,,,,,,,,,,,,,,,,,"SYN09274486 32666 23118 11144 21222 30300 40310 52005 90551 333 11117 21144 4/020 91027 555 90706=","FM-12","4",,,,,,,,,,,,,,,,,,,,,,,,,,,"2009-05-01"
"74486094789","2018-01-07T01:51:00","FM-15","7",,"ESE","1.5","mi","TEMP, PRECIP, SNOW",,,"PSY, SRG, SNOWBOARD",,,"FAA CWO",,,,,,,,,,,,,,,,,,,,,,,,,,,,"30.48","-7","6","0.00",,,,"54","30.47","FEW:02 35","30.45","10.00","4","310",,"23",,,,,,,,,,,,,,,,,,,,,,,,,,,,,,,,,,,,,"MET10001/07/18 01:51:02 METAR KJFK 070651Z 31020KT 10SM FEW035 M14/M22 A3048 RMK AO2 SLP320 T11441217 (DM)","FM-15","7",,,,,,,,,,,,,,,,,,,,,,,,,,,"2009-05-01"
"74486094789","2018-01-07T02:51:00","FM-15","7",,"ESE","1.5","mi","TEMP, PRECIP, SNOW",,,"PSY, SRG, SNOWBOARD",,,"FAA CWO",,,,,,,,,,,,,,,,,,,,,,,,,,,,"30.51","-7","6","0.00",,,,"54","30.50","FEW:02 35","30.48","10.00","4","310","25","16",,,,,,,,,,,,,,,,,,,,,,,,,,,,,,,,,,,,,"MET10301/07/18 02:51:02 METAR KJFK 070751Z 31014G22KT 10SM FEW035 M14/M22 A3051 RMK AO2 SLP329 T11441217 (DM)","FM-15","7",,,,,,,,,,,,,,,,,,,,,,,,,,,"2009-05-01"
"74486094789","2018-01-07T03:51:00","FM-15","7",,"ESE","1.5","mi","TEMP, PRECIP, SNOW",,,"PSY, SRG, SNOWBOARD",,,"FAA CWO",,,,,,,,,,,,,,,,,,,,,,,,,,,,"30.53","-8","6","0.00",,"-0.07","1","52","30.52","FEW:02 35","30.50","10.00","4","320",,"18",,,,,,,,,,,,,,,,,,,,,,,,,,,,,,,,,,,,,"MET10601/07/18 03:51:02 METAR KJFK 070851Z 32016KT 10SM FEW035 M14/M22 A3053 RMK AO2 SLP336 T11441222 51025 (DM)","FM-15","7",,,,,,,,,,,,,,,,,,,,,,,,,,,"2009-05-01"
"74486094789","2018-01-07T04:00:00","FM-12","4",,"ESE","1.5","mi","TEMP, PRECIP, SNOW",,,"PSY, SRG, SNOWBOARD",,,"FAA CWO",,,,,,,,,,,,,,,,,,,,,,,,,,,,,"-8","6",,,"-0.07","1","52","30.52","41","30.50","9.94","4","320",,"18",,,,,,,,,,,,,,,,,,,,,,,,,,,,,,,,,,,,,"SYN06474486 32666 23216 11144 21222 30327 40336 51025 90851 555 90709=","FM-12","4",,,,,,,,,,,,,,,,,,,,,,,,,,,"2009-05-01"
"74486094789","2018-01-07T04:51:00","FM-15","7",,"ESE","1.5","mi","TEMP, PRECIP, SNOW",,,"PSY, SRG, SNOWBOARD",,,"FAA CWO",,,,,,,,,,,,,,,,,,,,,,,,,,,,"30.54","-8","6","0.00",,,,"52","30.54","FEW:02 35","30.51","10.00","4","310",,"17",,,,,,,,,,,,,,,,,,,,,,,,,,,,,,,,,,,,,"MET10001/07/18 04:51:02 METAR KJFK 070951Z 31015KT 10SM FEW035 M14/M22 A3054 RMK AO2 SLP342 T11441222 (DM)","FM-15","7",,,,,,,,,,,,,,,,,,,,,,,,,,,"2009-05-01"
"74486094789","2018-01-07T05:51:00","FM-15","7",,"ESE","1.5","mi","TEMP, PRECIP, SNOW",,,"PSY, SRG, SNOWBOARD",,,"FAA CWO",,,,,,,,,,,,,,,,,,,,,,,,,,,,"30.56","-7","5","0.00",,,,"57","30.55","FEW:02 35","30.53","10.00","3","320",,"14",,,,,,,,,,,,,,,,,,,,,,,,,,,,,,,,,,,,,"MET10001/07/18 05:51:02 METAR KJFK 071051Z 32012KT 10SM FEW035 M15/M22 A3056 RMK AO2 SLP346 T11501217 (DM)","FM-15","7",,,,,,,,,,,,,,,,,,,,,,,,,,,"2009-05-01"
"74486094789","2018-01-07T06:51:00","FM-15","7",,"ESE","1.5","mi","TEMP, PRECIP, SNOW",,,"PSY, SRG, SNOWBOARD",,,"FAA CWO",,,,,,,,,,,,,,,,,,,,,,,,,,,,"30.59","-7","5","0.00",,"-0.06","3","57","30.58","FEW:02 35","30.56","10.00","3","310",,"11",,,,,,,,,,,,,,,,,,,,,,,,,,,,,,,,,,,,,"MET12401/07/18 06:51:02 METAR KJFK 071151Z 31010KT 10SM FEW035 M15/M22 A3059 RMK AO2 SLP357 4/008 T11501217 11139 21150 53021 (ML)","FM-15","7",,,,,,,,,,,,,,,,,,,,,,,,,,,"2009-05-01"
"74486094789","2018-01-07T07:00:00","FM-12","4",,"ESE","1.5","mi","TEMP, PRECIP, SNOW",,,"PSY, SRG, SNOWBOARD",,,"FAA CWO",,,,,,,,,,,,,,,,,,,,,,,,,,,,,"-7","5",,,"-0.06","3","57","30.58","41","30.55","9.94","3","310",,"11",,,,,,,,,,,,,,,,,,,,,,,,,,,,,,,,,,,,,"SYN08674486 32666 23110 11150 21217 30347 40357 53021 91151 333 11100 21150 4/020 555 90712=","FM-12","4",,,,,,,,,,,,,,,,,,,,,,,,,,,"2009-05-01"
"74486094789","2018-01-07T07:51:00","FM-15","7",,"ESE","1.5","mi","TEMP, PRECIP, SNOW",,,"PSY, SRG, SNOWBOARD",,,"FAA CWO",,,,,,,,,,,,,,,,,,,,,,,,,,,,"30.59","-6","4","0.00",,,,"63","30.59","FEW:02 35","30.56","10.00","2","330",,"9",,,,,,,,,,,,,,,,,,,,,,,,,,,,,,,,,,,,,"MET10001/07/18 07:51:02 METAR KJFK 071251Z 33008KT 10SM FEW035 M16/M21 A3059 RMK AO2 SLP359 T11561211 (ML)","FM-15","7",,,,,,,,,,,,,,,,,,,,,,,,,,,"2009-05-01"
"74486094789","2018-01-07T08:51:00","FM-15","7",,"ESE","1.5","mi","TEMP, PRECIP, SNOW",,,"PSY, SRG, SNOWBOARD",,,"FAA CWO",,,,,,,,,,,,,,,,,,,,,,,,,,,,"30.62","-6","7","0.00",,,,"55","30.62","FEW:02 35","30.60","10.00","5","320",,"11",,,,,,,,,,,,,,,,,,,,,,,,,,,,,,,,,,,,,"MET10001/07/18 08:51:02 METAR KJFK 071351Z 32010KT 10SM FEW035 M14/M21 A3062 RMK AO2 SLP369 T11391211 (ML)","FM-15","7",,,,,,,,,,,,,,,,,,,,,,,,,,,"2009-05-01"
"74486094789","2018-01-07T09:51:00","FM-15","7",,"ESE","1.5","mi","TEMP, PRECIP, SNOW",,,"PSY, SRG, SNOWBOARD",,,"FAA CWO",,,,,,,,,,,,,,,,,,,,,,,,,,,,"30.64","-6","9","0.00",,"-0.05","3","50","30.63","FEW:02 35","30.61","10.00","6","320",,"6",,,,,,,,,,,,,,,,,,,,,,,,,,,,,,,,,,,,,"MET10601/07/18 09:51:02 METAR KJFK 071451Z 32005KT 10SM FEW035 M13/M21 A3064 RMK AO2 SLP374 T11281211 53017 (ML)","FM-15","7",,,,,,,,,,,,,,,,,,,,,,,,,,,"2009-05-01"
"74486094789","2018-01-07T10:00:00","FM-12","4",,"ESE","1.5","mi","TEMP, PRECIP, SNOW",,,"PSY, SRG, SNOWBOARD",,,"FAA CWO",,,,,,,,,,,,,,,,,,,,,,,,,,,,,"-6","9",,,"-0.05","3","50","30.63","41","30.60","9.94","6","320",,"6",,,,,,,,,,,,,,,,,,,,,,,,,,,,,,,,,,,,,"SYN06474486 32666 23205 11128 21211 30364 40374 53017 91451 555 90715=","FM-12","4",,,,,,,,,,,,,,,,,,,,,,,,,,,"2009-05-01"
"74486094789","2018-01-07T10:51:00","FM-15","7",,"ESE","1.5","mi","TEMP, PRECIP, SNOW",,,"PSY, SRG, SNOWBOARD",,,"FAA CWO",,,,,,,,,,,,,,,,,,,,,,,,,,,,"30.61","-3","11","0.00",,,,"53","30.60","FEW:02 35","30.58","10.00","8","VRB",,"7",,,,,,,,,,,,,,,,,,,,,,,,,,,,,,,,,,,,,"MET10701/07/18 10:51:02 METAR KJFK 071551Z VRB06KT 10SM FEW035 M12/M19 A3061 RMK AO2 PRESFR SLP363 T11171194 (ML)","FM-15","7",,,,,,,,,,,,,,,,,,,,,,,,,,,"2009-05-01"
"74486094789","2018-01-07T11:51:00","FM-15","7",,"ESE","1.5","mi","TEMP, PRECIP, SNOW",,,"PSY, SRG, SNOWBOARD",,,"FAA CWO",,,,,,,,,,,,,,,,,,,,,,,,,,,,"30.58","-3","13","0.00",,,,"49","30.58","FEW:02 40","30.55","10.00","10","260",,"8",,,,,,,,,,,,,,,,,,,,,,,,,,,,,,,,,,,,,"MET10001/07/18 11:51:02 METAR KJFK 071651Z 26007KT 10SM FEW040 M11/M19 A3058 RMK AO2 SLP354 T11061194 (ML)","FM-15","7",,,,,,,,,,,,,,,,,,,,,,,,,,,"2009-05-01"
"74486094789","2018-01-07T12:51:00","FM-15","7",,"ESE","1.5","mi","TEMP, PRECIP, SNOW",,,"PSY, SRG, SNOWBOARD",,,"FAA CWO",,,,,,,,,,,,,,,,,,,,,,,,,,,,"30.57","-1","14","0.00",,"+0.07","6","51","30.56","FEW:02 40 FEW:02 250","30.55","10.00","11","240",,"10",,,,,,,,,,,,,,,,,,,,,,,,,,,,,,,,,,,,,"MET13801/07/18 12:51:02 METAR KJFK 071751Z 24009KT 10SM FEW040 FEW250 M10/M18 A3057 RMK AO2 SLP350 4/008 933015 T11001183 11100 21156 56025 (ML)","FM-15","7",,,,,,,,,,,,,,,,,,,,,,,,,,,"2009-05-01"
"74486094789","2018-01-07T13:00:00","FM-12","4",,"ESE","1.5","mi","TEMP, PRECIP, SNOW",,,"PSY, SRG, SNOWBOARD",,,"FAA CWO",,,,,,,,,,,,,,,,,,,,,,,,,,,,,"-1","14",,,"+0.07","6","51","30.56","41","30.54","9.94","11","240",,"10",,,,,,,,,,,,,,,,,,,,,,,,,,,,,,,,,,,,,"SYN08674486 32666 22409 11100 21183 30341 40350 56025 91751 333 11100 21156 4/020 555 90718=","FM-12","4",,,,,,,,,,,,,,,,,,,,,,,,,,,"2009-05-01"
"74486094789","2018-01-07T13:51:00","FM-15","7",,"ESE","1.5","mi","TEMP, PRECIP, SNOW",,,"PSY, SRG, SNOWBOARD",,,"FAA CWO",,,,,,,,,,,,,,,,,,,,,,,,,,,,"30.54","1","15","0.00",,,,"53","30.54","FEW:02 40 SCT:04 250","30.51","10.00","12","230",,"8",,,,,,,,,,,,,,,,,,,,,,,,,,,,,,,,,,,,,"MET10701/07/18 13:51:02 METAR KJFK 071851Z 23007KT 10SM FEW040 SCT250 M09/M17 A3054 RMK AO2 SLP341 T10941172 (ML)","FM-15","7",,,,,,,,,,,,,,,,,,,,,,,,,,,"2009-05-01"
"74486094789","2018-01-07T14:51:00","FM-15","7",,"ESE","1.5","mi","TEMP, PRECIP, SNOW",,,"PSY, SRG, SNOWBOARD",,,"FAA CWO",,,,,,,,,,,,,,,,,,,,,,,,,,,,"30.52","2","15","0.00",,,,"56","30.52","FEW:02 40 BKN:07 250","30.50","10.00","12","230",,"8",,,,,,,,,,,,,,,,,,,,,,,,,,,,,,,,,,,,,"MET10701/07/18 14:51:02 METAR KJFK 071951Z 23007KT 10SM FEW040 BKN250 M09/M17 A3052 RMK AO2 SLP335 T10941167 (RG)","FM-15","7",,,,,,,,,,,,,,,,,,,,,,,,,,,"2009-05-01"
"74486094789","2018-01-07T15:51:00","FM-15","7",,"ESE","1.5","mi","TEMP, PRECIP, SNOW",,,"PSY, SRG, SNOWBOARD",,,"FAA CWO",,,,,,,,,,,,,,,,,,,,,,,,,,,,"30.52","1","15","0.00",,"+0.05","6","53","30.52","FEW:02 40 BKN:07 200 BKN:07 250","30.50","10.00","12","240",,"13",,,,,,,,,,,,,,,,,,,,,,,,,,,,,,,,,,,,,"MET12001/07/18 15:51:02 METAR KJFK 072051Z 24011KT 10SM FEW040 BKN200 BKN250 M09/M17 A3052 RMK AO2 SLP334 T10941172 56016 (RG)","FM-15","7",,,,,,,,,,,,,,,,,,,,,,,,,,,"2009-05-01"
"74486094789","2018-01-07T16:00:00","FM-12","4",,"ESE","1.5","mi","TEMP, PRECIP, SNOW",,,"PSY, SRG, SNOWBOARD",,,"FAA CWO",,,,,,,,,,,,,,,,,,,,,,,,,,,,,"1","15",,,"+0.05","6","53","30.52","41","30.49","9.94","12","240",,"13",,,,,,,,,,,,,,,,,,,,,,,,,,,,,,,,,,,,,"SYN06474486 32666 62411 11094 21172 30324 40334 56016 92051 555 90721=","FM-12","4",,,,,,,,,,,,,,,,,,,,,,,,,,,"2009-05-01"
"74486094789","2018-01-07T16:51:00","FM-15","7",,"ESE","1.5","mi","TEMP, PRECIP, SNOW",,,"PSY, SRG, SNOWBOARD",,,"FAA CWO",,,,,,,,,,,,,,,,,,,,,,,,,,,,"30.51","3","16","0.00",,,,"56","30.50","FEW:02 40 BKN:07 200 BKN:07 250","30.48","10.00","13","240",,"10",,,,,,,,,,,,,,,,,,,,,,,,,,,,,,,,,,,,,"MET12201/07/18 16:51:02 METAR KJFK 072151Z 24009KT 10SM FEW040 BKN200 BKN250 M09/M16 A3051 RMK AO2 SLP330 VIRGA W T10891161 (RG)","FM-15","7",,,,,,,,,,,,,,,,,,,,,,,,,,,"2009-05-01"
"74486094789","2018-01-07T17:51:00","FM-15","7",,"ESE","1.5","mi","TEMP, PRECIP, SNOW",,,"PSY, SRG, SNOWBOARD",,,"FAA CWO",,,,,,,,,,,,,,,,,,,,,,,,,,,,"30.50","2","16","0.00",,,,"54","30.49","BKN:07 200 BKN:07 250","30.47","10.00","13","230",,"14",,,,,,,,,,,,,,,,,,,,,,,,,,,,,,,,,,,,,"MET10701/07/18 17:51:02 METAR KJFK 072251Z 23012KT 10SM BKN200 BKN250 M09/M17 A3050 RMK AO2 SLP326 T10891167 (RG)","FM-15","7",,,,,,,,,,,,,,,,,,,,,,,,,,,"2009-05-01"
"74486094789","2018-01-07T18:51:00","FM-15","7",,"ESE","1.5","mi","TEMP, PRECIP, SNOW",,,"PSY, SRG, SNOWBOARD",,,"FAA CWO",,,,,,,,,,,,,,,,,,,,,,,,,,,,"30.49","3","16","0.00",,"+0.03","6","56","30.48","BKN:07 150 BKN:07 250","30.47","10.00","13","230",,"15",,,,,,,,,,,,,,,,,,,,,,,,,,,,,,,,,,,,,"MET13101/07/18 18:51:02 METAR KJFK 072351Z 23013KT 10SM BKN150 BKN250 M09/M16 A3049 RMK AO2 SLP323 4/008 T10891161 11083 21100 56010 (RG)","FM-15","7",,,,,,,,,,,,,,,,,,,,,,,,,,,"2009-05-01"
"74486094789","2018-01-07T19:00:00","FM-12","4",,"ESE","1.5","mi","TEMP, PRECIP, SNOW",,,"PSY, SRG, SNOWBOARD",,,"FAA CWO",,,,,,,,,,,,,,,,,,,,,,,,,,,,,"3","16",,,"+0.03","6","56","30.48",,"30.46","9.94","13","230",,"15",,,,,,,,,,,,,,,,,,,,,,,,,,,,,,,,,,,,,"SYN08674486 32966 62313 11089 21161 30314 40323 56010 92351 333 11083 21150 4/020 555 90800=","FM-12","4",,,,,,,,,,,,,,,,,,,,,,,,,,,"2009-05-01"
"74486094789","2018-01-07T19:51:00","FM-15","7",,"ESE","1.5","mi","TEMP, PRECIP, SNOW",,,"PSY, SRG, SNOWBOARD",,,"FAA CWO",,,,,,,,,,,,,,,,,,,,,,,,,,,,"30.47","2","17","0.00",,,,"51","30.47","BKN:07 120 BKN:07 250","30.45","10.00","14","230",,"18",,,,,,,,,,,,,,,,,,,,,,,,,,,,,,,,,,,,,"MET10201/07/18 19:51:01 METAR KJFK 080051Z 23016KT 10SM BKN120 BKN250 M08/M17 A3047 RMK AO2 SLP317 T10831167","FM-15","7",,,,,,,,,,,,,,,,,,,,,,,,,,,"2009-05-01"
"74486094789","2018-01-07T20:51:00","FM-15","7",,"ESE","1.5","mi","TEMP, PRECIP, SNOW",,,"PSY, SRG, SNOWBOARD",,,"FAA CWO",,,,,,,,,,,,,,,,,,,,,,,,,,,,"30.45","4","17","0.00",,,,"56","30.44","OVC:08 100","30.42","10.00","14","230",,"15",,,,,,,,,,,,,,,,,,,,,,,,,,,,,,,,,,,,,"MET09501/07/18 20:51:01 METAR KJFK 080151Z 23013KT 10SM OVC100 M08/M16 A3045 RMK AO2 SLP309 T10831156","FM-15","7",,,,,,,,,,,,,,,,,,,,,,,,,,,"2009-05-01"
"74486094789","2018-01-07T21:51:00","FM-15","7",,"ESE","1.5","mi","TEMP, PRECIP, SNOW",,,"PSY, SRG, SNOWBOARD",,,"FAA CWO",,,,,,,,,,,,,,,,,,,,,,,,,,,,"30.44","4","17","0.00",,"+0.05","6","56","30.44","OVC:08 90","30.42","10.00","14","230",,"17",,,,,,,,,,,,,,,,,,,,,,,,,,,,,,,,,,,,,"MET10101/07/18 21:51:02 METAR KJFK 080251Z 23015KT 10SM OVC090 M08/M16 A3044 RMK AO2 SLP308 T10831156 56016","FM-15","7",,,,,,,,,,,,,,,,,,,,,,,,,,,"2009-05-01"
"74486094789","2018-01-07T22:00:00","FM-12","4",,"ESE","1.5","mi","TEMP, PRECIP, SNOW",,,"PSY, SRG, SNOWBOARD",,,"FAA CWO",,,,,,,,,,,,,,,,,,,,,,,,,,,,,"4","17",,,"+0.05","6","56","30.44",,"30.41","9.94","14","230",,"17",,,,,,,,,,,,,,,,,,,,,,,,,,,,,,,,,,,,,"SYN06474486 32966 82315 11083 21156 30297 40308 56016 90251 555 90803=","FM-12","4",,,,,,,,,,,,,,,,,,,,,,,,,,,"2009-05-01"
"74486094789","2018-01-07T22:51:00","FM-15","7",,"ESE","1.5","mi","TEMP, PRECIP, SNOW",,,"PSY, SRG, SNOWBOARD",,,"FAA CWO",,,,,,,,,,,,,,,,,,,,,,,,,,,,"30.43","5","16","0.00",,,,"62","30.43","SCT:04 95 BKN:07 130","30.40","10.00","13","230",,"20",,,,,,,,,,,,,,,,,,,,,,,,,,,,,,,,,,,,,"MET10201/07/18 22:51:02 METAR KJFK 080351Z 23017KT 10SM SCT095 BKN130 M09/M15 A3043 RMK AO2 SLP304 T10891150","FM-15","7",,,,,,,,,,,,,,,,,,,,,,,,,,,"2009-05-01"
"74486094789","2018-01-07T23:51:00","FM-15","7",,"ESE","1.5","mi","TEMP, PRECIP, SNOW",,,"PSY, SRG, SNOWBOARD",,,"FAA CWO",,,,,,,,,,,,,,,,,,,,,,,,,,,,"30.40","6","18","0.00",,,,"59","30.40","BKN:07 120","30.37","10.00","15","230",,"20",,,,,,,,,,,,,,,,,,,,,,,,,,,,,,,,,,,,,"MET10501/07/18 23:51:02 METAR KJFK 080451Z 23017KT 10SM BKN120 M08/M14 A3040 RMK AO2 SLP294 T10781144 410781156","FM-15","7",,,,,,,,,,,,,,,,,,,,,,,,,,,"2009-05-01"
"74486094789","2018-01-07T23:59:00","SOD  ","6",,"ESE","1.5","mi","TEMP, PRECIP, SNOW",,,"PSY, SRG, SNOWBOARD",,,"FAA CWO",,,,,,"-1","11","55","30.52","30.50","9","13.8","0","-21.9","54","18","4","320","31","0.00","8","0.0","320","24",,,,,,,,,,,,,,,,,,,,,,,,,,,,,,,,,,,,,,,,,,,,,,,,,,,,,,,,"SOD73924 HR PRECIPITATION (IN): 0.00 SNOW DEPTH (IN):8     24 HR SNOWFALL (IN):0.0  24 HR MAX TEMP (F): 1824 HR MIN TEMP (F):  4AVERAGE STATION PRESSURE:30.495 MINIMUM SEA LEVEL PRESSURE:30.40 TIME OF OCCURRENCE:2359 PEAK WIND SPEED (MPH): 30 PEAK WIND DIR (DEG):320 PEAK WIND TIME (LST):      FASTEST 2MIN SPEED (MPH): 24FASTEST 2MIN DIR (DEG):320 FASTEST 2MIN TIME (LST):     AVERAGE WIND SPEED (MPH):13.8 24 HR AVG TEMP (F): 11DEPART FROM NORMAL:-22  HEATING DEGREE DAYS: 54 COOLING DEGREE DAYS:  0 LATEST DAY MAX TEMP (0700-1900 LST):17  LATEST NIGHT MIN TEMP(1900-0800 LST):4  HOURLY INCREMENTAL PRECIPITATION VALUES (IN):.00 0.00 0.00 0.00 0.00 0.00 0.00 0.00 0.00 0.00 0.00 0.00 0.00 0.00 0.00 0.00 0.00 0.00 0.00 0.00 0.00 0.00 0.00 0.00","SOD  ","6",,,,,,,,,,,,,,,,,,,,,,,,,"0719","1644","2009-05-01"
"74486094789","2018-01-08T00:51:00","FM-15","7",,"ESE","1.5","mi","TEMP, PRECIP, SNOW",,,"PSY, SRG, SNOWBOARD",,,"FAA CWO",,,,,,,,,,,,,,,,,,,,,,,,,,,,"30.39","6","17","0.00",,"+0.06","8","62","30.38","BKN:07 100","30.37","10.00","14","230",,"21",,,,,,,,,,,,,,,,,,,,,,,,,,,,,,,,,,,,,"MET12401/08/18 00:51:02 METAR KJFK 080551Z 23018KT 10SM BKN100 M08/M14 A3039 RMK AO2 SLP289 4/008 T10831144 11078 21089 58019 (JC)","FM-15","7",,,,,,,,,,,,,,,,,,,,,,,,,,,"2009-05-01"
"74486094789","2018-01-08T01:00:00","FM-12","4",,"ESE","1.5","mi","TEMP, PRECIP, SNOW",,,"PSY, SRG, SNOWBOARD",,,"FAA CWO",,,,,,,,,,,,,,,,,,,,,,,,,,,,,"6","17",,,"+0.06","8","62","30.38",,"30.36","9.94","14","230",,"21",,,,,,,,,,,,,,,,,,,,,,,,,,,,,,,,,,,,,"SYN08674486 32966 62318 11083 21144 30280 40289 58019 90551 333 11078 21150 4/020 555 90806=","FM-12","4",,,,,,,,,,,,,,,,,,,,,,,,,,,"2009-05-01"
"74486094789","2018-01-08T01:51:00","FM-15","7",,"ESE","1.5","mi","TEMP, PRECIP, SNOW",,,"PSY, SRG, SNOWBOARD",,,"FAA CWO",,,,,,,,,,,,,,,,,,,,,,,,,,,,"30.37","8","19","0.00",,,,"62","30.37","FEW:02 75 OVC:08 90","30.35","10.00","16","230",,"18",,,,,,,,,,,,,,,,,,,,,,,,,,,,,,,,,,,,,"MET10701/08/18 01:51:02 METAR KJFK 080651Z 23016KT 10SM FEW075 OVC090 M07/M13 A3037 RMK AO2 SLP285 T10721133 (JC)","FM-15","7",,,,,,,,,,,,,,,,,,,,,,,,,,,"2009-05-01"
"74486094789","2018-01-08T02:51:00","FM-15","7",,"ESE","1.5","mi","TEMP, PRECIP, SNOW",,,"PSY, SRG, SNOWBOARD",,,"FAA CWO",,,,,,,,,,,,,,,,,,,,,,,,,,,,"30.36","9","19","0.00",,,,"65","30.35","OVC:08 95","30.34","10.00","16","230",,"16",,,,,,,,,,,,,,,,,,,,,,,,,,,,,,,,,,,,,"MET10001/08/18 02:51:02 METAR KJFK 080751Z 23014KT 10SM OVC095 M07/M13 A3036 RMK AO2 SLP279 T10721128 (JC)","FM-15","7",,,,,,,,,,,,,,,,,,,,,,,,,,,"2009-05-01"
"74486094789","2018-01-08T03:51:00","FM-15","7",,"ESE","1.5","mi","TEMP, PRECIP, SNOW",,,"PSY, SRG, SNOWBOARD",,,"FAA CWO",,,,,,,,,,,,,,,,,,,,,,,,,,,,"30.34","9","19","0.00",,"+0.04","8","65","30.34","OVC:08 95","30.32","10.00","16","230",,"15",,,,,,,,,,,,,,,,,,,,,,,,,,,,,,,,,,,,,"MET10601/08/18 03:51:02 METAR KJFK 080851Z 23013KT 10SM OVC095 M07/M13 A3034 RMK AO2 SLP274 T10721128 58015 (JC)","FM-15","7",,,,,,,,,,,,,,,,,,,,,,,,,,,"2009-05-01"
"74486094789","2018-01-08T04:00:00","FM-12","4",,"ESE","1.5","mi","TEMP, PRECIP, SNOW",,,"PSY, SRG, SNOWBOARD",,,"FAA CWO",,,,,,,,,,,,,,,,,,,,,,,,,,,,,"9","19",,,"+0.04","8","65","30.34",,"30.31","9.94","16","230",,"15",,,,,,,,,,,,,,,,,,,,,,,,,,,,,,,,,,,,,"SYN06474486 32966 82313 11072 21128 30263 40274 58015 90851 555 90809=","FM-12","4",,,,,,,,,,,,,,,,,,,,,,,,,,,"2009-05-01"
"74486094789","2018-01-08T04:51:00","FM-15","7",,"ESE","1.5","mi","TEMP, PRECIP, SNOW",,,"PSY, SRG, SNOWBOARD",,,"FAA CWO",,,,,,,,,,,,,,,,,,,,,,,,,,,,"30.33","8","18","0.00",,,,"65","30.32","FEW:02 95 BKN:07 250","30.30","10.00","16","230",,"15",,,,,,,,,,,,,,,,,,,,,,,,,,,,,,,,,,,,,"MET10701/08/18 04:51:02 METAR KJFK 080951Z 23013KT 10SM FEW095 BKN250 M08/M13 A3033 RMK AO2 SLP269 T10781133 (JC)","FM-15","7",,,,,,,,,,,,,,,,,,,,,,,,,,,"2009-05-01"
"74486094789","2018-01-08T05:51:00","FM-15","7",,"ESE","1.5","mi","TEMP, PRECIP, SNOW",,,"PSY, SRG, SNOWBOARD",,,"FAA CWO",,,,,,,,,,,,,,,,,,,,,,,,,,,,"30.33","9","18","0.00",,,,"68","30.32","FEW:02 95 BKN:07 260","30.30","10.00","16","220",,"16",,,,,,,,,,,,,,,,,,,,,,,,,,,,,,,,,,,,,"MET10701/08/18 05:51:02 METAR KJFK 081051Z 22014KT 10SM FEW095 BKN260 M08/M13 A3033 RMK AO2 SLP269 T10781128 (JC)","FM-15","7",,,,,,,,,,,,,,,,,,,,,,,,,,,"2009-05-01"
"74486094789","2018-01-08T06:51:00","FM-15","7",,"ESE","1.5","mi","TEMP, PRECIP, SNOW",,,"PSY, SRG, SNOWBOARD",,,"FAA CWO",,,,,,,,,,,,,,,,,,,,,,,,,,,,"30.32","10","19","0.00",,"+0.02","6","68","30.32","FEW:02 120 BKN:07 260","30.29","10.00","17","230",,"16",,,,,,,,,,,,,,,,,,,,,,,,,,,,,,,,,,,,,"MET13101/08/18 06:51:02 METAR KJFK 081151Z 23014KT 10SM FEW120 BKN260 M07/M12 A3032 RMK AO2 SLP266 4/008 T10721122 11072 21083 56008 (JC)","FM-15","7",,,,,,,,,,,,,,,,,,,,,,,,,,,"2009-05-01"
"74486094789","2018-01-08T07:00:00","FM-12","4",,"ESE","1.5","mi","TEMP, PRECIP, SNOW",,,"PSY, SRG, SNOWBOARD",,,"FAA CWO",,,,,,,,,,,,,,,,,,,,,,,,,,,,,"10","19",,,"+0.02","6","68","30.32",,"30.29","9.94","17","230",,"16",,,,,,,,,,,,,,,,,,,,,,,,,,,,,,,,,,,,,"SYN08674486 32966 62314 11072 21122 30256 40266 56008 91151 333 11078 21089 4/020 555 90812=","FM-12","4",,,,,,,,,,,,,,,,,,,,,,,,,,,"2009-05-01"
"74486094789","2018-01-08T07:51:00","FM-15","7",,"ESE","1.5","mi","TEMP, PRECIP, SNOW",,,"PSY, SRG, SNOWBOARD",,,"FAA CWO",,,,,,,,,,,,,,,,,,,,,,,,,,,,"30.28","11","20","0.00",,,,"68","30.28","SCT:04 100 BKN:07 260","30.25","10.00","18","220",,"13",,,,,,,,,,,,,,,,,,,,,,,,,,,,,,,,,,,,,"MET10701/08/18 07:51:02 METAR KJFK 081251Z 22011KT 10SM SCT100 BKN260 M07/M12 A3028 RMK AO2 SLP254 T10671117 (BH)","FM-15","7",,,,,,,,,,,,,,,,,,,,,,,,,,,"2009-05-01"
"74486094789","2018-01-08T08:51:00","FM-15","7",,"ESE","1.5","mi","TEMP, PRECIP, SNOW",,,"PSY, SRG, SNOWBOARD",,,"FAA CWO",,,,,,,,,,,,,,,,,,,,,,,,,,,,"30.28","11","21","0.00",,,,"65","30.28","BKN:07 120 BKN:07 260","30.25","10.00","18","230",,"13",,,,,,,,,,,,,,,,,,,,,,,,,,,,,,,,,,,,,"MET10701/08/18 08:51:02 METAR KJFK 081351Z 23011KT 10SM BKN120 BKN260 M06/M12 A3028 RMK AO2 SLP253 T10611117 (BH)","FM-15","7",,,,,,,,,,,,,,,,,,,,,,,,,,,"2009-05-01"
"74486094789","2018-01-08T09:51:00","FM-15","7",,"ESE","1.5","mi","TEMP, PRECIP, SNOW",,,"PSY, SRG, SNOWBOARD",,,"FAA CWO",,,,,,,,,,,,,,,,,,,,,,,,,,,,"30.27","12","23","0.00",,"+0.05","6","63","30.27","FEW:02 90 SCT:04 130 OVC:08 260","30.24","10.00","20","220",,"11",,,,,,,,,,,,,,,,,,,,,,,,,,,,,,,,,,,,,"MET12001/08/18 09:51:02 METAR KJFK 081451Z 22010KT 10SM FEW090 SCT130 OVC260 M05/M11 A3027 RMK AO2 SLP249 T10501111 56018 (BH)","FM-15","7",,,,,,,,,,,,,,,,,,,,,,,,,,,"2009-05-01"
"74486094789","2018-01-08T10:00:00","FM-12","4",,"ESE","1.5","mi","TEMP, PRECIP, SNOW",,,"PSY, SRG, SNOWBOARD",,,"FAA CWO",,,,,,,,,,,,,,,,,,,,,,,,,,,,,"12","23",,,"+0.05","6","63","30.27",,"30.24","9.94","20","220",,"11",,,,,,,,,,,,,,,,,,,,,,,,,,,,,,,,,,,,,"SYN06474486 32966 82210 11050 21111 30239 40249 56018 91451 555 90815=","FM-12","4",,,,,,,,,,,,,,,,,,,,,,,,,,,"2009-05-01"
"74486094789","2018-01-08T10:51:00","FM-15","7",,"ESE","1.5","mi","TEMP, PRECIP, SNOW",,,"PSY, SRG, SNOWBOARD",,,"FAA CWO",,,,,,,,,,,,,,,,,,,,,,,,,,,,"30.25","13","25","0.00",,,,"60","30.25","SCT:04 130 BKN:07 190 OVC:08 260","30.22","10.00","22","230",,"11",,,,,,,,,,,,,,,,,,,,,,,,,,,,,,,,,,,,,"MET11401/08/18 10:51:02 METAR KJFK 081551Z 23010KT 10SM SCT130 BKN190 OVC260 M04/M11 A3025 RMK AO2 SLP243 T10391106 (BH)","FM-15","7",,,,,,,,,,,,,,,,,,,,,,,,,,,"2009-05-01"
"74486094789","2018-01-08T11:51:00","FM-15","7",,"ESE","1.5","mi","TEMP, PRECIP, SNOW",,,"PSY, SRG, SNOWBOARD",,,"FAA CWO",,,,,,,,,,,,,,,,,,,,,,,,,,,,"30.19","14","26","0.00",,,,"60","30.19","BKN:07 120 BKN:07 200 OVC:08 260","30.16","10.00","22","230",,"9",,,,,,,,,,,,,,,,,,,,,,,,,,,,,,,,,,,,,"MET11401/08/18 11:51:02 METAR KJFK 081651Z 23008KT 10SM BKN120 BKN200 OVC260 M03/M10 A3019 RMK AO2 SLP223 T10331100 (BH)","FM-15","7",,,,,,,,,,,,,,,,,,,,,,,,,,,"2009-05-01"
"74486094789","2018-01-08T12:51:00","FM-15","7",,"ESE","1.5","mi","TEMP, PRECIP, SNOW",,,"PSY, SRG, SNOWBOARD",,,"FAA CWO",,,,,,,,,,,,,,,,,,,,,,,,,,,,"30.15","15","27","0.00",,"+0.12","8","61","30.15","FEW:02 85 BKN:07 120 OVC:08 250","30.12","10.00","23","230",,"10",,,,,,,,,,,,,,,,,,,,,,,,,,,,,,,,,,,,,"MET14501/08/18 12:51:02 METAR KJFK 081751Z 23009KT 10SM FEW085 BKN120 OVC250 M03/M09 A3015 RMK AO2 SLP209 4/007 933014 T10281094 11028 21078 58040 (BH)","FM-15","7",,,,,,,,,,,,,,,,,,,,,,,,,,,"2009-05-01"
"74486094789","2018-01-08T13:00:00","FM-12","4",,"ESE","1.5","mi","TEMP, PRECIP, SNOW",,,"PSY, SRG, SNOWBOARD",,,"FAA CWO",,,,,,,,,,,,,,,,,,,,,,,,,,,,,"15","27",,,"+0.12","8","61","30.15",,"30.12","9.94","23","230",,"10",,,,,,,,,,,,,,,,,,,,,,,,,,,,,,,,,,,,,"SYN08674486 32966 82309 11028 21094 30199 40209 58040 91751 333 11028 21100 4/018 555 90818=","FM-12","4",,,,,,,,,,,,,,,,,,,,,,,,,,,"2009-05-01"
"74486094789","2018-01-08T13:51:00","FM-15","7",,"ESE","1.5","mi","TEMP, PRECIP, SNOW",,,"PSY, SRG, SNOWBOARD",,,"FAA CWO",,,,,,,,,,,,,,,,,,,,,,,,,,,,"30.12","17","29","0.00",,,,"61","30.12","BKN:07 100 BKN:07 130 OVC:08 250","30.09","10.00","25","230",,"13",,,,,,,,,,,,,,,,,,,,,,,,,,,,,,,,,,,,,"MET11401/08/18 13:51:02 METAR KJFK 081851Z 23011KT 10SM BKN100 BKN130 OVC250 M02/M08 A3012 RMK AO2 SLP199 T10171083 (BH)","FM-15","7",,,,,,,,,,,,,,,,,,,,,,,,,,,"2009-05-01"
"74486094789","2018-01-08T14:51:00","FM-15","7",,"ESE","1.5","mi","TEMP, PRECIP, SNOW",,,"PSY, SRG, SNOWBOARD",,,"FAA CWO",,,,,,,,,,,,,,,,,,,,,,,,,,,,"30.08","17","30","0.00",,,,"58","30.08","FEW:02 60 BKN:07 100 BKN:07 250","30.06","10.00","26","210",,"9",,,,,,,,,,,,,,,,,,,,,,,,,,,,,,,,,,,,,"MET11401/08/18 14:51:02 METAR KJFK 081951Z 21008KT 10SM FEW060 BKN100 BKN250 M01/M08 A3008 RMK AO2 SLP185 T10111083 (RR)","FM-15","7",,,,,,,,,,,,,,,,,,,,,,,,,,,"2009-05-01"
"74486094789","2018-01-08T15:49:00","FM-16","7",,"ESE","1.5","mi","TEMP, PRECIP, SNOW",,,"PSY, SRG, SNOWBOARD",,,"FAA CWO",,,,,,,,,,,,,,,,,,,,,,,,,,,,"30.09","19","30","T","-FZ:8 RA:02 |FZRA |",,,"64",,"BKN:07 55 BKN:07 80 OVC:08 100","30.06","10.00","26","250",,"9",,,,,,,,,,,,,,,,,,,,,,,,,,,,,,,,,,,,,"MET11701/08/18 15:49:02 SPECI KJFK 082049Z 25008KT 10SM -FZRA BKN055 BKN080 OVC100 M01/M07 A3009 RMK AO2 FZRAB47 P0000 (RR)","FM-16","7",,,,,,,,,,,,,,,,,,,,,,,,,,,"2009-05-01"
"74486094789","2018-01-08T15:51:00","FM-15","7",,"ESE","1.5","mi","TEMP, PRECIP, SNOW",,,"PSY, SRG, SNOWBOARD",,,"FAA CWO",,,,,,,,,,,,,,,,,,,,,,,,,,,,"30.09","19","31","T","-FZ:8 RA:02 |FZRA |","+0.06","5","61","30.09","BKN:07 55 BKN:07 80 OVC:08 100","30.06","10.00","27","260",,"9",,,,,,,,,,,,,,,,,,,,,,,,,,,,,,,,,,,,,"MET14601/08/18 15:51:02 METAR KJFK 082051Z 26008KT 10SM -FZRA BKN055 BKN080 OVC100 M01/M07 A3009 RMK AO2 SLP188 FZRAB47 P0000 60000 T10061072 55021 (RR)","FM-15","7",,,,,,,,,,,,,,,,,,,,,,,,,,,"2009-05-01"
"74486094789","2018-01-08T16:00:00","FM-12","4",,"ESE","1.5","mi","TEMP, PRECIP, SNOW",,,"PSY, SRG, SNOWBOARD",,,"FAA CWO",,,,,,,,,,,,,,,,,,,,,,,,,,,,,"19","31",,,"+0.06","5","61","30.09","57","30.06","9.94","27","260",,"9",,,,,,,,,,,,,,,,,,,,,,,,,,,,,,,,,,,,,"SYN07074486 11766 82608 11006 21072 30178 40188 55021 69907 92051 555 90821=","FM-12","4",,,,,,,,,,,,,,,,,,,,,,,,,,,"2009-05-01"
"74486094789","2018-01-08T16:25:00","FM-16","7",,"ESE","1.5","mi","TEMP, PRECIP, SNOW",,,"PSY, SRG, SNOWBOARD",,,"FAA CWO",,,,,,,,,,,,,,,,,,,,,,,,,,,,"30.10","20","31","T","-SN:03 PL:06 |SN PL |",,,"64",,"FEW:02 37 BKN:07 50 OVC:08 65","30.08","8.00","27","250",,"10",,,,,,,,,,,,,,,,,,,,,,,,,,,,,,,,,,,,,"MET13601/08/18 16:25:02 SPECI KJFK 082125Z 25009KT 8SM -SNPL FEW037 BKN050 OVC065 M01/M07 A3010 RMK AO2 FZRAE24SNB24PLB24 P0000 T10061067 (RR)","FM-16","7",,,,,,,,,,,,,,,,,,,,,,,,,,,"2009-05-01"
"74486094789","2018-01-08T16:47:00","FM-16","7",,"ESE","1.5","mi","TEMP, PRECIP, SNOW",,,"PSY, SRG, SNOWBOARD",,,"FAA CWO",,,,,,,,,,,,,,,,,,,,,,,,,,,,"30.10","21","30","0.01","-FZ:8 RA:02 |FZRA |",,,"69",,"BKN:07 49 BKN:07 60 OVC:08 75","30.08","9.00","27","260",,"13",,,,,,,,,,,,,,,,,,,,,,,,,,,,,,,,,,,,,"MET13501/08/18 16:47:02 SPECI KJFK 082147Z 26011KT 9SM -FZRA BKN049 BKN060 OVC075 M01/M06 A3010 RMK AO2 FZRAE24B46SNB24E46PLB24E46 P0001 (RR)","FM-16","7",,,,,,,,,,,,,,,,,,,,,,,,,,,"2009-05-01"
"74486094789","2018-01-08T16:51:00","FM-15","7",,"ESE","1.5","mi","TEMP, PRECIP, SNOW",,,"PSY, SRG, SNOWBOARD",,,"FAA CWO",,,,,,,,,,,,,,,,,,,,,,,,,,,,"30.10","21","30","0.01","-FZ:8 RA:02 |FZRA |",,,"69","30.10","BKN:07 49 BKN:07 60 OVC:08 75","30.08","9.00","27","260",,"15",,,,,,,,,,,,,,,,,,,,,,,,,,,,,,,,,,,,,"MET15201/08/18 16:51:02 METAR KJFK 082151Z 26013KT 9SM -FZRA BKN049 BKN060 OVC075 M01/M06 A3010 RMK AO2 FZRAE24B46SNB24E46PLB24E46 SLP192 P0001 T10111061 (RR)","FM-15","7",,,,,,,,,,,,,,,,,,,,,,,,,,,"2009-05-01"
"74486094789","2018-01-08T17:16:00","FM-16","7",,"ESE","1.5","mi","TEMP, PRECIP, SNOW",,,"PSY, SRG, SNOWBOARD",,,"FAA CWO",,,,,,,,,,,,,,,,,,,,,,,,,,,,"30.10","23","30","0.01","-FZ:8 RA:02 PL:06 |FZRA PL |",,,"75",,"BKN:07 46 OVC:08 65","30.08","10.00","28","260",,"11",,,,,,,,,,,,,,,,,,,,,,,,,,,,,,,,,,,,,"MET12001/08/18 17:16:02 SPECI KJFK 082216Z 26010KT 10SM -FZRAPL BKN046 OVC065 M01/M05 A3010 RMK AO2 PLB15 P0001 T10111050 (RR)","FM-16","7",,,,,,,,,,,,,,,,,,,,,,,,,,,"2009-05-01"
"74486094789","2018-01-08T17:48:00","FM-16","7",,"ESE","1.5","mi","TEMP, PRECIP, SNOW",,,"PSY, SRG, SNOWBOARD",,,"FAA CWO",,,,,,,,,,,,,,,,,,,,,,,,,,,,"30.10","21","30","0.01",,,,"69",,"BKN:07 43 OVC:08 60","30.08","10.00","27","250",,"17",,,,,,,,,,,,,,,,,,,,,,,,,,,,,,,,,,,,,"MET11201/08/18 17:48:02 SPECI KJFK 082248Z 25015KT 10SM BKN043 OVC060 M01/M06 A3010 RMK AO2 FZRAE48PLB15E48 P0001 (RR)","FM-16","7",,,,,,,,,,,,,,,,,,,,,,,,,,,"2009-05-01"
"74486094789","2018-01-08T17:51:00","FM-15","7",,"ESE","1.5","mi","TEMP, PRECIP, SNOW",,,"PSY, SRG, SNOWBOARD",,,"FAA CWO",,,,,,,,,,,,,,,,,,,,,,,,,,,,"30.10","22","30","0.01",,,,"72","30.10","BKN:07 43 OVC:08 60","30.08","10.00","27","260",,"16",,,,,,,,,,,,,,,,,,,,,,,,,,,,,,,,,,,,,"MET12901/08/18 17:51:02 METAR KJFK 082251Z 26014KT 10SM BKN043 OVC060 M01/M06 A3010 RMK AO2 FZRAE48PLB15E48 SLP192 P0001 T10111056 (RR)","FM-15","7",,,,,,,,,,,,,,,,,,,,,,,,,,,"2009-05-01"
"74486094789","2018-01-08T18:51:00","FM-15","7",,"ESE","1.5","mi","TEMP, PRECIP, SNOW",,,"PSY, SRG, SNOWBOARD",,,"FAA CWO",,,,,,,,,,,,,,,,,,,,,,,,,,,,"30.11","23","30","0.00",,"-0.01","3","75","30.11","OVC:08 41","30.09","10.00","28","260",,"11",,,,,,,,,,,,,,,,,,,,,,,,,,,,,,,,,,,,,"MET13701/08/18 18:51:02 METAR KJFK 082351Z 26010KT 10SM OVC041 M01/M05 A3011 RMK AO2 SLP196 931000 4/007 60002 T10111050 11006 21028 53005 (RR)","FM-15","7",,,,,,,,,,,,,,,,,,,,,,,,,,,"2009-05-01"
"74486094789","2018-01-08T19:00:00","FM-12","4",,"ESE","1.5","mi","TEMP, PRECIP, SNOW",,,"PSY, SRG, SNOWBOARD",,,"FAA CWO",,,,,,,,,,,,,,,,,,,,,,,,,,,,,"23","30",,,"-0.01","3","75","30.11","41","30.08","9.94","28","260",,"11",,,,,,,,,,,,,,,,,,,,,,,,,,,,,,,,,,,,,"SYN09274486 12666 82610 11011 21050 30185 40196 53005 69951 92351 333 11006 21083 4/018 555 90900=","FM-12","4",,,,,,,,,,,,,,,,,,,,,,,,,,,"2009-05-01"
"74486094789","2018-01-08T19:51:00","FM-15","7",,"ESE","1.5","mi","TEMP, PRECIP, SNOW",,,"PSY, SRG, SNOWBOARD",,,"FAA CWO",,,,,,,,,,,,,,,,,,,,,,,,,,,,"30.11","23","29","0.00",,,,"78","30.11","OVC:08 44","30.09","10.00","27","250",,"11",,,,,,,,,,,,,,,,,,,,,,,,,,,,,,,,,,,,,"MET09501/08/18 19:51:01 METAR KJFK 090051Z 25010KT 10SM OVC044 M02/M05 A3011 RMK AO2 SLP195 T10171050","FM-15","7",,,,,,,,,,,,,,,,,,,,,,,,,,,"2009-05-01"
"74486094789","2018-01-08T20:51:00","FM-15","7",,"ESE","1.5","mi","TEMP, PRECIP, SNOW",,,"PSY, SRG, SNOWBOARD",,,"FAA CWO",,,,,,,,,,,,,,,,,,,,,,,,,,,,"30.08","23","30","0.00",,,,"75","30.08","BKN:07 43 OVC:08 60","30.06","10.00","28","240",,"13",,,,,,,,,,,,,,,,,,,,,,,,,,,,,,,,,,,,,"MET10201/08/18 20:51:01 METAR KJFK 090151Z 24011KT 10SM BKN043 OVC060 M01/M05 A3008 RMK AO2 SLP185 T10111050","FM-15","7",,,,,,,,,,,,,,,,,,,,,,,,,,,"2009-05-01"
"74486094789","2018-01-08T21:51:00","FM-15","7",,"ESE","1.5","mi","TEMP, PRECIP, SNOW",,,"PSY, SRG, SNOWBOARD",,,"FAA CWO",,,,,,,,,,,,,,,,,,,,,,,,,,,,"30.08","24","31","0.00",,"+0.04","7","76","30.07","SCT:04 46 OVC:08 85","30.06","10.00","29","250",,"11",,,,,,,,,,,,,,,,,,,,,,,,,,,,,,,,,,,,,"MET11801/08/18 21:51:02 METAR KJFK 090251Z 25010KT 10SM SCT046 OVC085 M01/M04 A3008 RMK AO2 CIG 050 W SLP184 T10061044 57012","FM-15","7",,,,,,,,,,,,,,,,,,,,,,,,,,,"2009-05-01"
"74486094789","2018-01-08T22:00:00","FM-12","4",,"ESE","1.5","mi","TEMP, PRECIP, SNOW",,,"PSY, SRG, SNOWBOARD",,,"FAA CWO",,,,,,,,,,,,,,,,,,,,,,,,,,,,,"24","31",,,"+0.04","7","76","30.07","41","30.05","9.94","29","250",,"11",,,,,,,,,,,,,,,,,,,,,,,,,,,,,,,,,,,,,"SYN06474486 32666 82510 11006 21044 30175 40184 57012 90251 555 90903=","FM-12","4",,,,,,,,,,,,,,,,,,,,,,,,,,,"2009-05-01"
"74486094789","2018-01-08T22:51:00","FM-15","7",,"ESE","1.5","mi","TEMP, PRECIP, SNOW",,,"PSY, SRG, SNOWBOARD",,,"FAA CWO",,,,,,,,,,,,,,,,,,,,,,,,,,,,"30.07","24","31","0.00",,,,"76","30.07","OVC:08 44","30.04","10.00","29","260",,"13",,,,,,,,,,,,,,,,,,,,,,,,,,,,,,,,,,,,,"MET09501/08/18 22:51:02 METAR KJFK 090351Z 26011KT 10SM OVC044 M01/M04 A3007 RMK AO2 SLP182 T10061044","FM-15","7",,,,,,,,,,,,,,,,,,,,,,,,,,,"2009-05-01"
"74486094789","2018-01-08T23:51:00","FM-15","7",,"ESE","1.5","mi","TEMP, PRECIP, SNOW",,,"PSY, SRG, SNOWBOARD",,,"FAA CWO",,,,,,,,,,,,,,,,,,,,,,,,,,,,"30.05","24","32","0.00",,,,"73","30.04","OVC:08 40","30.03","10.00","29","250",,"11",,,,,,,,,,,,,,,,,,,,,,,,,,,,,,,,,,,,,"MET10401/08/18 23:51:02 METAR KJFK 090451Z 25010KT 10SM OVC040 00/M04 A3005 RMK AO2 SLP174 T00001044 400001083","FM-15","7",,,,,,,,,,,,,,,,,,,,,,,,,,,"2009-05-01"
"74486094789","2018-01-08T23:59:00","SOD  ","6",,"ESE","1.5","mi","TEMP, PRECIP, SNOW",,,"PSY, SRG, SNOWBOARD",,,"FAA CWO",,,,,,"16","25","67","30.20","30.21","22","13.3","0","-7.8","40","32","17","220","26","0.02","8","T","230","23","FZRA SN PL",,,,,,,,,,,,,,,,,,,,,,,,,,,,,,,,,,,,,,,,,,,,,,,,,,,,,,,"SOD75724 HR PRECIPITATION (IN): 0.02 SNOW DEPTH (IN):8     24 HR SNOWFALL (IN):T    WEATHER(CODE):46  24 HR MAX TEMP (F): 3224 HR MIN TEMP (F): 17AVERAGE STATION PRESSURE:30.210 MINIMUM SEA LEVEL PRESSURE:30.04 TIME OF OCCURRENCE:2359 PEAK WIND SPEED (MPH): 26 PEAK WIND DIR (DEG):220 PEAK WIND TIME (LST):      FASTEST 2MIN SPEED (MPH): 23FASTEST 2MIN DIR (DEG):230 FASTEST 2MIN TIME (LST):     AVERAGE WIND SPEED (MPH):13.3 24 HR AVG TEMP (F): 25DEPART FROM NORMAL: -8  HEATING DEGREE DAYS: 40 COOLING DEGREE DAYS:  0 LATEST DAY MAX TEMP (0700-1900 LST):31  LATEST NIGHT MIN TEMP(1900-0800 LST):16 HOURLY INCREMENTAL PRECIPITATION VALUES (IN):.00 0.00 0.00 0.00 0.00 0.00 0.00 0.00 0.00 0.00 0.00 0.00 0.00 0.00 0.00 T    0.01 0.01 0.00 0.00 0.00 0.00 0.00 0.00","SOD  ","6",,,,,,,,,,,,,,,,,,,,,,,,,"0719","1645","2009-05-01"
"74486094789","2018-01-09T00:51:00","FM-15","7",,"ESE","1.5","mi","TEMP, PRECIP, SNOW",,,"PSY, SRG, SNOWBOARD",,,"FAA CWO",,,,,,,,,,,,,,,,,,,,,,,,,,,,"30.04","24","31","0.00",,"+0.04","8","76","30.03","OVC:08 39","30.01","10.00","29","240",,"13",,,,,,,,,,,,,,,,,,,,,,,,,,,,,,,,,,,,,"MET12401/09/18 00:51:02 METAR KJFK 090551Z 24011KT 10SM OVC039 M01/M04 A3004 RMK AO2 SLP170 4/007 T10061044 10000 21017 58014 (JC)","FM-15","7",,,,,,,,,,,,,,,,,,,,,,,,,,,"2009-05-01"
"74486094789","2018-01-09T01:00:00","FM-12","4",,"ESE","1.5","mi","TEMP, PRECIP, SNOW",,,"PSY, SRG, SNOWBOARD",,,"FAA CWO",,,,,,,,,,,,,,,,,,,,,,,,,,,,,"24","31",,,"+0.04","8","76","30.03","41","30.01","9.94","29","240",,"13",,,,,,,,,,,,,,,,,,,,,,,,,,,,,,,,,,,,,"SYN08674486 32666 82411 11006 21044 30161 40170 58014 90551 333 10000 21083 4/018 555 90906=","FM-12","4",,,,,,,,,,,,,,,,,,,,,,,,,,,"2009-05-01"
"74486094789","2018-01-09T01:51:00","FM-15","7",,"ESE","1.5","mi","TEMP, PRECIP, SNOW",,,"PSY, SRG, SNOWBOARD",,,"FAA CWO",,,,,,,,,,,,,,,,,,,,,,,,,,,,"30.06","23","29","0.00",,,,"78","30.05","SCT:04 44 SCT:04 250","30.03","10.00","27","240",,"13",,,,,,,,,,,,,,,,,,,,,,,,,,,,,,,,,,,,,"MET10701/09/18 01:51:02 METAR KJFK 090651Z 24011KT 10SM SCT044 SCT250 M02/M05 A3006 RMK AO2 SLP177 T10171050 (JC)","FM-15","7",,,,,,,,,,,,,,,,,,,,,,,,,,,"2009-05-01"
"74486094789","2018-01-09T02:51:00","FM-15","7",,"ESE","1.5","mi","TEMP, PRECIP, SNOW",,,"PSY, SRG, SNOWBOARD",,,"FAA CWO",,,,,,,,,,,,,,,,,,,,,,,,,,,,"30.07","22","26","0.00",,,,"84","30.06","SCT:04 44","30.04","10.00","25","240",,"8",,,,,,,,,,,,,,,,,,,,,,,,,,,,,,,,,,,,,"MET10001/09/18 02:51:02 METAR KJFK 090751Z 24007KT 10SM SCT044 M03/M06 A3007 RMK AO2 SLP180 T10331056 (JC)","FM-15","7",,,,,,,,,,,,,,,,,,,,,,,,,,,"2009-05-01"
"74486094789","2018-01-09T03:51:00","FM-15","7",,"ESE","1.5","mi","TEMP, PRECIP, SNOW",,,"PSY, SRG, SNOWBOARD",,,"FAA CWO",,,,,,,,,,,,,,,,,,,,,,,,,,,,"30.06","23","27","0.00",,"-0.03","0","85","30.06","SCT:04 41","30.03","10.00","26","240",,"13",,,,,,,,,,,,,,,,,,,,,,,,,,,,,,,,,,,,,"MET10601/09/18 03:51:02 METAR KJFK 090851Z 24011KT 10SM SCT041 M03/M05 A3006 RMK AO2 SLP180 T10281050 50009 (JC)","FM-15","7",,,,,,,,,,,,,,,,,,,,,,,,,,,"2009-05-01"
"74486094789","2018-01-09T04:00:00","FM-12","4",,"ESE","1.5","mi","TEMP, PRECIP, SNOW",,,"PSY, SRG, SNOWBOARD",,,"FAA CWO",,,,,,,,,,,,,,,,,,,,,,,,,,,,,"23","27",,,"0.03","9","85","30.06","41","30.03","9.94","26","240",,"13",,,,,,,,,,,,,,,,,,,,,,,,,,,,,,,,,,,,,"SYN06474486 32666 42411 11028 21050 30168 40180 50009 90851 555 90909=","FM-12","4",,,,,,,,,,,,,,,,,,,,,,,,,,,"2009-05-01"
"74486094789","2018-01-09T04:51:00","FM-15","7",,"ESE","1.5","mi","TEMP, PRECIP, SNOW",,,"PSY, SRG, SNOWBOARD",,,"FAA CWO",,,,,,,,,,,,,,,,,,,,,,,,,,,,"30.08","24","28","0.00",,,,"85","30.08","SCT:04 41","30.06","10.00","27","250",,"14",,,,,,,,,,,,,,,,,,,,,,,,,,,,,,,,,,,,,"MET10001/09/18 04:51:02 METAR KJFK 090951Z 25012KT 10SM SCT041 M02/M04 A3008 RMK AO2 SLP185 T10221044 (JC)","FM-15","7",,,,,,,,,,,,,,,,,,,,,,,,,,,"2009-05-01"
"74486094789","2018-01-09T05:51:00","FM-15","7",,"ESE","1.5","mi","TEMP, PRECIP, SNOW",,,"PSY, SRG, SNOWBOARD",,,"FAA CWO",,,,,,,,,,,,,,,,,,,,,,,,,,,,"30.09","24","28","0.00",,,,"85","30.09","FEW:02 50","30.06","10.00","27","250",,"14",,,,,,,,,,,,,,,,,,,,,,,,,,,,,,,,,,,,,"MET10001/09/18 05:51:02 METAR KJFK 091051Z 25012KT 10SM FEW050 M02/M04 A3009 RMK AO2 SLP188 T10221044 (JC)","FM-15","7",,,,,,,,,,,,,,,,,,,,,,,,,,,"2009-05-01"
"74486094789","2018-01-09T06:51:00","FM-15","7",,"ESE","1.5","mi","TEMP, PRECIP, SNOW",,,"PSY, SRG, SNOWBOARD",,,"FAA CWO",,,,,,,,,,,,,,,,,,,,,,,,,,,,"30.12","25","30","0.00",,"-0.06","3","82","30.12","FEW:02 50","30.09","10.00","28","250",,"13",,,,,,,,,,,,,,,,,,,,,,,,,,,,,,,,,,,,,"MET13001/09/18 06:51:02 METAR KJFK 091151Z 25011KT 10SM FEW050 M01/M04 A3012 RMK AO2 SLP199 4/007 70002 T10111039 11006 21033 53020 (BH)","FM-15","7",,,,,,,,,,,,,,,,,,,,,,,,,,,"2009-05-01"
"74486094789","2018-01-09T07:00:00","FM-12","4",,"ESE","1.5","mi","TEMP, PRECIP, SNOW",,,"PSY, SRG, SNOWBOARD",,,"FAA CWO",,,,,,,,,,,,,,,,,,,,,,,,,,,,,"25","30",,,"-0.06","3","82","30.12","57","30.09","9.94","28","250",,"13",,,,,,,,,,,,,,,,,,,,,,,,,,,,,,,,,,,,,"SYN09274486 32766 22511 11011 21039 30188 40199 53020 91151 333 10000 21033 4/018 70005 555 90912=","FM-12","4",,,,,,,,,,,,,,,,,,,,,,,,,,,"2009-05-01"
"74486094789","2018-01-09T07:51:00","FM-15","7",,"ESE","1.5","mi","TEMP, PRECIP, SNOW",,,"PSY, SRG, SNOWBOARD",,,"FAA CWO",,,,,,,,,,,,,,,,,,,,,,,,,,,,"30.14","26","31","0.00",,,,"82","30.14","FEW:02 50","30.11","10.00","29","260",,"13",,,,,,,,,,,,,,,,,,,,,,,,,,,,,,,,,,,,,"MET10001/09/18 07:51:02 METAR KJFK 091251Z 26011KT 10SM FEW050 M01/M03 A3014 RMK AO2 SLP207 T10061033 (BH)","FM-15","7",,,,,,,,,,,,,,,,,,,,,,,,,,,"2009-05-01"
"74486094789","2018-01-09T08:51:00","FM-15","7",,"ESE","1.5","mi","TEMP, PRECIP, SNOW",,,"PSY, SRG, SNOWBOARD",,,"FAA CWO",,,,,,,,,,,,,,,,,,,,,,,,,,,,"30.17","27","34","0.00",,,,"75","30.16","FEW:02 45 FEW:02 250","30.14","10.00","31","260",,"16",,,,,,,,,,,,,,,,,,,,,,,,,,,,,,,,,,,,,"MET10601/09/18 08:51:02 METAR KJFK 091351Z 26014KT 10SM FEW045 FEW250 01/M03 A3017 RMK AO2 SLP215 T00111028 (BH)","FM-15","7",,,,,,,,,,,,,,,,,,,,,,,,,,,"2009-05-01"
"74486094789","2018-01-09T09:51:00","FM-15","7",,"ESE","1.5","mi","TEMP, PRECIP, SNOW",,,"PSY, SRG, SNOWBOARD",,,"FAA CWO",,,,,,,,,,,,,,,,,,,,,,,,,,,,"30.17","27","38","0.00",,"-0.05","1","65","30.17","CLR:00","30.14","10.00","34","280",,"15",,,,,,,,,,,,,,,,,,,,,,,,,,,,,,,,,,,,,"MET10201/09/18 09:51:02 METAR KJFK 091451Z 28013KT 10SM CLR 03/M03 A3017 RMK AO2 SLP216 T00331028 51017 (BH)","FM-15","7",,,,,,,,,,,,,,,,,,,,,,,,,,,"2009-05-01"
"74486094789","2018-01-09T10:00:00","FM-12","4",,"ESE","1.5","mi","TEMP, PRECIP, SNOW",,,"PSY, SRG, SNOWBOARD",,,"FAA CWO",,,,,,,,,,,,,,,,,,,,,,,,,,,,,"27","38",,,"-0.05","1","65","30.17",,"30.14","9.94","34","280",,"15",,,,,,,,,,,,,,,,,,,,,,,,,,,,,,,,,,,,,"SYN06474486 32966 02813 10033 21028 30205 40216 51017 91451 555 90915=","FM-12","4",,,,,,,,,,,,,,,,,,,,,,,,,,,"2009-05-01"
"74486094789","2018-01-09T10:51:00","FM-15","7",,"ESE","1.5","mi","TEMP, PRECIP, SNOW",,,"PSY, SRG, SNOWBOARD",,,"FAA CWO",,,,,,,,,,,,,,,,,,,,,,,,,,,,"30.17","28","39","0.00",,,,"65","30.17","CLR:00","30.14","10.00","35","240",,"13",,,,,,,,,,,,,,,,,,,,,,,,,,,,,,,,,,,,,"MET09601/09/18 10:51:02 METAR KJFK 091551Z 24011KT 10SM CLR 04/M02 A3017 RMK AO2 SLP217 T00391022 (BH)","FM-15","7",,,,,,,,,,,,,,,,,,,,,,,,,,,"2009-05-01"
"74486094789","2018-01-09T11:51:00","FM-15","7",,"ESE","1.5","mi","TEMP, PRECIP, SNOW",,,"PSY, SRG, SNOWBOARD",,,"FAA CWO",,,,,,,,,,,,,,,,,,,,,,,,,,,,"30.17","27","40","0.00",,,,"60","30.16","FEW:02 37","30.14","10.00","35","260",,"14",,,,,,,,,,,,,,,,,,,,,,,,,,,,,,,,,,,,,"MET09901/09/18 11:51:02 METAR KJFK 091651Z 26012KT 10SM FEW037 04/M03 A3017 RMK AO2 SLP214 T00441028 (BH)","FM-15","7",,,,,,,,,,,,,,,,,,,,,,,,,,,"2009-05-01"
"74486094789","2018-01-09T12:51:00","FM-15","7",,"ESE","1.5","mi","TEMP, PRECIP, SNOW",,,"PSY, SRG, SNOWBOARD",,,"FAA CWO",,,,,,,,,,,,,,,,,,,,,,,,,,,,"30.16","23","42","0.00",,"+0.01","8","47","30.15","SCT:04 50","30.14","10.00","35","320",,"20",,,,,,,,,,,,,,,,,,,,,,,,,,,,,,,,,,,,,"MET13001/09/18 12:51:02 METAR KJFK 091751Z 32017KT 10SM SCT050 06/M05 A3016 RMK AO2 SLP211 4/006 933012 T00561050 10056 21011 58005 (BH)","FM-15","7",,,,,,,,,,,,,,,,,,,,,,,,,,,"2009-05-01"
"74486094789","2018-01-09T13:00:00","FM-12","4",,"ESE","1.5","mi","TEMP, PRECIP, SNOW",,,"PSY, SRG, SNOWBOARD",,,"FAA CWO",,,,,,,,,,,,,,,,,,,,,,,,,,,,,"23","42",,,"+0.01","8","47","30.15","57","30.13","9.94","35","320",,"20",,,,,,,,,,,,,,,,,,,,,,,,,,,,,,,,,,,,,"SYN08674486 32766 43217 10056 21050 30202 40211 58005 91751 333 10056 21028 4/015 555 90918=","FM-12","4",,,,,,,,,,,,,,,,,,,,,,,,,,,"2009-05-01"
"74486094789","2018-01-09T13:51:00","FM-15","7",,"ESE","1.5","mi","TEMP, PRECIP, SNOW",,,"PSY, SRG, SNOWBOARD",,,"FAA CWO",,,,,,,,,,,,,,,,,,,,,,,,,,,,"30.15","23","43","0.00",,,,"45","30.15","FEW:02 55","30.12","10.00","35","320",,"18",,,,,,,,,,,,,,,,,,,,,,,,,,,,,,,,,,,,,"MET11701/09/18 13:51:02 METAR KJFK 091851Z 32016KT 10SM FEW055 06/M05 A3015 RMK AO2 PK WND 31026/1819 SLP210 T00611050 (BH)","FM-15","7",,,,,,,,,,,,,,,,,,,,,,,,,,,"2009-05-01"
"74486094789","2018-01-09T14:51:00","FM-15","7",,"ESE","1.5","mi","TEMP, PRECIP, SNOW",,,"PSY, SRG, SNOWBOARD",,,"FAA CWO",,,,,,,,,,,,,,,,,,,,,,,,,,,,"30.17","23","43","0.00",,,,"45","30.17","FEW:02 55","30.14","10.00","35","320",,"20",,,,,,,,,,,,,,,,,,,,,,,,,,,,,,,,,,,,,"MET09901/09/18 14:51:02 METAR KJFK 091951Z 32017KT 10SM FEW055 06/M05 A3017 RMK AO2 SLP217 T00611050 (RR)","FM-15","7",,,,,,,,,,,,,,,,,,,,,,,,,,,"2009-05-01"
"74486094789","2018-01-09T15:51:00","FM-15","7",,"ESE","1.5","mi","TEMP, PRECIP, SNOW",,,"PSY, SRG, SNOWBOARD",,,"FAA CWO",,,,,,,,,,,,,,,,,,,,,,,,,,,,"30.20","23","42","0.00",,"-0.05","3","47","30.20","FEW:02 55","30.17","10.00","35","310",,"22",,,,,,,,,,,,,,,,,,,,,,,,,,,,,,,,,,,,,"MET10501/09/18 15:51:02 METAR KJFK 092051Z 31019KT 10SM FEW055 06/M05 A3020 RMK AO2 SLP227 T00561050 53016 (RR)","FM-15","7",,,,,,,,,,,,,,,,,,,,,,,,,,,"2009-05-01"
"74486094789","2018-01-09T16:00:00","FM-12","4",,"ESE","1.5","mi","TEMP, PRECIP, SNOW",,,"PSY, SRG, SNOWBOARD",,,"FAA CWO",,,,,,,,,,,,,,,,,,,,,,,,,,,,,"23","42",,,"-0.05","3","47","30.20","57","30.16","9.94","35","310",,"22",,,,,,,,,,,,,,,,,,,,,,,,,,,,,,,,,,,,,"SYN06474486 32766 23119 10056 21050 30215 40227 53016 92051 555 90921=","FM-12","4",,,,,,,,,,,,,,,,,,,,,,,,,,,"2009-05-01"
"74486094789","2018-01-09T16:51:00","FM-15","7",,"ESE","1.5","mi","TEMP, PRECIP, SNOW",,,"PSY, SRG, SNOWBOARD",,,"FAA CWO",,,,,,,,,,,,,,,,,,,,,,,,,,,,"30.24","23","40","0.00",,,,"51","30.24","FEW:02 55 FEW:02 250","30.22","10.00","34","310",,"11",,,,,,,,,,,,,,,,,,,,,,,,,,,,,,,,,,,,,"MET10601/09/18 16:51:02 METAR KJFK 092151Z 31010KT 10SM FEW055 FEW250 04/M05 A3024 RMK AO2 SLP239 T00441050 (RR)","FM-15","7",,,,,,,,,,,,,,,,,,,,,,,,,,,"2009-05-01"
"74486094789","2018-01-09T17:51:00","FM-15","7",,"ESE","1.5","mi","TEMP, PRECIP, SNOW",,,"PSY, SRG, SNOWBOARD",,,"FAA CWO",,,,,,,,,,,,,,,,,,,,,,,,,,,,"30.26","22","39","0.00",,,,"50","30.26","BKN:07 250","30.24","10.00","33","310",,"14",,,,,,,,,,,,,,,,,,,,,,,,,,,,,,,,,,,,,"MET09901/09/18 17:51:02 METAR KJFK 092251Z 31012KT 10SM BKN250 04/M06 A3026 RMK AO2 SLP248 T00391056 (RR)","FM-15","7",,,,,,,,,,,,,,,,,,,,,,,,,,,"2009-05-01"
"74486094789","2018-01-09T18:51:00","FM-15","7",,"ESE","1.5","mi","TEMP, PRECIP, SNOW",,,"PSY, SRG, SNOWBOARD",,,"FAA CWO",,,,,,,,,,,,,,,,,,,,,,,,,,,,"30.29","22","37","0.00",,"-0.09","1","54","30.29","SCT:04 250","30.27","10.00","32","330",,"13",,,,,,,,,,,,,,,,,,,,,,,,,,,,,,,,,,,,,"MET12301/09/18 18:51:02 METAR KJFK 092351Z 33011KT 10SM SCT250 03/M06 A3029 RMK AO2 SLP257 4/005 T00281056 10061 20028 51030 (RR)","FM-15","7",,,,,,,,,,,,,,,,,,,,,,,,,,,"2009-05-01"
"74486094789","2018-01-09T19:00:00","FM-12","4",,"ESE","1.5","mi","TEMP, PRECIP, SNOW",,,"PSY, SRG, SNOWBOARD",,,"FAA CWO",,,,,,,,,,,,,,,,,,,,,,,,,,,,,"22","37",,,"-0.09","1","54","30.29",,"30.26","9.94","32","330",,"13",,,,,,,,,,,,,,,,,,,,,,,,,,,,,,,,,,,,,"SYN08674486 32966 43311 10028 21056 30246 40257 51030 92351 333 10061 21032 4/013 555 91000=","FM-12","4",,,,,,,,,,,,,,,,,,,,,,,,,,,"2009-05-01"
"74486094789","2018-01-09T19:51:00","FM-15","7",,"ESE","1.5","mi","TEMP, PRECIP, SNOW",,,"PSY, SRG, SNOWBOARD",,,"FAA CWO",,,,,,,,,,,,,,,,,,,,,,,,,,,,"30.33","23","36","0.00",,,,"59","30.33","SCT:04 250","30.30","10.00","31","340",,"14",,,,,,,,,,,,,,,,,,,,,,,,,,,,,,,,,,,,,"MET09401/09/18 19:51:01 METAR KJFK 100051Z 34012KT 10SM SCT250 02/M05 A3033 RMK AO2 SLP270 T00221050","FM-15","7",,,,,,,,,,,,,,,,,,,,,,,,,,,"2009-05-01"
"74486094789","2018-01-09T20:51:00","FM-15","7",,"ESE","1.5","mi","TEMP, PRECIP, SNOW",,,"PSY, SRG, SNOWBOARD",,,"FAA CWO",,,,,,,,,,,,,,,,,,,,,,,,,,,,"30.35","21","35","0.00",,,,"57","30.35","FEW:02 250","30.32","10.00","30","330",,"14",,,,,,,,,,,,,,,,,,,,,,,,,,,,,,,,,,,,,"MET09401/09/18 20:51:01 METAR KJFK 100151Z 33012KT 10SM FEW250 02/M06 A3035 RMK AO2 SLP277 T00171061","FM-15","7",,,,,,,,,,,,,,,,,,,,,,,,,,,"2009-05-01"
"74486094789","2018-01-09T21:51:00","FM-15","7",,"ESE","1.5","mi","TEMP, PRECIP, SNOW",,,"PSY, SRG, SNOWBOARD",,,"FAA CWO",,,,,,,,,,,,,,,,,,,,,,,,,,,,"30.36","21","35","0.00",,"-0.07","1","57","30.36","FEW:02 250","30.34","10.00","30","350",,"7",,,,,,,,,,,,,,,,,,,,,,,,,,,,,,,,,,,,,"MET10001/09/18 21:51:02 METAR KJFK 100251Z 35006KT 10SM FEW250 02/M06 A3036 RMK AO2 SLP281 T00171061 51023","FM-15","7",,,,,,,,,,,,,,,,,,,,,,,,,,,"2009-05-01"
"74486094789","2018-01-09T22:00:00","FM-12","4",,"ESE","1.5","mi","TEMP, PRECIP, SNOW",,,"PSY, SRG, SNOWBOARD",,,"FAA CWO",,,,,,,,,,,,,,,,,,,,,,,,,,,,,"21","35",,,"-0.07","1","57","30.36",,"30.33","9.94","30","350",,"7",,,,,,,,,,,,,,,,,,,,,,,,,,,,,,,,,,,,,"SYN06474486 32966 23506 10017 21061 30270 40281 51023 90251 555 91003=","FM-12","4",,,,,,,,,,,,,,,,,,,,,,,,,,,"2009-05-01"
"74486094789","2018-01-09T22:51:00","FM-15","7",,"ESE","1.5","mi","TEMP, PRECIP, SNOW",,,"PSY, SRG, SNOWBOARD",,,"FAA CWO",,,,,,,,,,,,,,,,,,,,,,,,,,,,"30.39","21","33","0.00",,,,"61","30.38","FEW:02 250","30.37","10.00","29","340",,"6",,,,,,,,,,,,,,,,,,,,,,,,,,,,,,,,,,,,,"MET09401/09/18 22:51:02 METAR KJFK 100351Z 34005KT 10SM FEW250 01/M06 A3039 RMK AO2 SLP289 T00061061","FM-15","7",,,,,,,,,,,,,,,,,,,,,,,,,,,"2009-05-01"
"74486094789","2018-01-09T23:51:00","FM-15","7",,"ESE","1.5","mi","TEMP, PRECIP, SNOW",,,"PSY, SRG, SNOWBOARD",,,"FAA CWO",,,,,,,,,,,,,,,,,,,,,,,,,,,,"30.40","20","33","0.00",,,,"58","30.40","CLR:00","30.37","10.00","29","320",,"7",,,,,,,,,,,,,,,,,,,,,,,,,,,,,,,,,,,,,"MET10101/09/18 23:51:02 METAR KJFK 100451Z 32006KT 10SM CLR 01/M07 A3040 RMK AO2 SLP293 T00061067 400611033","FM-15","7",,,,,,,,,,,,,,,,,,,,,,,,,,,"2009-05-01"
"74486094789","2018-01-09T23:59:00","SOD  ","6",,"ESE","1.5","mi","TEMP, PRECIP, SNOW",,,"PSY, SRG, SNOWBOARD",,,"FAA CWO",,,,,,"24","35","64","30.19","30.12","31","13.4","0","2.3","30","43","26","310","30","0.00","7","0.0","310","26",,,,,,,,,,,,,,,,,,,,,,,,,,,,,,,,,,,,,,,,,,,,,,,,,,,,,,,,"SOD73924 HR PRECIPITATION (IN): 0.00 SNOW DEPTH (IN):7     24 HR SNOWFALL (IN):0.0  24 HR MAX TEMP (F): 4324 HR MIN TEMP (F): 26AVERAGE STATION PRESSURE:30.120 MINIMUM SEA LEVEL PRESSURE:30.03 TIME OF OCCURRENCE:0059 PEAK WIND SPEED (MPH): 30 PEAK WIND DIR (DEG):310 PEAK WIND TIME (LST):      FASTEST 2MIN SPEED (MPH): 26FASTEST 2MIN DIR (DEG):310 FASTEST 2MIN TIME (LST):     AVERAGE WIND SPEED (MPH):13.4 24 HR AVG TEMP (F): 35DEPART FROM NORMAL:  2  HEATING DEGREE DAYS: 30 COOLING DEGREE DAYS:  0 LATEST DAY MAX TEMP (0700-1900 LST):43  LATEST NIGHT MIN TEMP(1900-0800 LST):26 HOURLY INCREMENTAL PRECIPITATION VALUES (IN):.00 0.00 0.00 0.00 0.00 0.00 0.00 0.00 0.00 0.00 0.00 0.00 0.00 0.00 0.00 0.00 0.00 0.00 0.00 0.00 0.00 0.00 0.00 0.00","SOD  ","6",,,,,,,,,,,,,,,,,,,,,,,,,"0719","1646","2009-05-01"
"74486094789","2018-01-10T00:51:00","FM-15","7",,"ESE","1.5","mi","TEMP, PRECIP, SNOW",,,"PSY, SRG, SNOWBOARD",,,"FAA CWO",,,,,,,,,,,,,,,,,,,,,,,,,,,,"30.40","19","29","0.00",,"-0.04","1","66","30.40","FEW:02 250","30.37","10.00","26","350",,"5",,,,,,,,,,,,,,,,,,,,,,,,,,,,,,,,,,,,,"MET12401/10/18 00:51:02 METAR KJFK 100551Z 35004KT 10SM FEW250 M02/M07 A3040 RMK AO2 SLP294 4/005 T10171072 10033 21017 51013 (JC)","FM-15","7",,,,,,,,,,,,,,,,,,,,,,,,,,,"2009-05-01"
"74486094789","2018-01-10T01:00:00","FM-12","4",,"ESE","1.5","mi","TEMP, PRECIP, SNOW",,,"PSY, SRG, SNOWBOARD",,,"FAA CWO",,,,,,,,,,,,,,,,,,,,,,,,,,,,,"19","29",,,"-0.04","1","66","30.40",,"30.37","9.94","26","350",,"5",,,,,,,,,,,,,,,,,,,,,,,,,,,,,,,,,,,,,"SYN08674486 32966 23504 11017 21072 30283 40294 51013 90551 333 10033 21033 4/013 555 91006=","FM-12","4",,,,,,,,,,,,,,,,,,,,,,,,,,,"2009-05-01"
"74486094789","2018-01-10T01:51:00","FM-15","7",,"ESE","1.5","mi","TEMP, PRECIP, SNOW",,,"PSY, SRG, SNOWBOARD",,,"FAA CWO",,,,,,,,,,,,,,,,,,,,,,,,,,,,"30.43","19","29","0.00",,,,"66","30.42","FEW:02 250","30.40","10.00","26","320",,"6",,,,,,,,,,,,,,,,,,,,,,,,,,,,,,,,,,,,,"MET10001/10/18 01:51:02 METAR KJFK 100651Z 32005KT 10SM FEW250 M02/M07 A3043 RMK AO2 SLP303 T10171072 (JC)","FM-15","7",,,,,,,,,,,,,,,,,,,,,,,,,,,"2009-05-01"
"74486094789","2018-01-10T02:51:00","FM-15","7",,"ESE","1.5","mi","TEMP, PRECIP, SNOW",,,"PSY, SRG, SNOWBOARD",,,"FAA CWO",,,,,,,,,,,,,,,,,,,,,,,,,,,,"30.44","19","26","0.00",,,,"75","30.44","FEW:02 250","30.42","10.00","24","360",,"3",,,,,,,,,,,,,,,,,,,,,,,,,,,,,,,,,,,,,"MET10001/10/18 02:51:02 METAR KJFK 100751Z 36003KT 10SM FEW250 M03/M07 A3044 RMK AO2 SLP308 T10331072 (JC)","FM-15","7",,,,,,,,,,,,,,,,,,,,,,,,,,,"2009-05-01"
"74486094789","2018-01-10T03:51:00","FM-15","7",,"ESE","1.5","mi","TEMP, PRECIP, SNOW",,,"PSY, SRG, SNOWBOARD",,,"FAA CWO",,,,,,,,,,,,,,,,,,,,,,,,,,,,"30.46","19","24","0.00",,"-0.06","1","81","30.46","FEW:02 250","30.43","10.00","22","000",,"0",,,,,,,,,,,,,,,,,,,,,,,,,,,,,,,,,,,,,"MET10601/10/18 03:51:02 METAR KJFK 100851Z 00000KT 10SM FEW250 M04/M07 A3046 RMK AO2 SLP314 T10441072 51021 (JC)","FM-15","7",,,,,,,,,,,,,,,,,,,,,,,,,,,"2009-05-01"
"74486094789","2018-01-10T04:00:00","FM-12","4",,"ESE","1.5","mi","TEMP, PRECIP, SNOW",,,"PSY, SRG, SNOWBOARD",,,"FAA CWO",,,,,,,,,,,,,,,,,,,,,,,,,,,,,"19","24",,,"-0.06","1","81","30.46",,"30.42","9.94","22","000",,"0",,,,,,,,,,,,,,,,,,,,,,,,,,,,,,,,,,,,,"SYN06474486 32966 20000 11044 21072 30303 40314 51021 90851 555 91009=","FM-12","4",,,,,,,,,,,,,,,,,,,,,,,,,,,"2009-05-01"
"74486094789","2018-01-10T04:51:00","FM-15","7",,"ESE","1.5","mi","TEMP, PRECIP, SNOW",,,"PSY, SRG, SNOWBOARD",,,"FAA CWO",,,,,,,,,,,,,,,,,,,,,,,,,,,,"30.47","19","22","0.00",,,,"89","30.46","FEW:02 250","30.45","10.00","21","030",,"5",,,,,,,,,,,,,,,,,,,,,,,,,,,,,,,,,,,,,"MET10001/10/18 04:51:02 METAR KJFK 100951Z 03004KT 10SM FEW250 M06/M07 A3047 RMK AO2 SLP316 T10561072 (JC)","FM-15","7",,,,,,,,,,,,,,,,,,,,,,,,,,,"2009-05-01"
"74486094789","2018-01-10T05:51:00","FM-15","7",,"ESE","1.5","mi","TEMP, PRECIP, SNOW",,,"PSY, SRG, SNOWBOARD",,,"FAA CWO",,,,,,,,,,,,,,,,,,,,,,,,,,,,"30.47","19","28","0.00",,,,"69","30.47","CLR:00","30.45","10.00","25","060",,"7",,,,,,,,,,,,,,,,,,,,,,,,,,,,,,,,,,,,,"MET09701/10/18 05:51:02 METAR KJFK 101051Z 06006KT 10SM CLR M02/M07 A3047 RMK AO2 SLP319 T10221072 (JC)","FM-15","7",,,,,,,,,,,,,,,,,,,,,,,,,,,"2009-05-01"
"74486094789","2018-01-10T06:51:00","FM-15","7",,"ESE","1.5","mi","TEMP, PRECIP, SNOW",,,"PSY, SRG, SNOWBOARD",,,"FAA CWO",,,,,,,,,,,,,,,,,,,,,,,,,,,,"30.48","20","25","0.00",,"-0.02","3","81","30.48","FEW:02 250","30.45","10.00","23","070",,"7",,,,,,,,,,,,,,,,,,,,,,,,,,,,,,,,,,,,,"MET12401/10/18 06:51:02 METAR KJFK 101151Z 07006KT 10SM FEW250 M04/M07 A3048 RMK AO2 SLP321 4/005 T10391067 11006 21061 53007 (DM)","FM-15","7",,,,,,,,,,,,,,,,,,,,,,,,,,,"2009-05-01"
"74486094789","2018-01-10T07:00:00","FM-12","4",,"ESE","1.5","mi","TEMP, PRECIP, SNOW",,,"PSY, SRG, SNOWBOARD",,,"FAA CWO",,,,,,,,,,,,,,,,,,,,,,,,,,,,,"20","25",,,"-0.02","3","81","30.48",,"30.45","9.94","23","070",,"7",,,,,,,,,,,,,,,,,,,,,,,,,,,,,,,,,,,,,"SYN08674486 32966 20706 11039 21067 30310 40321 53007 91151 333 10061 21061 4/013 555 91012=","FM-12","4",,,,,,,,,,,,,,,,,,,,,,,,,,,"2009-05-01"
"74486094789","2018-01-10T07:51:00","FM-15","7",,"ESE","1.5","mi","TEMP, PRECIP, SNOW",,,"PSY, SRG, SNOWBOARD",,,"FAA CWO",,,,,,,,,,,,,,,,,,,,,,,,,,,,"30.49","20","26","0.00",,,,"78","30.49","FEW:02 250","30.47","10.00","24","060",,"6",,,,,,,,,,,,,,,,,,,,,,,,,,,,,,,,,,,,,"MET10001/10/18 07:51:02 METAR KJFK 101251Z 06005KT 10SM FEW250 M03/M07 A3049 RMK AO2 SLP325 T10331067 (DM)","FM-15","7",,,,,,,,,,,,,,,,,,,,,,,,,,,"2009-05-01"
"74486094789","2018-01-10T08:51:00","FM-15","7",,"ESE","1.5","mi","TEMP, PRECIP, SNOW",,,"PSY, SRG, SNOWBOARD",,,"FAA CWO",,,,,,,,,,,,,,,,,,,,,,,,,,,,"30.52","22","30","0.00",,,,"72","30.51","FEW:02 250","30.50","10.00","27","000",,"0",,,,,,,,,,,,,,,,,,,,,,,,,,,,,,,,,,,,,"MET10001/10/18 08:51:02 METAR KJFK 101351Z 00000KT 10SM FEW250 M01/M06 A3052 RMK AO2 SLP333 T10111056 (DM)","FM-15","7",,,,,,,,,,,,,,,,,,,,,,,,,,,"2009-05-01"
"74486094789","2018-01-10T09:51:00","FM-15","7",,"ESE","1.5","mi","TEMP, PRECIP, SNOW",,,"PSY, SRG, SNOWBOARD",,,"FAA CWO",,,,,,,,,,,,,,,,,,,,,,,,,,,,"30.52","20","33","0.00",,"-0.04","1","58","30.52","FEW:02 250","30.50","10.00","29","060",,"7",,,,,,,,,,,,,,,,,,,,,,,,,,,,,,,,,,,,,"MET10501/10/18 09:51:02 METAR KJFK 101451Z 06006KT 10SM FEW250 01/M07 A3052 RMK AO2 SLP335 T00061067 51014 (DM)","FM-15","7",,,,,,,,,,,,,,,,,,,,,,,,,,,"2009-05-01"
"74486094789","2018-01-10T10:00:00","FM-12","4",,"ESE","1.5","mi","TEMP, PRECIP, SNOW",,,"PSY, SRG, SNOWBOARD",,,"FAA CWO",,,,,,,,,,,,,,,,,,,,,,,,,,,,,"20","33",,,"-0.04","1","58","30.52",,"30.49","9.94","29","060",,"7",,,,,,,,,,,,,,,,,,,,,,,,,,,,,,,,,,,,,"SYN06474486 32966 20606 10006 21067 30324 40335 51014 91451 555 91015=","FM-12","4",,,,,,,,,,,,,,,,,,,,,,,,,,,"2009-05-01"
"74486094789","2018-01-10T10:51:00","FM-15","7",,"ESE","1.5","mi","TEMP, PRECIP, SNOW",,,"PSY, SRG, SNOWBOARD",,,"FAA CWO",,,,,,,,,,,,,,,,,,,,,,,,,,,,"30.52","20","35","0.00",,,,"54","30.52","FEW:02 250","30.50","10.00","30","000",,"0",,,,,,,,,,,,,,,,,,,,,,,,,,,,,,,,,,,,,"MET09901/10/18 10:51:02 METAR KJFK 101551Z 00000KT 10SM FEW250 02/M07 A3052 RMK AO2 SLP335 T00171067 (DM)","FM-15","7",,,,,,,,,,,,,,,,,,,,,,,,,,,"2009-05-01"
"74486094789","2018-01-10T11:51:00","FM-15","7",,"ESE","1.5","mi","TEMP, PRECIP, SNOW",,,"PSY, SRG, SNOWBOARD",,,"FAA CWO",,,,,,,,,,,,,,,,,,,,,,,,,,,,"30.51","21","35","0.00",,,,"57","30.51","FEW:02 250","30.48","10.00","30","210",,"3",,,,,,,,,,,,,,,,,,,,,,,,,,,,,,,,,,,,,"MET09901/10/18 11:51:02 METAR KJFK 101651Z 21003KT 10SM FEW250 02/M06 A3051 RMK AO2 SLP331 T00171061 (DM)","FM-15","7",,,,,,,,,,,,,,,,,,,,,,,,,,,"2009-05-01"
"74486094789","2018-01-10T12:51:00","FM-15","7",,"ESE","1.5","mi","TEMP, PRECIP, SNOW",,,"PSY, SRG, SNOWBOARD",,,"FAA CWO",,,,,,,,,,,,,,,,,,,,,,,,,,,,"30.48","22","35","0.00",,"+0.05","8","59","30.47","FEW:02 250","30.45","10.00","30","190",,"3",,,,,,,,,,,,,,,,,,,,,,,,,,,,,,,,,,,,,"MET13001/10/18 12:51:02 METAR KJFK 101751Z 19003KT 10SM FEW250 02/M06 A3048 RMK AO2 SLP319 4/004 933011 T00171056 10022 21056 58016 (DM)","FM-15","7",,,,,,,,,,,,,,,,,,,,,,,,,,,"2009-05-01"
"74486094789","2018-01-10T13:00:00","FM-12","4",,"ESE","1.5","mi","TEMP, PRECIP, SNOW",,,"PSY, SRG, SNOWBOARD",,,"FAA CWO",,,,,,,,,,,,,,,,,,,,,,,,,,,,,"22","35",,,"+0.05","8","59","30.47",,"30.45","9.94","30","190",,"3",,,,,,,,,,,,,,,,,,,,,,,,,,,,,,,,,,,,,"SYN08674486 32966 21903 10017 21056 30310 40319 58016 91751 333 10022 21056 4/010 555 91018=","FM-12","4",,,,,,,,,,,,,,,,,,,,,,,,,,,"2009-05-01"
"74486094789","2018-01-10T13:51:00","FM-15","7",,"ESE","1.5","mi","TEMP, PRECIP, SNOW",,,"PSY, SRG, SNOWBOARD",,,"FAA CWO",,,,,,,,,,,,,,,,,,,,,,,,,,,,"30.46","25","36","0.00",,,,"64","30.45","SCT:04 250","30.43","10.00","32","160",,"7",,,,,,,,,,,,,,,,,,,,,,,,,,,,,,,,,,,,,"MET09901/10/18 13:51:02 METAR KJFK 101851Z 16006KT 10SM SCT250 02/M04 A3046 RMK AO2 SLP313 T00221039 (DM)","FM-15","7",,,,,,,,,,,,,,,,,,,,,,,,,,,"2009-05-01"
"74486094789","2018-01-10T14:51:00","FM-15","7",,"ESE","1.5","mi","TEMP, PRECIP, SNOW",,,"PSY, SRG, SNOWBOARD",,,"FAA CWO",,,,,,,,,,,,,,,,,,,,,,,,,,,,"30.46","27","37","0.00",,,,"67","30.45","FEW:02 250","30.43","10.00","33","140",,"8",,,,,,,,,,,,,,,,,,,,,,,,,,,,,,,,,,,,,"MET09901/10/18 14:51:02 METAR KJFK 101951Z 14007KT 10SM FEW250 03/M03 A3046 RMK AO2 SLP313 T00281028 (RR)","FM-15","7",,,,,,,,,,,,,,,,,,,,,,,,,,,"2009-05-01"
"74486094789","2018-01-10T15:51:00","FM-15","7",,"ESE","1.5","mi","TEMP, PRECIP, SNOW",,,"PSY, SRG, SNOWBOARD",,,"FAA CWO",,,,,,,,,,,,,,,,,,,,,,,,,,,,"30.46","27","36","0.00",,"+0.02","6","70","30.45","FEW:02 45 FEW:02 250","30.43","10.00","33","130",,"7",,,,,,,,,,,,,,,,,,,,,,,,,,,,,,,,,,,,,"MET11201/10/18 15:51:02 METAR KJFK 102051Z 13006KT 10SM FEW045 FEW250 02/M03 A3046 RMK AO2 SLP313 T00221028 56006 (RR)","FM-15","7",,,,,,,,,,,,,,,,,,,,,,,,,,,"2009-05-01"
"74486094789","2018-01-10T16:00:00","FM-12","4",,"ESE","1.5","mi","TEMP, PRECIP, SNOW",,,"PSY, SRG, SNOWBOARD",,,"FAA CWO",,,,,,,,,,,,,,,,,,,,,,,,,,,,,"27","36",,,"+0.02","6","70","30.45","41","30.42","9.94","33","130",,"7",,,,,,,,,,,,,,,,,,,,,,,,,,,,,,,,,,,,,"SYN06474486 32666 21306 10022 21028 30303 40313 56006 92051 555 91021=","FM-12","4",,,,,,,,,,,,,,,,,,,,,,,,,,,"2009-05-01"
"74486094789","2018-01-10T16:51:00","FM-15","7",,"ESE","1.5","mi","TEMP, PRECIP, SNOW",,,"PSY, SRG, SNOWBOARD",,,"FAA CWO",,,,,,,,,,,,,,,,,,,,,,,,,,,,"30.45","28","36","0.00",,,,"73","30.45","BKN:07 37","30.42","10.00","33","130",,"8",,,,,,,,,,,,,,,,,,,,,,,,,,,,,,,,,,,,,"MET09901/10/18 16:51:02 METAR KJFK 102151Z 13007KT 10SM BKN037 02/M02 A3045 RMK AO2 SLP310 T00221022 (RR)","FM-15","7",,,,,,,,,,,,,,,,,,,,,,,,,,,"2009-05-01"
"74486094789","2018-01-10T17:51:00","FM-15","7",,"ESE","1.5","mi","TEMP, PRECIP, SNOW",,,"PSY, SRG, SNOWBOARD",,,"FAA CWO",,,,,,,,,,,,,,,,,,,,,,,,,,,,"30.46","28","34","0.00",,,,"79","30.45","FEW:02 49 SCT:04 60 BKN:07 200","30.43","10.00","32","100",,"6",,,,,,,,,,,,,,,,,,,,,,,,,,,,,,,,,,,,,"MET11301/10/18 17:51:02 METAR KJFK 102251Z 10005KT 10SM FEW049 SCT060 BKN200 01/M02 A3046 RMK AO2 SLP313 T00111022 (RR)","FM-15","7",,,,,,,,,,,,,,,,,,,,,,,,,,,"2009-05-01"
"74486094789","2018-01-10T18:51:00","FM-15","7",,"ESE","1.5","mi","TEMP, PRECIP, SNOW",,,"PSY, SRG, SNOWBOARD",,,"FAA CWO",,,,,,,,,,,,,,,,,,,,,,,,,,,,"30.45","30","35","0.00",,"+0.01","6","82","30.45","OVC:08 50","30.42","10.00","33","100",,"3",,,,,,,,,,,,,,,,,,,,,,,,,,,,,,,,,,,,,"MET12301/10/18 18:51:02 METAR KJFK 102351Z 10003KT 10SM OVC050 02/M01 A3045 RMK AO2 SLP312 4/004 T00171011 10028 20006 56002 (RR)","FM-15","7",,,,,,,,,,,,,,,,,,,,,,,,,,,"2009-05-01"
"74486094789","2018-01-10T19:00:00","FM-12","4",,"ESE","1.5","mi","TEMP, PRECIP, SNOW",,,"PSY, SRG, SNOWBOARD",,,"FAA CWO",,,,,,,,,,,,,,,,,,,,,,,,,,,,,"30","35",,,"+0.01","6","82","30.45","57","30.42","9.94","33","100",,"3",,,,,,,,,,,,,,,,,,,,,,,,,,,,,,,,,,,,,"SYN08674486 32766 81003 10017 21011 30300 40312 56002 92351 333 10028 21060 4/010 555 91100=","FM-12","4",,,,,,,,,,,,,,,,,,,,,,,,,,,"2009-05-01"
"74486094789","2018-01-10T19:51:00","FM-15","7",,"ESE","1.5","mi","TEMP, PRECIP, SNOW",,,"PSY, SRG, SNOWBOARD",,,"FAA CWO",,,,,,,,,,,,,,,,,,,,,,,,,,,,"30.47","33","37","0.00",,,,"86","30.47","OVC:08 60","30.45","10.00","35","000",,"0",,,,,,,,,,,,,,,,,,,,,,,,,,,,,,,,,,,,,"MET09301/10/18 19:51:01 METAR KJFK 110051Z 00000KT 10SM OVC060 03/01 A3047 RMK AO2 SLP318 T00280006","FM-15","7",,,,,,,,,,,,,,,,,,,,,,,,,,,"2009-05-01"
"74486094789","2018-01-10T20:51:00","FM-15","7",,"ESE","1.5","mi","TEMP, PRECIP, SNOW",,,"PSY, SRG, SNOWBOARD",,,"FAA CWO",,,,,,,,,,,,,,,,,,,,,,,,,,,,"30.45","35","37","0.00",,,,"93","30.44","BKN:07 46 OVC:08 60","30.42","10.00","36","190",,"6",,,,,,,,,,,,,,,,,,,,,,,,,,,,,,,,,,,,,"MET10001/10/18 20:51:01 METAR KJFK 110151Z 19005KT 10SM BKN046 OVC060 03/02 A3045 RMK AO2 SLP309 T00280017","FM-15","7",,,,,,,,,,,,,,,,,,,,,,,,,,,"2009-05-01"
"74486094789","2018-01-10T21:51:00","FM-15","7",,"ESE","1.5","mi","TEMP, PRECIP, SNOW",,,"PSY, SRG, SNOWBOARD",,,"FAA CWO",,,,,,,,,,,,,,,,,,,,,,,,,,,,"30.44","35","38","0.00",,"+0.01","8","89","30.44","OVC:08 48","30.42","10.00","37","180",,"9",,,,,,,,,,,,,,,,,,,,,,,,,,,,,,,,,,,,,"MET09901/10/18 21:51:02 METAR KJFK 110251Z 18008KT 10SM OVC048 03/02 A3044 RMK AO2 SLP309 T00330017 58003","FM-15","7",,,,,,,,,,,,,,,,,,,,,,,,,,,"2009-05-01"
"74486094789","2018-01-10T22:00:00","FM-12","4",,"ESE","1.5","mi","TEMP, PRECIP, SNOW",,,"PSY, SRG, SNOWBOARD",,,"FAA CWO",,,,,,,,,,,,,,,,,,,,,,,,,,,,,"35","38",,,"+0.01","8","89","30.44","41","30.41","9.94","37","180",,"9",,,,,,,,,,,,,,,,,,,,,,,,,,,,,,,,,,,,,"SYN06474486 32666 81808 10033 20017 30297 40309 58003 90251 555 91103=","FM-12","4",,,,,,,,,,,,,,,,,,,,,,,,,,,"2009-05-01"
"74486094789","2018-01-10T22:51:00","FM-15","7",,"ESE","1.5","mi","TEMP, PRECIP, SNOW",,,"PSY, SRG, SNOWBOARD",,,"FAA CWO",,,,,,,,,,,,,,,,,,,,,,,,,,,,"30.43","36","39","0.00",,,,"89","30.42","BKN:07 50 BKN:07 250","30.40","10.00","38","180",,"7",,,,,,,,,,,,,,,,,,,,,,,,,,,,,,,,,,,,,"MET10001/10/18 22:51:02 METAR KJFK 110351Z 18006KT 10SM BKN050 BKN250 04/02 A3043 RMK AO2 SLP303 T00390022","FM-15","7",,,,,,,,,,,,,,,,,,,,,,,,,,,"2009-05-01"
"74486094789","2018-01-10T23:51:00","FM-15","7",,"ESE","1.5","mi","TEMP, PRECIP, SNOW",,,"PSY, SRG, SNOWBOARD",,,"FAA CWO",,,,,,,,,,,,,,,,,,,,,,,,,,,,"30.42","37","39","0.00",,,,"93","30.41","BKN:07 50 BKN:07 65 OVC:08 210","30.40","10.00","38","180",,"5",,,,,,,,,,,,,,,,,,,,,,,,,,,,,,,,,,,,,"MET11701/10/18 23:51:02 METAR KJFK 110451Z 18004KT 10SM BKN050 BKN065 OVC210 04/03 A3042 RMK AO2 SLP299 T00390028 400391061","FM-15","7",,,,,,,,,,,,,,,,,,,,,,,,,,,"2009-05-01"
"74486094789","2018-01-10T23:59:00","SOD  ","6",,"ESE","1.5","mi","TEMP, PRECIP, SNOW",,,"PSY, SRG, SNOWBOARD",,,"FAA CWO",,,,,,"25","30","75","30.46","30.42","30","4.9","0","-2.6","35","39","21","130","12","0.00","5","0.0","170","9",,,,,,,,,,,,,,,,,,,,,,,,,,,,,,,,,,,,,,,,,,,,,,,,,,,,,,,,"SOD73924 HR PRECIPITATION (IN): 0.00 SNOW DEPTH (IN):5     24 HR SNOWFALL (IN):0.0  24 HR MAX TEMP (F): 3924 HR MIN TEMP (F): 21AVERAGE STATION PRESSURE:30.425 MINIMUM SEA LEVEL PRESSURE:30.39 TIME OF OCCURRENCE:0044 PEAK WIND SPEED (MPH): 12 PEAK WIND DIR (DEG):130 PEAK WIND TIME (LST):      FASTEST 2MIN SPEED (MPH):  9FASTEST 2MIN DIR (DEG):170 FASTEST 2MIN TIME (LST):     AVERAGE WIND SPEED (MPH): 4.9 24 HR AVG TEMP (F): 30DEPART FROM NORMAL: -3  HEATING DEGREE DAYS: 35 COOLING DEGREE DAYS:  0 LATEST DAY MAX TEMP (0700-1900 LST):37  LATEST NIGHT MIN TEMP(1900-0800 LST):21 HOURLY INCREMENTAL PRECIPITATION VALUES (IN):.00 0.00 0.00 0.00 0.00 0.00 0.00 0.00 0.00 0.00 0.00 0.00 0.00 0.00 0.00 0.00 0.00 0.00 0.00 0.00 0.00 0.00 0.00 0.00","SOD  ","6",,,,,,,,,,,,,,,,,,,,,,,,,"0719","1647","2009-05-01"
"74486094789","2018-01-11T00:51:00","FM-15","7",,"ESE","1.5","mi","TEMP, PRECIP, SNOW",,,"PSY, SRG, SNOWBOARD",,,"FAA CWO",,,,,,,,,,,,,,,,,,,,,,,,,,,,"30.40","37","39","0.00",,"+0.05","8","93","30.39","BKN:07 50","30.37","10.00","38","200",,"5",,,,,,,,,,,,,,,,,,,,,,,,,,,,,,,,,,,,,"MET12201/11/18 00:51:02 METAR KJFK 110551Z 20004KT 10SM BKN050 04/03 A3040 RMK AO2 SLP292 4/004 T00390028 10044 20017 58016 (JC)","FM-15","7",,,,,,,,,,,,,,,,,,,,,,,,,,,"2009-05-01"
"74486094789","2018-01-11T01:00:00","FM-12","4",,"ESE","1.5","mi","TEMP, PRECIP, SNOW",,,"PSY, SRG, SNOWBOARD",,,"FAA CWO",,,,,,,,,,,,,,,,,,,,,,,,,,,,,"37","39",,,"+0.05","8","93","30.39","57","30.37","9.94","38","200",,"5",,,,,,,,,,,,,,,,,,,,,,,,,,,,,,,,,,,,,"SYN08674486 32766 62004 10039 20028 30283 40292 58016 90551 333 10044 21060 4/010 555 91106=","FM-12","4",,,,,,,,,,,,,,,,,,,,,,,,,,,"2009-05-01"
"74486094789","2018-01-11T01:51:00","FM-15","7",,"ESE","1.5","mi","TEMP, PRECIP, SNOW",,,"PSY, SRG, SNOWBOARD",,,"FAA CWO",,,,,,,,,,,,,,,,,,,,,,,,,,,,"30.40","37","39","0.00",,,,"93","30.39","SCT:04 18 OVC:08 65","30.37","10.00","38","000",,"0",,,,,,,,,,,,,,,,,,,,,,,,,,,,,,,,,,,,,"MET10501/11/18 01:51:02 METAR KJFK 110651Z 00000KT 10SM SCT018 OVC065 04/03 A3040 RMK AO2 SLP292 T00390028 (JC)","FM-15","7",,,,,,,,,,,,,,,,,,,,,,,,,,,"2009-05-01"
"74486094789","2018-01-11T02:51:00","FM-15","7",,"ESE","1.5","mi","TEMP, PRECIP, SNOW",,,"PSY, SRG, SNOWBOARD",,,"FAA CWO",,,,,,,,,,,,,,,,,,,,,,,,,,,,"30.39","37","39","0.00",,,,"93","30.39","SCT:04 20 OVC:08 60","30.37","10.00","38","000",,"0",,,,,,,,,,,,,,,,,,,,,,,,,,,,,,,,,,,,,"MET10501/11/18 02:51:02 METAR KJFK 110751Z 00000KT 10SM SCT020 OVC060 04/03 A3039 RMK AO2 SLP290 T00390028 (JC)","FM-15","7",,,,,,,,,,,,,,,,,,,,,,,,,,,"2009-05-01"
"74486094789","2018-01-11T03:51:00","FM-15","7",,"ESE","1.5","mi","TEMP, PRECIP, SNOW",,,"PSY, SRG, SNOWBOARD",,,"FAA CWO",,,,,,,,,,,,,,,,,,,,,,,,,,,,"30.38","37","38","0.00",,"+0.02","8","97","30.38","FEW:02 20 OVC:08 60","30.35","10.00","38","000",,"0",,,,,,,,,,,,,,,,,,,,,,,,,,,,,,,,,,,,,"MET11101/11/18 03:51:02 METAR KJFK 110851Z 00000KT 10SM FEW020 OVC060 03/03 A3038 RMK AO2 SLP287 T00330028 58006 (JC)","FM-15","7",,,,,,,,,,,,,,,,,,,,,,,,,,,"2009-05-01"
"74486094789","2018-01-11T04:00:00","FM-12","4",,"ESE","1.5","mi","TEMP, PRECIP, SNOW",,,"PSY, SRG, SNOWBOARD",,,"FAA CWO",,,,,,,,,,,,,,,,,,,,,,,,,,,,,"37","38",,,"+0.02","8","97","30.38","26","30.35","9.94","38","000",,"0",,,,,,,,,,,,,,,,,,,,,,,,,,,,,,,,,,,,,"SYN06474486 32566 80000 10033 20028 30276 40287 58006 90851 555 91109=","FM-12","4",,,,,,,,,,,,,,,,,,,,,,,,,,,"2009-05-01"
"74486094789","2018-01-11T04:39:00","FM-16","7",,"ESE","1.5","mi","TEMP, PRECIP, SNOW",,,"PSY, SRG, SNOWBOARD",,,"FAA CWO",,,,,,,,,,,,,,,,,,,,,,,,,,,,"30.38","37","38",,,,,"97",,"FEW:02 9 OVC:08 60","30.35","10.00","38","000",,"0",,,,,,,,,,,,,,,,,,,,,,,,,,,,,,,,,,,,,"MET09801/11/18 04:39:02 SPECI KJFK 110939Z 00000KT 10SM FEW009 OVC060 03/03 A3038 RMK AO2 T00330028 (JC)","FM-16","7",,,,,,,,,,,,,,,,,,,,,,,,,,,"2009-05-01"
"74486094789","2018-01-11T04:51:00","FM-15","7",,"ESE","1.5","mi","TEMP, PRECIP, SNOW",,,"PSY, SRG, SNOWBOARD",,,"FAA CWO",,,,,,,,,,,,,,,,,,,,,,,,,,,,"30.37","37","39","0.00",,,,"93","30.37","SCT:04 9 OVC:08 60","30.35","10.00","38","000",,"0",,,,,,,,,,,,,,,,,,,,,,,,,,,,,,,,,,,,,"MET10501/11/18 04:51:02 METAR KJFK 110951Z 00000KT 10SM SCT009 OVC060 04/03 A3037 RMK AO2 SLP285 T00390028 (JC)","FM-15","7",,,,,,,,,,,,,,,,,,,,,,,,,,,"2009-05-01"
"74486094789","2018-01-11T05:51:00","FM-15","7",,"ESE","1.5","mi","TEMP, PRECIP, SNOW",,,"PSY, SRG, SNOWBOARD",,,"FAA CWO",,,,,,,,,,,,,,,,,,,,,,,,,,,,"30.38","39","40","0.00",,,,"97","30.38","SCT:04 9 OVC:08 55","30.35","10.00","40","000",,"0",,,,,,,,,,,,,,,,,,,,,,,,,,,,,,,,,,,,,"MET10501/11/18 05:51:02 METAR KJFK 111051Z 00000KT 10SM SCT009 OVC055 04/04 A3038 RMK AO2 SLP288 T00440039 (JC)","FM-15","7",,,,,,,,,,,,,,,,,,,,,,,,,,,"2009-05-01"
"74486094789","2018-01-11T06:51:00","FM-15","7",,"ESE","1.5","mi","TEMP, PRECIP, SNOW",,,"PSY, SRG, SNOWBOARD",,,"FAA CWO",,,,,,,,,,,,,,,,,,,,,,,,,,,,"30.38","39","40","0.00",,"-0.00","3","97","30.38","FEW:02 9 BKN:07 50","30.35","10.00","40","180",,"3",,,,,,,,,,,,,,,,,,,,,,,,,,,,,,,,,,,,,"MET12901/11/18 06:51:02 METAR KJFK 111151Z 18003KT 10SM FEW009 BKN050 04/04 A3038 RMK AO2 SLP287 4/003 T00440039 10050 20028 53000 (BH)","FM-15","7",,,,,,,,,,,,,,,,,,,,,,,,,,,"2009-05-01"
"74486094789","2018-01-11T07:00:00","FM-12","4",,"ESE","1.5","mi","TEMP, PRECIP, SNOW",,,"PSY, SRG, SNOWBOARD",,,"FAA CWO",,,,,,,,,,,,,,,,,,,,,,,,,,,,,"39","40",,,"0.00","4","97","30.38","8","30.35","9.94","40","180",,"3",,,,,,,,,,,,,,,,,,,,,,,,,,,,,,,,,,,,,"SYN08674486 32366 61803 10044 20039 30276 40287 53000 91151 333 10039 20017 4/008 555 91112=","FM-12","4",,,,,,,,,,,,,,,,,,,,,,,,,,,"2009-05-01"
"74486094789","2018-01-11T07:26:00","FM-16","7",,"ESE","1.5","mi","TEMP, PRECIP, SNOW",,,"PSY, SRG, SNOWBOARD",,,"FAA CWO",,,,,,,,,,,,,,,,,,,,,,,,,,,,"30.39","39","40",,"MI:1 FG:2 |FG |FG",,,"97",,"FEW:02 3 BKN:07 50","30.37","10.00","40","180",,"3",,,,,,,,,,,,,,,,,,,,,,,,,,,,,,,,,,,,,"MET13101/11/18 07:26:02 SPECI KJFK 111226Z 18003KT 10SM R04R/4000VP6000FT MIFG FEW003 BKN050 04/04 A3039 RMK AO2 MIFG S-NW T00440039 (BH)","FM-16","7",,,,,,,,,,,,,,,,,,,,,,,,,,,"2009-05-01"
"74486094789","2018-01-11T07:51:00","FM-15","7",,"ESE","1.5","mi","TEMP, PRECIP, SNOW",,,"PSY, SRG, SNOWBOARD",,,"FAA CWO",,,,,,,,,,,,,,,,,,,,,,,,,,,,"30.39","39","40","0.00","MI:1 FG:2 |FG |FG",,,"97","30.38","FEW:02 3 BKN:07 50","30.37","10.00","40","160",,"3",,,,,,,,,,,,,,,,,,,,,,,,,,,,,,,,,,,,,"MET12101/11/18 07:51:02 METAR KJFK 111251Z 16003KT 10SM MIFG FEW003 BKN050 04/04 A3039 RMK AO2 SLP289 MIFG SE-NW T00440039 (BH)","FM-15","7",,,,,,,,,,,,,,,,,,,,,,,,,,,"2009-05-01"
"74486094789","2018-01-11T08:51:00","FM-15","7",,"ESE","1.5","mi","TEMP, PRECIP, SNOW",,,"PSY, SRG, SNOWBOARD",,,"FAA CWO",,,,,,,,,,,,,,,,,,,,,,,,,,,,"30.40","40","42","0.00","MI:1 FG:2 |FG |FG",,,"92","30.40","BKN:07 50","30.37","10.00","41","000",,"0",,,,,,,,,,,,,,,,,,,,,,,,,,,,,,,,,,,,,"MET11901/11/18 08:51:02 METAR KJFK 111351Z 00000KT 10SM MIFG BKN050 06/04 A3040 RMK AO2 SLP295 MIFG S-SW AND W T00560044 (BH)","FM-15","7",,,,,,,,,,,,,,,,,,,,,,,,,,,"2009-05-01"
"74486094789","2018-01-11T09:51:00","FM-15","7",,"ESE","1.5","mi","TEMP, PRECIP, SNOW",,,"PSY, SRG, SNOWBOARD",,,"FAA CWO",,,,,,,,,,,,,,,,,,,,,,,,,,,,"30.43","39","42","0.00",,"-0.05","3","89","30.42","FEW:02 12 OVC:08 50","30.40","9.00","41","000",,"0",,,,,,,,,,,,,,,,,,,,,,,,,,,,,,,,,,,,,"MET11001/11/18 09:51:02 METAR KJFK 111451Z 00000KT 9SM FEW012 OVC050 06/04 A3043 RMK AO2 SLP303 T00560039 53016 (BH)","FM-15","7",,,,,,,,,,,,,,,,,,,,,,,,,,,"2009-05-01"
"74486094789","2018-01-11T10:00:00","FM-12","4",,"ESE","1.5","mi","TEMP, PRECIP, SNOW",,,"PSY, SRG, SNOWBOARD",,,"FAA CWO",,,,,,,,,,,,,,,,,,,,,,,,,,,,,"39","42",,,"-0.05","3","89","30.42","15","30.40","8.70","41","000",,"0",,,,,,,,,,,,,,,,,,,,,,,,,,,,,,,,,,,,,"SYN06474486 32464 80000 10056 20039 30293 40303 53016 91451 555 91115=","FM-12","4",,,,,,,,,,,,,,,,,,,,,,,,,,,"2009-05-01"
"74486094789","2018-01-11T10:51:00","FM-15","7",,"ESE","1.5","mi","TEMP, PRECIP, SNOW",,,"PSY, SRG, SNOWBOARD",,,"FAA CWO",,,,,,,,,,,,,,,,,,,,,,,,,,,,"30.42","41","45","0.00",,,,"86","30.41","OVC:08 55","30.40","10.00","43","130",,"5",,,,,,,,,,,,,,,,,,,,,,,,,,,,,,,,,,,,,"MET09801/11/18 10:51:02 METAR KJFK 111551Z 13004KT 10SM OVC055 07/05 A3042 RMK AO2 SLP299 T00720050 (BH)","FM-15","7",,,,,,,,,,,,,,,,,,,,,,,,,,,"2009-05-01"
"74486094789","2018-01-11T11:51:00","FM-15","7",,"ESE","1.5","mi","TEMP, PRECIP, SNOW",,,"PSY, SRG, SNOWBOARD",,,"FAA CWO",,,,,,,,,,,,,,,,,,,,,,,,,,,,"30.38","43","48","0.00",,,,"83","30.38","BKN:07 55","30.35","10.00","46","230",,"5",,,,,,,,,,,,,,,,,,,,,,,,,,,,,,,,,,,,,"MET09801/11/18 11:51:02 METAR KJFK 111651Z 23004KT 10SM BKN055 09/06 A3038 RMK AO2 SLP288 T00890061 (BH)","FM-15","7",,,,,,,,,,,,,,,,,,,,,,,,,,,"2009-05-01"
"74486094789","2018-01-11T12:51:00","FM-15","7",,"ESE","1.5","mi","TEMP, PRECIP, SNOW",,,"PSY, SRG, SNOWBOARD",,,"FAA CWO",,,,,,,,,,,,,,,,,,,,,,,,,,,,"30.36","43","48","0.00",,"+0.07","8","83","30.35","OVC:08 50","30.34","10.00","46","180",,"5",,,,,,,,,,,,,,,,,,,,,,,,,,,,,,,,,,,,,"MET12901/11/18 12:51:02 METAR KJFK 111751Z 18004KT 10SM OVC050 09/06 A3036 RMK AO2 SLP279 4/003 933009 T00890061 10089 20039 58024 (BH)","FM-15","7",,,,,,,,,,,,,,,,,,,,,,,,,,,"2009-05-01"
"74486094789","2018-01-11T13:00:00","FM-12","4",,"ESE","1.5","mi","TEMP, PRECIP, SNOW",,,"PSY, SRG, SNOWBOARD",,,"FAA CWO",,,,,,,,,,,,,,,,,,,,,,,,,,,,,"43","48",,,"+0.07","8","83","30.35","57","30.33","9.94","46","180",,"5",,,,,,,,,,,,,,,,,,,,,,,,,,,,,,,,,,,,,"SYN08674486 32766 81804 10089 20061 30270 40279 58024 91751 333 10089 20006 4/008 555 91118=","FM-12","4",,,,,,,,,,,,,,,,,,,,,,,,,,,"2009-05-01"
"74486094789","2018-01-11T13:51:00","FM-15","7",,"ESE","1.5","mi","TEMP, PRECIP, SNOW",,,"PSY, SRG, SNOWBOARD",,,"FAA CWO",,,,,,,,,,,,,,,,,,,,,,,,,,,,"30.34","43","46","0.00",,,,"89","30.34","OVC:08 50","30.32","10.00","45","150",,"5",,,,,,,,,,,,,,,,,,,,,,,,,,,,,,,,,,,,,"MET09801/11/18 13:51:02 METAR KJFK 111851Z 15004KT 10SM OVC050 08/06 A3034 RMK AO2 SLP275 T00780061 (BH)","FM-15","7",,,,,,,,,,,,,,,,,,,,,,,,,,,"2009-05-01"
"74486094789","2018-01-11T14:51:00","FM-15","7",,"ESE","1.5","mi","TEMP, PRECIP, SNOW",,,"PSY, SRG, SNOWBOARD",,,"FAA CWO",,,,,,,,,,,,,,,,,,,,,,,,,,,,"30.34","43","47","0.00",,,,"86","30.34","BKN:07 49 BKN:07 250","30.32","10.00","45","120",,"5",,,,,,,,,,,,,,,,,,,,,,,,,,,,,,,,,,,,,"MET10501/11/18 14:51:02 METAR KJFK 111951Z 12004KT 10SM BKN049 BKN250 08/06 A3034 RMK AO2 SLP275 T00830061 (RR)","FM-15","7",,,,,,,,,,,,,,,,,,,,,,,,,,,"2009-05-01"
"74486094789","2018-01-11T15:51:00","FM-15","7",,"ESE","1.5","mi","TEMP, PRECIP, SNOW",,,"PSY, SRG, SNOWBOARD",,,"FAA CWO",,,,,,,,,,,,,,,,,,,,,,,,,,,,"30.35","42","46","0.00",,"+0.01","5","86","30.35","SCT:04 50 BKN:07 250","30.32","9.00","44","130",,"3",,,,,,,,,,,,,,,,,,,,,,,,,,,,,,,,,,,,,"MET11001/11/18 15:51:02 METAR KJFK 112051Z 13003KT 9SM SCT050 BKN250 08/06 A3035 RMK AO2 SLP277 T00780056 55002 (RR)","FM-15","7",,,,,,,,,,,,,,,,,,,,,,,,,,,"2009-05-01"
"74486094789","2018-01-11T16:00:00","FM-12","4",,"ESE","1.5","mi","TEMP, PRECIP, SNOW",,,"PSY, SRG, SNOWBOARD",,,"FAA CWO",,,,,,,,,,,,,,,,,,,,,,,,,,,,,"42","46",,,"+0.01","5","86","30.35","57","30.32","8.70","44","130",,"3",,,,,,,,,,,,,,,,,,,,,,,,,,,,,,,,,,,,,"SYN06474486 32764 61303 10078 20056 30266 40277 55002 92051 555 91121=","FM-12","4",,,,,,,,,,,,,,,,,,,,,,,,,,,"2009-05-01"
"74486094789","2018-01-11T16:51:00","FM-15","7",,"ESE","1.5","mi","TEMP, PRECIP, SNOW",,,"PSY, SRG, SNOWBOARD",,,"FAA CWO",,,,,,,,,,,,,,,,,,,,,,,,,,,,"30.34","42","43","0.00",,,,"97","30.33","SCT:04 50 BKN:07 250","30.32","8.00","43","090",,"3",,,,,,,,,,,,,,,,,,,,,,,,,,,,,,,,,,,,,"MET10401/11/18 16:51:02 METAR KJFK 112151Z 09003KT 8SM SCT050 BKN250 06/06 A3034 RMK AO2 SLP272 T00610056 (RR)","FM-15","7",,,,,,,,,,,,,,,,,,,,,,,,,,,"2009-05-01"
"74486094789","2018-01-11T17:51:00","FM-15","7",,"ESE","1.5","mi","TEMP, PRECIP, SNOW",,,"PSY, SRG, SNOWBOARD",,,"FAA CWO",,,,,,,,,,,,,,,,,,,,,,,,,,,,"30.33","42","42","0.00",,,,"100","30.32","FEW:02 50 BKN:07 250","30.30","9.00","42","120",,"5",,,,,,,,,,,,,,,,,,,,,,,,,,,,,,,,,,,,,"MET10401/11/18 17:51:02 METAR KJFK 112251Z 12004KT 9SM FEW050 BKN250 06/06 A3033 RMK AO2 SLP269 T00560056 (RR)","FM-15","7",,,,,,,,,,,,,,,,,,,,,,,,,,,"2009-05-01"
"74486094789","2018-01-11T18:51:00","FM-15","7",,"ESE","1.5","mi","TEMP, PRECIP, SNOW",,,"PSY, SRG, SNOWBOARD",,,"FAA CWO",,,,,,,,,,,,,,,,,,,,,,,,,,,,"30.31","42","42","0.00","BR:1 ||","+0.04","8","100","30.30","FEW:02 50 BKN:07 250","30.29","6.00","42","130",,"7",,,,,,,,,,,,,,,,,,,,,,,,,,,,,,,,,,,,,"MET13101/11/18 18:51:02 METAR KJFK 112351Z 13006KT 6SM BR FEW050 BKN250 06/06 A3031 RMK AO2 SLP262 4/002 T00560056 10089 20050 58015 (RR)","FM-15","7",,,,,,,,,,,,,,,,,,,,,,,,,,,"2009-05-01"
"74486094789","2018-01-11T19:00:00","FM-12","4",,"ESE","1.5","mi","TEMP, PRECIP, SNOW",,,"PSY, SRG, SNOWBOARD",,,"FAA CWO",,,,,,,,,,,,,,,,,,,,,,,,,,,,,"42","42",,,"+0.04","8","100","30.30","57","30.28","5.59","42","130",,"7",,,,,,,,,,,,,,,,,,,,,,,,,,,,,,,,,,,,,"SYN09274486 31759 61306 10056 20056 30253 40262 58015 710// 92351 333 10089 20028 4/005 555 91200=","FM-12","4",,,,,,,,,,,,,,,,,,,,,,,,,,,"2009-05-01"
"74486094789","2018-01-11T19:48:00","FM-16","7",,"ESE","1.5","mi","TEMP, PRECIP, SNOW",,,"PSY, SRG, SNOWBOARD",,,"FAA CWO",,,,,,,,,,,,,,,,,,,,,,,,,,,,"30.29","43","43",,"BR:1 ||",,,"100",,"FEW:02 8 BKN:07 250","30.27","6.00","43","000",,"0",,,,,,,,,,,,,,,,,,,,,,,,,,,,,,,,,,,,,"MET08501/11/18 19:48:01 SPECI KJFK 120048Z 00000KT 6SM BR FEW008 BKN250 06/06 A3029 RMK AO2","FM-16","7",,,,,,,,,,,,,,,,,,,,,,,,,,,"2009-05-01"
"74486094789","2018-01-11T19:51:00","FM-15","7",,"ESE","1.5","mi","TEMP, PRECIP, SNOW",,,"PSY, SRG, SNOWBOARD",,,"FAA CWO",,,,,,,,,,,,,,,,,,,,,,,,,,,,"30.29","42","42","0.00","BR:1 ||",,,"100","30.29","FEW:02 8 BKN:07 250","30.27","6.00","42","000",,"0",,,,,,,,,,,,,,,,,,,,,,,,,,,,,,,,,,,,,"MET10201/11/18 19:51:01 METAR KJFK 120051Z 00000KT 6SM BR FEW008 BKN250 06/06 A3029 RMK AO2 SLP257 T00560056","FM-15","7",,,,,,,,,,,,,,,,,,,,,,,,,,,"2009-05-01"
"74486094789","2018-01-11T20:51:00","FM-15","7",,"ESE","1.5","mi","TEMP, PRECIP, SNOW",,,"PSY, SRG, SNOWBOARD",,,"FAA CWO",,,,,,,,,,,,,,,,,,,,,,,,,,,,"30.26","43","44","0.00",,,,"96","30.26","FEW:02 8 FEW:02 30 BKN:07 250","30.24","9.00","44","180",,"5",,,,,,,,,,,,,,,,,,,,,,,,,,,,,,,,,,,,,"MET10601/11/18 20:51:01 METAR KJFK 120151Z 18004KT 9SM FEW008 FEW030 BKN250 07/06 A3026 RMK AO2 SLP246 T00670061","FM-15","7",,,,,,,,,,,,,,,,,,,,,,,,,,,"2009-05-01"
"74486094789","2018-01-11T21:51:00","FM-15","7",,"ESE","1.5","mi","TEMP, PRECIP, SNOW",,,"PSY, SRG, SNOWBOARD",,,"FAA CWO",,,,,,,,,,,,,,,,,,,,,,,,,,,,"30.25","43","43","0.00",,"+0.06","6","100","30.24","FEW:02 14 BKN:07 250","30.22","10.00","43","180",,"8",,,,,,,,,,,,,,,,,,,,,,,,,,,,,,,,,,,,,"MET11401/11/18 21:51:02 METAR KJFK 120251Z 18007KT 10SM FEW014 BKN250 06/06 A3025 RMK AO2 VIS 2 W SLP242 T00610061 56021","FM-15","7",,,,,,,,,,,,,,,,,,,,,,,,,,,"2009-05-01"
"74486094789","2018-01-11T22:00:00","FM-12","4",,"ESE","1.5","mi","TEMP, PRECIP, SNOW",,,"PSY, SRG, SNOWBOARD",,,"FAA CWO",,,,,,,,,,,,,,,,,,,,,,,,,,,,,"43","43",,,"+0.06","6","100","30.24","15","30.22","9.94","43","180",,"8",,,,,,,,,,,,,,,,,,,,,,,,,,,,,,,,,,,,,"SYN06474486 32466 61807 10061 20061 30232 40242 56021 90251 555 91203=","FM-12","4",,,,,,,,,,,,,,,,,,,,,,,,,,,"2009-05-01"
"74486094789","2018-01-11T22:51:00","FM-15","7",,"ESE","1.5","mi","TEMP, PRECIP, SNOW",,,"PSY, SRG, SNOWBOARD",,,"FAA CWO",,,,,,,,,,,,,,,,,,,,,,,,,,,,"30.23","44","44","0.00",,,,"100","30.23","FEW:02 11 BKN:07 250","30.21","10.00","44","200",,"5",,,,,,,,,,,,,,,,,,,,,,,,,,,,,,,,,,,,,"MET10001/11/18 22:51:02 METAR KJFK 120351Z 20004KT 10SM FEW011 BKN250 07/07 A3023 RMK AO2 SLP236 T00670067","FM-15","7",,,,,,,,,,,,,,,,,,,,,,,,,,,"2009-05-01"
"74486094789","2018-01-11T23:51:00","FM-15","7",,"ESE","1.5","mi","TEMP, PRECIP, SNOW",,,"PSY, SRG, SNOWBOARD",,,"FAA CWO",,,,,,,,,,,,,,,,,,,,,,,,,,,,"30.20","44","44","0.00",,,,"100","30.19","FEW:02 11 SCT:04 32 BKN:07 55","30.17","8.00","44","000",,"0",,,,,,,,,,,,,,,,,,,,,,,,,,,,,,,,,,,,,"MET11601/11/18 23:51:02 METAR KJFK 120451Z 00000KT 8SM FEW011 SCT032 BKN055 07/07 A3020 RMK AO2 SLP225 T00670067 400890028","FM-15","7",,,,,,,,,,,,,,,,,,,,,,,,,,,"2009-05-01"
"74486094789","2018-01-11T23:59:00","SOD  ","6",,"ESE","1.5","mi","TEMP, PRECIP, SNOW",,,"PSY, SRG, SNOWBOARD",,,"FAA CWO",,,,,,"41","43","94","30.34","30.33","42","2.9","0","10.4","22","48","37","180","16","0.00","3","0.0","190","13","MIFG BR FG",,,,,,,,,,,,,,,,,,,,,,,,,,,,,,,,,,,,,,,,,,,,,,,,,,,,,,,"SOD75624 HR PRECIPITATION (IN): 0.00 SNOW DEPTH (IN):3     24 HR SNOWFALL (IN):0.0  WEATHER(CODE):1  24 HR MAX TEMP (F): 4824 HR MIN TEMP (F): 37AVERAGE STATION PRESSURE:30.330 MINIMUM SEA LEVEL PRESSURE:30.19 TIME OF OCCURRENCE:2359 PEAK WIND SPEED (MPH): 16 PEAK WIND DIR (DEG):180 PEAK WIND TIME (LST):      FASTEST 2MIN SPEED (MPH): 13FASTEST 2MIN DIR (DEG):190 FASTEST 2MIN TIME (LST):     AVERAGE WIND SPEED (MPH): 2.9 24 HR AVG TEMP (F): 43DEPART FROM NORMAL: 10  HEATING DEGREE DAYS: 22 COOLING DEGREE DAYS:  0 LATEST DAY MAX TEMP (0700-1900 LST):48  LATEST NIGHT MIN TEMP(1900-0800 LST):35 HOURLY INCREMENTAL PRECIPITATION VALUES (IN):.00 0.00 0.00 0.00 0.00 0.00 0.00 0.00 0.00 0.00 0.00 0.00 0.00 0.00 0.00 0.00 0.00 0.00 0.00 0.00 0.00 0.00 0.00 0.00","SOD  ","6",,,,,,,,,,,,,,,,,,,,,,,,,"0718","1648","2009-05-01"
"74486094789","2018-01-12T00:26:00","FM-16","7",,"ESE","1.5","mi","TEMP, PRECIP, SNOW",,,"PSY, SRG, SNOWBOARD",,,"FAA CWO",,,,,,,,,,,,,,,,,,,,,,,,,,,,"30.19","42","42",,"BR:1 ||",,,"100",,"BKN:07 4 OVC:08 18","30.16","2.50","42","250",,"6",,,,,,,,,,,,,,,,,,,,,,,,,,,,,,,,,,,,,"MET12201/12/18 00:26:02 SPECI KJFK 120526Z 25005KT 2 1/2SM R04R/2000VP6000FT BR BKN004 OVC018 06/06 A3019 RMK AO2 T00560056 (JC)","FM-16","7",,,,,,,,,,,,,,,,,,,,,,,,,,,"2009-05-01"
"74486094789","2018-01-12T00:28:00","FM-16","7",,"ESE","1.5","mi","TEMP, PRECIP, SNOW",,,"PSY, SRG, SNOWBOARD",,,"FAA CWO",,,,,,,,,,,,,,,,,,,,,,,,,,,,"30.19","42","42",,"BR:1 ||",,,"100",,"BKN:07 4 OVC:08 18","30.16","1.00","42","250",,"7",,,,,,,,,,,,,,,,,,,,,,,,,,,,,,,,,,,,,"MET14301/12/18 00:28:02 SPECI KJFK 120528Z 25006KT 1SM R04R/1400VP6000FT BR BKN004 OVC018 06/06 A3019 RMK AO2 SFC VIS 2 1/2 VIS NW-N 4 T00560056 (JC)","FM-16","7",,,,,,,,,,,,,,,,,,,,,,,,,,,"2009-05-01"
"74486094789","2018-01-12T00:51:00","FM-15","7",,"ESE","1.5","mi","TEMP, PRECIP, SNOW",,,"PSY, SRG, SNOWBOARD",,,"FAA CWO",,,,,,,,,,,,,,,,,,,,,,,,,,,,"30.18","45","45","0.00","BR:1 ||","+0.06","6","100","30.18","OVC:08 4","30.16","1.00","45","260",,"5",,,,,,,,,,,,,,,,,,,,,,,,,,,,,,,,,,,,,"MET16201/12/18 00:51:02 METAR KJFK 120551Z 26004KT 1SM R04R/2000V3500FT BR OVC004 07/07 A3018 RMK AO2 SFC VIS 2 SLP220 VIS NW-N 3 4/001 T00720072 10078 20050 56021 (JC)","FM-15","7",,,,,,,,,,,,,,,,,,,,,,,,,,,"2009-05-01"
"74486094789","2018-01-12T01:00:00","FM-12","4",,"ESE","1.5","mi","TEMP, PRECIP, SNOW",,,"PSY, SRG, SNOWBOARD",,,"FAA CWO",,,,,,,,,,,,,,,,,,,,,,,,,,,,,"45","45",,,"+0.06","6","100","30.18","5","30.15","0.99","45","260",,"5",,,,,,,,,,,,,,,,,,,,,,,,,,,,,,,,,,,,,"SYN09274486 31216 82604 10072 20072 30209 40220 56021 710// 90551 333 10078 20028 4/003 555 91206=","FM-12","4",,,,,,,,,,,,,,,,,,,,,,,,,,,"2009-05-01"
"74486094789","2018-01-12T01:18:00","FM-16","7",,"ESE","1.5","mi","TEMP, PRECIP, SNOW",,,"PSY, SRG, SNOWBOARD",,,"FAA CWO",,,,,,,,,,,,,,,,,,,,,,,,,,,,"30.17","45","45",,"FG:2 |FG |",,,"100",,"VV:09 2","30.14","0.25","45","000",,"0",,,,,,,,,,,,,,,,,,,,,,,,,,,,,,,,,,,,,"MET11101/12/18 01:18:02 SPECI KJFK 120618Z 00000KT 1/4SM R04R/1200V2000FT FG VV002 07/07 A3017 RMK AO2 T00720072 (JC)","FM-16","7",,,,,,,,,,,,,,,,,,,,,,,,,,,"2009-05-01"
"74486094789","2018-01-12T01:51:00","FM-15","7",,"ESE","1.5","mi","TEMP, PRECIP, SNOW",,,"PSY, SRG, SNOWBOARD",,,"FAA CWO",,,,,,,,,,,,,,,,,,,,,,,,,,,,"30.16","45","45","0.00","FG:2 |FG |",,,"100","30.16","VV:09 2","30.14","0.25","45","230",,"6",,,,,,,,,,,,,,,,,,,,,,,,,,,,,,,,,,,,,"MET11801/12/18 01:51:02 METAR KJFK 120651Z 23005KT 1/4SM R04R/0800V1200FT FG VV002 07/07 A3016 RMK AO2 SLP212 T00720072 (JC)","FM-15","7",,,,,,,,,,,,,,,,,,,,,,,,,,,"2009-05-01"
"74486094789","2018-01-12T02:51:00","FM-15","7",,"ESE","1.5","mi","TEMP, PRECIP, SNOW",,,"PSY, SRG, SNOWBOARD",,,"FAA CWO",,,,,,,,,,,,,,,,,,,,,,,,,,,,"30.14","42","42","0.00","FG:2 |FG |",,,"100","30.13","VV:09 2","30.11","0.25","42","240",,"3",,,,,,,,,,,,,,,,,,,,,,,,,,,,,,,,,,,,,"MET11801/12/18 02:51:02 METAR KJFK 120751Z 24003KT 1/4SM R04R/1200V1600FT FG VV002 06/06 A3014 RMK AO2 SLP204 T00560056 (JC)","FM-15","7",,,,,,,,,,,,,,,,,,,,,,,,,,,"2009-05-01"
"74486094789","2018-01-12T03:51:00","FM-15","7",,"ESE","1.5","mi","TEMP, PRECIP, SNOW",,,"PSY, SRG, SNOWBOARD",,,"FAA CWO",,,,,,,,,,,,,,,,,,,,,,,,,,,,"30.09","45","45","0.00","FG:2 |FG |","+0.09","8","100","30.09","VV:09 2","30.06","0.25","45","160",,"10",,,,,,,,,,,,,,,,,,,,,,,,,,,,,,,,,,,,,"MET12401/12/18 03:51:02 METAR KJFK 120851Z 16009KT 1/4SM R04R/1200V1600FT FG VV002 07/07 A3009 RMK AO2 SLP190 T00720072 58030 (JC)","FM-15","7",,,,,,,,,,,,,,,,,,,,,,,,,,,"2009-05-01"
"74486094789","2018-01-12T04:00:00","FM-12","4",,"ESE","1.5","mi","TEMP, PRECIP, SNOW",,,"PSY, SRG, SNOWBOARD",,,"FAA CWO",,,,,,,,,,,,,,,,,,,,,,,,,,,,,"45","45",,"||FG","+0.09","8","100","30.09","2","30.06","0.25","45","160",,"10",,,,,,,,,,,,,,,,,,,,,,,,,,,,,,,,,,,,,"SYN07074486 31104 91609 10072 20072 30178 40190 58030 741// 90851 555 91209=","FM-12","4",,,,,,,,,,,,,,,,,,,,,,,,,,,"2009-05-01"
"74486094789","2018-01-12T04:51:00","FM-15","7",,"ESE","1.5","mi","TEMP, PRECIP, SNOW",,,"PSY, SRG, SNOWBOARD",,,"FAA CWO",,,,,,,,,,,,,,,,,,,,,,,,,,,,"30.07","48","48","0.00","FG:2 |FG |",,,"100","30.07","VV:09 2","30.04","0.25","48","180",,"16",,,,,,,,,,,,,,,,,,,,,,,,,,,,,,,,,,,,,"MET11801/12/18 04:51:02 METAR KJFK 120951Z 18014KT 1/4SM R04R/1200V2000FT FG VV002 09/09 A3007 RMK AO2 SLP183 T00890089 (JC)","FM-15","7",,,,,,,,,,,,,,,,,,,,,,,,,,,"2009-05-01"
"74486094789","2018-01-12T05:36:00","FM-16","7",,"ESE","1.5","mi","TEMP, PRECIP, SNOW",,,"PSY, SRG, SNOWBOARD",,,"FAA CWO",,,,,,,,,,,,,,,,,,,,,,,,,,,,"30.05","50","50","T","FG:2 |FG |",,,"100",,"SCT:04 3 BKN:07 28 OVC:08 47","30.03","0.25","50","170",,"18",,,,,,,,,,,,,,,,,,,,,,,,,,,,,,,,,,,,,"MET16301/12/18 05:36:02 SPECI KJFK 121036Z 17016KT 1/4SM R04R/1600V4000FT FG SCT003 BKN028 OVC047 10/10 A3005 RMK AO2 SFC VIS 1/2 RAB13E25 CIG 002 W P0000 T01000100 (JC)","FM-16","7",,,,,,,,,,,,,,,,,,,,,,,,,,,"2009-05-01"
"74486094789","2018-01-12T05:44:00","FM-16","7",,"ESE","1.5","mi","TEMP, PRECIP, SNOW",,,"PSY, SRG, SNOWBOARD",,,"FAA CWO",,,,,,,,,,,,,,,,,,,,,,,,,,,,"30.04","50","50","T","BR:1 ||",,,"100",,"BKN:07 3 BKN:07 35 OVC:08 60","30.01","1.00","50","170",,"18",,,,,,,,,,,,,,,,,,,,,,,,,,,,,,,,,,,,,"MET16301/12/18 05:44:02 SPECI KJFK 121044Z 17016KT 1SM R04R/2000V5500FT BR BKN003 BKN035 OVC060 10/10 A3004 RMK AO2 SFC VIS 1 1/2 VIS 1/4 W RAB13E25 P0000 T01000100 (JC)","FM-16","7",,,,,,,,,,,,,,,,,,,,,,,,,,,"2009-05-01"
"74486094789","2018-01-12T05:51:00","FM-15","7",,"ESE","1.5","mi","TEMP, PRECIP, SNOW",,,"PSY, SRG, SNOWBOARD",,,"FAA CWO",,,,,,,,,,,,,,,,,,,,,,,,,,,,"30.04","50","50","T","BR:1 ||",,,"100","30.04","BKN:07 2 OVC:08 27","30.01","1.00","50","170",,"20",,,,,,,,,,,,,,,,,,,,,,,,,,,,,,,,,,,,,"MET14001/12/18 05:51:02 METAR KJFK 121051Z 17017KT 1SM R04R/4500VP6000FT BR BKN002 OVC027 10/10 A3004 RMK AO2 RAB13E25 SLP172 P0000 T01000100 (JC)","FM-15","7",,,,,,,,,,,,,,,,,,,,,,,,,,,"2009-05-01"
"74486094789","2018-01-12T06:29:00","FM-16","7",,"ESE","1.5","mi","TEMP, PRECIP, SNOW",,,"PSY, SRG, SNOWBOARD",,,"FAA CWO",,,,,,,,,,,,,,,,,,,,,,,,,,,,"30.03","51","51","0.01","-RA:02 BR:1 |RA |",,,"100",,"SCT:04 3 BKN:07 22 OVC:08 48","30.01","1.50","51","170",,"17",,,,,,,,,,,,,,,,,,,,,,,,,,,,,,,,,,,,,"MET17301/12/18 06:29:02 SPECI KJFK 121129Z 17015KT 1 1/2SM R04R/3000VP6000FT -RA BR SCT003 BKN022 OVC048 11/11 A3003 RMK AO2 PK WND 17026/1102 SFC VIS 3 RAB14 P0001 T01060106 (BH)","FM-16","7",,,,,,,,,,,,,,,,,,,,,,,,,,,"2009-05-01"
"74486094789","2018-01-12T06:46:00","FM-16","7",,"ESE","1.5","mi","TEMP, PRECIP, SNOW",,,"PSY, SRG, SNOWBOARD",,,"FAA CWO",,,,,,,,,,,,,,,,,,,,,,,,,,,,"30.02","50","50","0.01","BR:1 |s |",,,"100",,"BKN:07 3 OVC:08 29","30.00","0.25","50","170",,"17",,,,,,,,,,,,,,,,,,,,,,,,,,,,,,,,,,,,,"MET15701/12/18 06:46:02 SPECI KJFK 121146Z 17015KT 1/4SM R04R/3500VP6000FT BR BKN003 OVC029 10/10 A3002 RMK AO2 PK WND 17026/1102 SFC VIS 1 1/2 RAB14E44 P0001 (BH)","FM-16","7",,,,,,,,,,,,,,,,,,,,,,,,,,,"2009-05-01"
"74486094789","2018-01-12T06:51:00","FM-15","7",,"ESE","1.5","mi","TEMP, PRECIP, SNOW",,,"PSY, SRG, SNOWBOARD",,,"FAA CWO",,,,,,,,,,,,,,,,,,,,,,,,,,,,"30.02","50","50","0.01","BR:1 |s |","+0.08","8","100","30.01","BKN:07 3 BKN:07 29 OVC:08 44","30.00","0.25","50","170",,"16",,,,,,,,,,,,,,,,,,,,,,,,,,,,,,,,,,,,,"MET21701/12/18 06:51:02 METAR KJFK 121151Z 17014KT 1/4SM R04R/1600VP6000FT BR BKN003 BKN029 OVC044 10/10 A3002 RMK AO2 PK WND 17026/1102 SFC VIS 1 1/4 RAB14E44 SLP164 4/001 P0001 60001 70001 T01000100 10111 20056 58026 (BH)","FM-15","7",,,,,,,,,,,,,,,,,,,,,,,,,,,"2009-05-01"
"74486094789","2018-01-12T07:00:00","FM-12","4",,"ESE","1.5","mi","TEMP, PRECIP, SNOW",,,"PSY, SRG, SNOWBOARD",,,"FAA CWO",,,,,,,,,,,,,,,,,,,,,,,,,,,,,"50","50",,,"+0.08","8","100","30.01","2","29.99","0.25","50","170",,"16",,,,,,,,,,,,,,,,,,,,,,,,,,,,,,,,,,,,,"SYN10474486 11104 81714 10100 20100 30155 40164 58026 69931 710// 91151 333 10089 20050 4/003 70003 555 91212=","FM-12","4",,,,,,,,,,,,,,,,,,,,,,,,,,,"2009-05-01"
"74486094789","2018-01-12T07:01:00","FM-16","7",,"ESE","1.5","mi","TEMP, PRECIP, SNOW",,,"PSY, SRG, SNOWBOARD",,,"FAA CWO",,,,,,,,,,,,,,,,,,,,,,,,,,,,"30.01","49","49",,"BR:1 |s |",,,"100",,"VV:09 3","29.98","0.25","49","180",,"16",,,,,,,,,,,,,,,,,,,,,,,,,,,,,,,,,,,,,"MET12301/12/18 07:01:02 SPECI KJFK 121201Z 18014KT 1/4SM R04R/1000V2200FT BR VV003 09/09 A3001 RMK AO2 SFC VIS 3/4 T00940094 (BH)","FM-16","7",,,,,,,,,,,,,,,,,,,,,,,,,,,"2009-05-01"
"74486094789","2018-01-12T07:07:00","FM-16","7",,"ESE","1.5","mi","TEMP, PRECIP, SNOW",,,"PSY, SRG, SNOWBOARD",,,"FAA CWO",,,,,,,,,,,,,,,,,,,,,,,,,,,,"30.01","50","50",,"BR:1 |s |",,,"100",,"VV:09 3","29.98","0.25","50","180",,"16",,,,,,,,,,,,,,,,,,,,,,,,,,,,,,,,,,,,,"MET12301/12/18 07:07:02 SPECI KJFK 121207Z 18014KT 1/4SM R04R/1400V2600FT BR VV003 10/10 A3001 RMK AO2 SFC VIS 3/4 T01000100 (BH)","FM-16","7",,,,,,,,,,,,,,,,,,,,,,,,,,,"2009-05-01"
"74486094789","2018-01-12T07:17:00","FM-16","7",,"ESE","1.5","mi","TEMP, PRECIP, SNOW",,,"PSY, SRG, SNOWBOARD",,,"FAA CWO",,,,,,,,,,,,,,,,,,,,,,,,,,,,"30.00","50","50",,"BR:1 |s |",,,"100",,"OVC:08 3","29.98","0.25","50","180",,"17",,,,,,,,,,,,,,,,,,,,,,,,,,,,,,,,,,,,,"MET13601/12/18 07:17:02 SPECI KJFK 121217Z 18015KT 1/4SM R04R/1200V2200FT BR OVC003 10/10 A3000 RMK AO2 SFC VIS 1 1/4 VIS 1/4 W T01000100 (BH)","FM-16","7",,,,,,,,,,,,,,,,,,,,,,,,,,,"2009-05-01"
"74486094789","2018-01-12T07:23:00","FM-16","7",,"ESE","1.5","mi","TEMP, PRECIP, SNOW",,,"PSY, SRG, SNOWBOARD",,,"FAA CWO",,,,,,,,,,,,,,,,,,,,,,,,,,,,"30.00","50","50",,"BR:1 |s |",,,"100",,"VV:09 3","29.98","0.25","50","170",,"20",,,,,,,,,,,,,,,,,,,,,,,,,,,,,,,,,,,,,"MET12101/12/18 07:23:02 SPECI KJFK 121223Z 17017KT 1/4SM R04R/1200V2600FT BR VV003 10/10 A3000 RMK AO2 SFC VIS 1 T01000100 (BH)","FM-16","7",,,,,,,,,,,,,,,,,,,,,,,,,,,"2009-05-01"
"74486094789","2018-01-12T07:44:00","FM-16","7",,"ESE","1.5","mi","TEMP, PRECIP, SNOW",,,"PSY, SRG, SNOWBOARD",,,"FAA CWO",,,,,,,,,,,,,,,,,,,,,,,,,,,,"30.00","49","49","T","FG:2 |FG |",,,"100",,"VV:09 2","29.98","0.25","49","160",,"14",,,,,,,,,,,,,,,,,,,,,,,,,,,,,,,,,,,,,"MET13801/12/18 07:44:02 SPECI KJFK 121244Z 16012KT 1/4SM R04R/1200V2200FT FG VV002 09/09 A3000 RMK AO2 SFC VIS 1/2 RAB36E40 P0000 T00940094 (BH)","FM-16","7",,,,,,,,,,,,,,,,,,,,,,,,,,,"2009-05-01"
"74486094789","2018-01-12T07:51:00","FM-15","7",,"ESE","1.5","mi","TEMP, PRECIP, SNOW",,,"PSY, SRG, SNOWBOARD",,,"FAA CWO",,,,,,,,,,,,,,,,,,,,,,,,,,,,"30.00","50","50","T","FG:2 |FG |",,,"100","29.99","VV:09 2","29.98","0.25","50","160",,"18",,,,,,,,,,,,,,,,,,,,,,,,,,,,,,,,,,,,,"MET14501/12/18 07:51:02 METAR KJFK 121251Z 16016KT 1/4SM R04R/1200V1800FT FG VV002 10/10 A3000 RMK AO2 SFC VIS 1/2 RAB36E40 SLP157 P0000 T01000100 (BH)","FM-15","7",,,,,,,,,,,,,,,,,,,,,,,,,,,"2009-05-01"
"74486094789","2018-01-12T08:51:00","FM-15","7",,"ESE","1.5","mi","TEMP, PRECIP, SNOW",,,"PSY, SRG, SNOWBOARD",,,"FAA CWO",,,,,,,,,,,,,,,,,,,,,,,,,,,,"29.97","50","50","0.01","FG:2 |FG |",,,"100","29.97","VV:09 2","29.95","0.25","50","170",,"16",,,,,,,,,,,,,,,,,,,,,,,,,,,,,,,,,,,,,"MET13301/12/18 08:51:02 METAR KJFK 121351Z 17014KT 1/4SM R04R/0800V1400FT FG VV002 10/10 A2997 RMK AO2 RAB07E48 SLP150 P0001 T01000100 (BH)","FM-15","7",,,,,,,,,,,,,,,,,,,,,,,,,,,"2009-05-01"
"74486094789","2018-01-12T09:51:00","FM-15","7",,"ESE","1.5","mi","TEMP, PRECIP, SNOW",,,"PSY, SRG, SNOWBOARD",,,"FAA CWO",,,,,,,,,,,,,,,,,,,,,,,,,,,,"29.96","54","54","0.01","-RA:02 FG:2 |FG RA |","+0.06","6","100","29.96","VV:09 2","29.93","0.25","54","170","38","26",,,,,,,,,,,,,,,,,,,,,,,,,,,,,,,,,,,,,"MET16701/12/18 09:51:02 METAR KJFK 121451Z 17023G33KT 1/4SM R04R/1200V1600FT -RA FG VV002 12/12 A2996 RMK AO2 PK WND 17033/1448 RAB11 SLP145 P0001 60002 T01220122 56019 (BH)","FM-15","7",,,,,,,,,,,,,,,,,,,,,,,,,,,"2009-05-01"
"74486094789","2018-01-12T10:00:00","FM-12","4",,"ESE","1.5","mi","TEMP, PRECIP, SNOW",,,"PSY, SRG, SNOWBOARD",,,"FAA CWO",,,,,,,,,,,,,,,,,,,,,,,,,,,,,"54","54",,"||RA","+0.06","6","100","29.96",,"29.93","0.25","54","170",,"26",,,,,,,,,,,,,,,,,,,,,,,,,,,,,,,,,,,,,"SYN09274486 11104 /1723 10122 20122 30134 40145 56019 69957 761// 91451 333 91033 96041 555 91215=","FM-12","4",,,,,,,,,,,,,,,,,,,,,,,,,,,"2009-05-01"
"74486094789","2018-01-12T10:12:00","FM-16","7",,"ESE","1.5","mi","TEMP, PRECIP, SNOW",,,"PSY, SRG, SNOWBOARD",,,"FAA CWO",,,,,,,,,,,,,,,,,,,,,,,,,,,,"29.96","52","52","T","FG:2 |FG s |",,,"100",,"VV:09 2","29.93","0.12","52","190",,"23",,,,,,,,,,,,,,,,,,,,,,,,,,,,,,,,,,,,,"MET14301/12/18 10:12:02 SPECI KJFK 121512Z 19020KT 1/8SM R04R/0600V0800FT FG VV002 11/11 A2996 RMK AO2 PK WND 18029/1455 RAE1454 P0000 T01110111 (BH)","FM-16","7",,,,,,,,,,,,,,,,,,,,,,,,,,,"2009-05-01"
"74486094789","2018-01-12T10:51:00","FM-15","7",,"ESE","1.5","mi","TEMP, PRECIP, SNOW",,,"PSY, SRG, SNOWBOARD",,,"FAA CWO",,,,,,,,,,,,,,,,,,,,,,,,,,,,"29.94","50","50","T","FG:2 |FG s |",,,"100","29.94","VV:09 2","29.91","0.12","50","200",,"17",,,,,,,,,,,,,,,,,,,,,,,,,,,,,,,,,,,,,"MET15601/12/18 10:51:02 METAR KJFK 121551Z 20015KT 1/8SM R04R/0600V0700FT FG VV002 10/10 A2994 RMK AO2 PK WND 18029/1455 RAE1454B17E44 SLP139 P0000 T01000100 (BH)","FM-15","7",,,,,,,,,,,,,,,,,,,,,,,,,,,"2009-05-01"
"74486094789","2018-01-12T11:51:00","FM-15","7",,"ESE","1.5","mi","TEMP, PRECIP, SNOW",,,"PSY, SRG, SNOWBOARD",,,"FAA CWO",,,,,,,,,,,,,,,,,,,,,,,,,,,,"29.90","48","48","0.02","-RA:02 FG:2 |FG s RA s |",,,"100","29.90","VV:09 2","29.88","0.12","48","190",,"15",,,,,,,,,,,,,,,,,,,,,,,,,,,,,,,,,,,,,"MET14601/12/18 11:51:02 METAR KJFK 121651Z 19013KT 1/8SM R04R/0800V1000FT -RA FG VV002 09/09 A2990 RMK AO2 SFC VIS 1/4 RAB06 SLP126 P0002 T00890089 (BH)","FM-15","7",,,,,,,,,,,,,,,,,,,,,,,,,,,"2009-05-01"
"74486094789","2018-01-12T12:18:00","FM-16","7",,"ESE","1.5","mi","TEMP, PRECIP, SNOW",,,"PSY, SRG, SNOWBOARD",,,"FAA CWO",,,,,,,,,,,,,,,,,,,,,,,,,,,,"29.88","48","48","0.03","+RA:02 FG:2 |FG s RA s |",,,"100",,"VV:09 2","29.85","0.12","48","200",,"17",,,,,,,,,,,,,,,,,,,,,,,,,,,,,,,,,,,,,"MET13301/12/18 12:18:02 SPECI KJFK 121718Z 20015KT 1/8SM R04R/1000V2600FT +RA FG VV002 09/09 A2988 RMK AO2 SFC VIS 1/4 P0003 T00890089 (BH)","FM-16","7",,,,,,,,,,,,,,,,,,,,,,,,,,,"2009-05-01"
"74486094789","2018-01-12T12:20:00","FM-16","7",,"ESE","1.5","mi","TEMP, PRECIP, SNOW",,,"PSY, SRG, SNOWBOARD",,,"FAA CWO",,,,,,,,,,,,,,,,,,,,,,,,,,,,"29.87","49","49","0.04","+RA:02 FG:2 |FG s RA s |",,,"100",,"VV:09 2","29.85","0.12","49","210",,"21",,,,,,,,,,,,,,,,,,,,,,,,,,,,,,,,,,,,,"MET13301/12/18 12:20:02 SPECI KJFK 121720Z 21018KT 1/8SM R04R/1000V2600FT +RA FG VV002 09/09 A2987 RMK AO2 SFC VIS 1/2 P0004 T00940094 (BH)","FM-16","7",,,,,,,,,,,,,,,,,,,,,,,,,,,"2009-05-01"
"74486094789","2018-01-12T12:43:00","FM-16","7",,"ESE","1.5","mi","TEMP, PRECIP, SNOW",,,"PSY, SRG, SNOWBOARD",,,"FAA CWO",,,,,,,,,,,,,,,,,,,,,,,,,,,,"29.86","52","52","0.14","-RA:02 FG:2 |FG s RA s |",,,"100",,"VV:09 2","29.83","0.12","52","190",,"26",,,,,,,,,,,,,,,,,,,,,,,,,,,,,,,,,,,,,"MET15101/12/18 12:43:02 SPECI KJFK 121743Z 19023KT 1/8SM R04R/1400V2000FT -RA FG VV002 11/11 A2986 RMK AO2 PK WND 20029/1728 SFC VIS 1/2 P0014 T01110111 (BH)","FM-16","7",,,,,,,,,,,,,,,,,,,,,,,,,,,"2009-05-01"
"74486094789","2018-01-12T12:51:00","FM-15","7",,"ESE","1.5","mi","TEMP, PRECIP, SNOW",,,"PSY, SRG, SNOWBOARD",,,"FAA CWO",,,,,,,,,,,,,,,,,,,,,,,,,,,,"29.86","51","51","0.15","-RA:02 FG:2 |FG s RA s |","+0.10","8","100","29.86","VV:09 2","29.83","0.12","51","190",,"24",,,,,,,,,,,,,,,,,,,,,,,,,,,,,,,,,,,,,"MET18201/12/18 12:51:02 METAR KJFK 121751Z 19021KT 1/8SM R04R/1200V1800FT -RA FG VV002 11/11 A2986 RMK AO2 PK WND 20029/1728 SFC VIS 1/2 SLP113 P0014 60018 T01060106 10122 20078 58033 (BH)","FM-15","7",,,,,,,,,,,,,,,,,,,,,,,,,,,"2009-05-01"
"74486094789","2018-01-12T13:00:00","FM-12","4",,"ESE","1.5","mi","TEMP, PRECIP, SNOW",,,"PSY, SRG, SNOWBOARD",,,"FAA CWO",,,,,,,,,,,,,,,,,,,,,,,,,,,,,"51","51",,"||RA","+0.10","8","100","29.86",,"29.83","0.12","51","190",,"24",,,,,,,,,,,,,,,,,,,,,,,,,,,,,,,,,,,,,"SYN09874486 11102 /1921 10106 20106 30100 40113 58033 60051 761// 91751 333 10122 20050 96041 555 91218=","FM-12","4",,,,,,,,,,,,,,,,,,,,,,,,,,,"2009-05-01"
"74486094789","2018-01-12T13:51:00","FM-15","7",,"ESE","1.5","mi","TEMP, PRECIP, SNOW",,,"PSY, SRG, SNOWBOARD",,,"FAA CWO",,,,,,,,,,,,,,,,,,,,,,,,,,,,"29.83","50","50","0.01","-RA:02 FG:2 |FG s RA s |",,,"100","29.83","VV:09 2","29.80","0.12","50","180",,"23",,,,,,,,,,,,,,,,,,,,,,,,,,,,,,,,,,,,,"MET14601/12/18 13:51:02 METAR KJFK 121851Z 18020KT 1/8SM R04R/0700V0800FT -RA FG VV002 10/10 A2983 RMK AO2 PK WND 19028/1808 SLP100 P0002 T01000100 (BH)","FM-15","7",,,,,,,,,,,,,,,,,,,,,,,,,,,"2009-05-01"
"74486094789","2018-01-12T14:51:00","FM-15","7",,"ESE","1.5","mi","TEMP, PRECIP, SNOW",,,"PSY, SRG, SNOWBOARD",,,"FAA CWO",,,,,,,,,,,,,,,,,,,,,,,,,,,,"29.80","51","51","0.01","FG:2 |FG s |",,,"100","29.80","VV:09 2","29.78","0.12","51","180",,"21",,,,,,,,,,,,,,,,,,,,,,,,,,,,,,,,,,,,,"MET13001/12/18 14:51:02 METAR KJFK 121951Z 18018KT 1/8SM R04R/0800V1000FT FG VV002 11/11 A2980 RMK AO2 RAE50 SLP090 P0001 T01060106 (RR)","FM-15","7",,,,,,,,,,,,,,,,,,,,,,,,,,,"2009-05-01"
"74486094789","2018-01-12T15:51:00","FM-15","7",,"ESE","1.5","mi","TEMP, PRECIP, SNOW",,,"PSY, SRG, SNOWBOARD",,,"FAA CWO",,,,,,,,,,,,,,,,,,,,,,,,,,,,"29.77","47","47","0.02","-RA:02 FG:2 |FG s RA s |","+0.09","6","100","29.77","VV:09 2","29.75","0.12","47","190",,"13",,,,,,,,,,,,,,,,,,,,,,,,,,,,,,,,,,,,,"MET15801/12/18 15:51:02 METAR KJFK 122051Z 19011KT 1/8SM R04R/1200V1400FT -RA FG VV002 08/08 A2977 RMK AO2 SFC VIS 1/4 RAB06 SLP082 P0002 60005 T00830083 56031 (RR)","FM-15","7",,,,,,,,,,,,,,,,,,,,,,,,,,,"2009-05-01"
"74486094789","2018-01-12T16:00:00","FM-12","4",,"ESE","1.5","mi","TEMP, PRECIP, SNOW",,,"PSY, SRG, SNOWBOARD",,,"FAA CWO",,,,,,,,,,,,,,,,,,,,,,,,,,,,,"47","47",,"||RA","+0.09","6","100","29.77",,"29.74","0.12","47","190",,"13",,,,,,,,,,,,,,,,,,,,,,,,,,,,,,,,,,,,,"SYN08674486 11102 /1911 10083 20083 30070 40082 56031 60017 761// 92051 333 96041 555 91221=","FM-12","4",,,,,,,,,,,,,,,,,,,,,,,,,,,"2009-05-01"
"74486094789","2018-01-12T16:51:00","FM-15","7",,"ESE","1.5","mi","TEMP, PRECIP, SNOW",,,"PSY, SRG, SNOWBOARD",,,"FAA CWO",,,,,,,,,,,,,,,,,,,,,,,,,,,,"29.76","50","50","T","-RA:02 FG:2 |FG s RA s |",,,"100","29.76","VV:09 2","29.74","0.12","50","190","28","21",,,,,,,,,,,,,,,,,,,,,,,,,,,,,,,,,,,,,"MET14001/12/18 16:51:02 METAR KJFK 122151Z 19018G24KT 1/8SM R04R/1200V1400FT -RA FG VV002 10/10 A2976 RMK AO2 RAE07B40 SLP078 P0000 T01000100 (RR)","FM-15","7",,,,,,,,,,,,,,,,,,,,,,,,,,,"2009-05-01"
"74486094789","2018-01-12T17:47:00","FM-16","7",,"ESE","1.5","mi","TEMP, PRECIP, SNOW",,,"PSY, SRG, SNOWBOARD",,,"FAA CWO",,,,,,,,,,,,,,,,,,,,,,,,,,,,"29.76","48","48","T","FG:2 |FG s |",,,"100",,"VV:09 1","29.74","0.12","48","180","26","18",,,,,,,,,,,,,,,,,,,,,,,,,,,,,,,,,,,,,"MET11601/12/18 17:47:02 SPECI KJFK 122247Z 18016G23KT 1/8SM R04R/1200V1400FT FG VV001 09/09 A2976 RMK AO2 RAE01 P0000 (RR)","FM-16","7",,,,,,,,,,,,,,,,,,,,,,,,,,,"2009-05-01"
"74486094789","2018-01-12T17:51:00","FM-15","7",,"ESE","1.5","mi","TEMP, PRECIP, SNOW",,,"PSY, SRG, SNOWBOARD",,,"FAA CWO",,,,,,,,,,,,,,,,,,,,,,,,,,,,"29.76","49","49","T","FG:2 |FG s |",,,"100","29.75","VV:09 1","29.74","0.12","49","190","26","17",,,,,,,,,,,,,,,,,,,,,,,,,,,,,,,,,,,,,"MET13301/12/18 17:51:02 METAR KJFK 122251Z 19015G23KT 1/8SM R04R/1200V1400FT FG VV001 09/09 A2976 RMK AO2 RAE01 SLP076 P0000 T00940094 (RR)","FM-15","7",,,,,,,,,,,,,,,,,,,,,,,,,,,"2009-05-01"
"74486094789","2018-01-12T18:51:00","FM-15","7",,"ESE","1.5","mi","TEMP, PRECIP, SNOW",,,"PSY, SRG, SNOWBOARD",,,"FAA CWO",,,,,,,,,,,,,,,,,,,,,,,,,,,,"29.74","48","48","0.00","FG:2 |FG s |","+0.03","8","100","29.74","VV:09 1","29.72","0.12","48","180",,"13",,,,,,,,,,,,,,,,,,,,,,,,,,,,,,,,,,,,,"MET15401/12/18 18:51:02 METAR KJFK 122351Z 18011KT 1/8SM R04R/1600V2000FT FG VV001 09/09 A2974 RMK AO2 SFC VIS 1/4 SLP071 60005 T00890089 10111 20083 58010 (RR)","FM-15","7",,,,,,,,,,,,,,,,,,,,,,,,,,,"2009-05-01"
"74486094789","2018-01-12T19:00:00","FM-12","4",,"ESE","1.5","mi","TEMP, PRECIP, SNOW",,,"PSY, SRG, SNOWBOARD",,,"FAA CWO",,,,,,,,,,,,,,,,,,,,,,,,,,,,,"48","48",,"||FG","+0.03","8","100","29.74","1","29.71","0.12","48","180",,"13",,,,,,,,,,,,,,,,,,,,,,,,,,,,,,,,,,,,,"SYN09274486 11002 91811 10089 20089 30060 40071 58010 60011 741// 92351 333 10122 20056 555 91300=","FM-12","4",,,,,,,,,,,,,,,,,,,,,,,,,,,"2009-05-01"
"74486094789","2018-01-12T19:36:00","FM-16","7",,"ESE","1.5","mi","TEMP, PRECIP, SNOW",,,"PSY, SRG, SNOWBOARD",,,"FAA CWO",,,,,,,,,,,,,,,,,,,,,,,,,,,,"29.72","48","48","T","-RA:02 FG:2 |FG s RA s |",,,"100",,"VV:09 1","29.70","0.12","48","180",,"14",,,,,,,,,,,,,,,,,,,,,,,,,,,,,,,,,,,,,"MET14001/12/18 19:36:01 SPECI KJFK 130036Z 18012KT 1/8SM R04R/1600V2600FT -RA FG VV001 09/09 A2972 RMK AO2 SFC VIS 1/4 RAB01E12B29 P0000 T00890089","FM-16","7",,,,,,,,,,,,,,,,,,,,,,,,,,,"2009-05-01"
"74486094789","2018-01-12T19:51:00","FM-15","7",,"ESE","1.5","mi","TEMP, PRECIP, SNOW",,,"PSY, SRG, SNOWBOARD",,,"FAA CWO",,,,,,,,,,,,,,,,,,,,,,,,,,,,"29.72","48","48","0.01","-RA:02 FG:2 |FG s RA s |",,,"100","29.71","VV:09 1","29.70","0.12","48","180",,"13",,,,,,,,,,,,,,,,,,,,,,,,,,,,,,,,,,,,,"MET14701/12/18 19:51:01 METAR KJFK 130051Z 18011KT 1/8SM R04R/2200V3500FT -RA FG VV001 09/09 A2972 RMK AO2 SFC VIS 1/4 RAB01E12B29 SLP062 P0001 T00890089","FM-15","7",,,,,,,,,,,,,,,,,,,,,,,,,,,"2009-05-01"
"74486094789","2018-01-12T20:13:00","FM-16","7",,"ESE","1.5","mi","TEMP, PRECIP, SNOW",,,"PSY, SRG, SNOWBOARD",,,"FAA CWO",,,,,,,,,,,,,,,,,,,,,,,,,,,,"29.69","48","48","T","FG:2 |FG s |",,,"100",,"VV:09 1","29.67","0.12","48","180",,"11",,,,,,,,,,,,,,,,,,,,,,,,,,,,,,,,,,,,,"MET13001/12/18 20:13:01 SPECI KJFK 130113Z 18010KT 1/8SM R04R/1800V2000FT FG VV001 09/09 A2969 RMK AO2 SFC VIS 1/4 RAE08 P0000 T00890089","FM-16","7",,,,,,,,,,,,,,,,,,,,,,,,,,,"2009-05-01"
"74486094789","2018-01-12T20:30:00","FM-16","7",,"ESE","1.5","mi","TEMP, PRECIP, SNOW",,,"PSY, SRG, SNOWBOARD",,,"FAA CWO",,,,,,,,,,,,,,,,,,,,,,,,,,,,"29.69","49","49","T","-RA:02 BR:1 |RA |",,,"100",,"VV:09 1","29.67","0.12","49","180",,"15",,,,,,,,,,,,,,,,,,,,,,,,,,,,,,,,,,,,,"MET13701/12/18 20:30:01 SPECI KJFK 130130Z 18013KT 1/8SM R04R/1800V2800FT -RA BR VV001 09/09 A2969 RMK AO2 SFC VIS 3/4 RAE08B24 P0000 T00940094","FM-16","7",,,,,,,,,,,,,,,,,,,,,,,,,,,"2009-05-01"
"74486094789","2018-01-12T20:42:00","FM-16","7",,"ESE","1.5","mi","TEMP, PRECIP, SNOW",,,"PSY, SRG, SNOWBOARD",,,"FAA CWO",,,,,,,,,,,,,,,,,,,,,,,,,,,,"29.69","49","49","T","FG:2 |FG s |",,,"100",,"VV:09 1","29.67","0.12","49","180",,"17",,,,,,,,,,,,,,,,,,,,,,,,,,,,,,,,,,,,,"MET13601/12/18 20:42:01 SPECI KJFK 130142Z 18015KT 1/8SM R04R/1800V2200FT FG VV001 09/09 A2969 RMK AO2 SFC VIS 1/2 RAE08B24E37 P0000 T00940094","FM-16","7",,,,,,,,,,,,,,,,,,,,,,,,,,,"2009-05-01"
"74486094789","2018-01-12T20:49:00","FM-16","6",,"ESE","1.5","mi","TEMP, PRECIP, SNOW",,,"PSY, SRG, SNOWBOARD",,,"FAA CWO",,,,,,,,,,,,,,,,,,,,,,,,,,,,"29.69","48","48",,"FG:2 |FG s |",,,"100",,"VV:09 1","29.67","0.12","48","170",,"17",,,,,,,,,,,,,,,,,,,,,,,,,,,,,,,,,,,,,"MET13601/12/18 20:49:03 SPECI KJFK 130149Z 17015KT 1/8SM R04R/1800V2800FT FG VV001 09/09 A2969 RMK AO2 SFC VIS 1/4 RAE08B24E37 P0000 FIBI (RR)","FM-16","6",,,,,,,,,,,,,,,,,,,,,,,,,,,"2009-05-01"
"74486094789","2018-01-12T20:51:00","FM-15","7",,"ESE","1.5","mi","TEMP, PRECIP, SNOW",,,"PSY, SRG, SNOWBOARD",,,"FAA CWO",,,,,,,,,,,,,,,,,,,,,,,,,,,,"29.68","49","49","T","FG:2 |FG s |",,,"100","29.68","VV:09 1","29.65","0.12","49","170",,"17",,,,,,,,,,,,,,,,,,,,,,,,,,,,,,,,,,,,,"MET14301/12/18 20:51:01 METAR KJFK 130151Z 17015KT 1/8SM R04R/1800V2800FT FG VV001 09/09 A2968 RMK AO2 SFC VIS 1/4 RAE08B24E37 SLP051 P0000 T00940094","FM-15","7",,,,,,,,,,,,,,,,,,,,,,,,,,,"2009-05-01"
"74486094789","2018-01-12T21:44:00","FM-16","7",,"ESE","1.5","mi","TEMP, PRECIP, SNOW",,,"PSY, SRG, SNOWBOARD",,,"FAA CWO",,,,,,,,,,,,,,,,,,,,,,,,,,,,"29.65","50","50","0.01","-RA:02 FG:2 |FG s RA s |",,,"100",,"VV:09 1","29.62","0.12","50","170",,"17",,,,,,,,,,,,,,,,,,,,,,,,,,,,,,,,,,,,,"MET13401/12/18 21:44:01 SPECI KJFK 130244Z 17015KT 1/8SM R04R/1200V1600FT -RA FG VV001 10/10 A2965 RMK AO2 SFC VIS 1/2 RAB01 P0001 T01000100","FM-16","7",,,,,,,,,,,,,,,,,,,,,,,,,,,"2009-05-01"
"74486094789","2018-01-12T21:51:00","FM-15","7",,"ESE","1.5","mi","TEMP, PRECIP, SNOW",,,"PSY, SRG, SNOWBOARD",,,"FAA CWO",,,,,,,,,,,,,,,,,,,,,,,,,,,,"29.64","50","50","0.04","-RA:02 FG:2 |FG s RA s |","+0.11","8","100","29.64","VV:09 1","29.62","0.12","50","170",,"16",,,,,,,,,,,,,,,,,,,,,,,,,,,,,,,,,,,,,"MET15301/12/18 21:51:02 METAR KJFK 130251Z 17014KT 1/8SM R04R/1200V1600FT -RA FG VV001 10/10 A2964 RMK AO2 SFC VIS 1/4 RAB01 SLP036 P0003 60004 T01000100 58036","FM-15","7",,,,,,,,,,,,,,,,,,,,,,,,,,,"2009-05-01"
"74486094789","2018-01-12T22:00:00","FM-12","4",,"ESE","1.5","mi","TEMP, PRECIP, SNOW",,,"PSY, SRG, SNOWBOARD",,,"FAA CWO",,,,,,,,,,,,,,,,,,,,,,,,,,,,,"50","50",,"||RA","+0.11","8","100","29.64",,"29.61","0.12","50","170",,"16",,,,,,,,,,,,,,,,,,,,,,,,,,,,,,,,,,,,,"SYN08674486 11002 /1714 10100 20100 30026 40036 58036 60017 761// 90251 333 96041 555 91303=","FM-12","4",,,,,,,,,,,,,,,,,,,,,,,,,,,"2009-05-01"
"74486094789","2018-01-12T22:14:00","FM-16","7",,"ESE","1.5","mi","TEMP, PRECIP, SNOW",,,"PSY, SRG, SNOWBOARD",,,"FAA CWO",,,,,,,,,,,,,,,,,,,,,,,,,,,,"29.62","51","51","0.05","RA:02 FG:2 |FG s RA s |",,,"100",,"VV:09 1","29.59","0.12","51","180",,"17",,,,,,,,,,,,,,,,,,,,,,,,,,,,,,,,,,,,,"MET12701/12/18 22:14:02 SPECI KJFK 130314Z 18015KT 1/8SM R04R/1600V4000FT RA FG VV001 11/11 A2962 RMK AO2 SFC VIS 1/2 P0005 T01060106","FM-16","7",,,,,,,,,,,,,,,,,,,,,,,,,,,"2009-05-01"
"74486094789","2018-01-12T22:51:00","FM-15","7",,"ESE","1.5","mi","TEMP, PRECIP, SNOW",,,"PSY, SRG, SNOWBOARD",,,"FAA CWO",,,,,,,,,,,,,,,,,,,,,,,,,,,,"29.60","51","51","0.13","FG:2 |FG s |",,,"100","29.59","VV:09 1","29.57","0.12","51","180",,"18",,,,,,,,,,,,,,,,,,,,,,,,,,,,,,,,,,,,,"MET13701/12/18 22:51:02 METAR KJFK 130351Z 18016KT 1/8SM R04R/1800V3500FT FG VV001 11/11 A2960 RMK AO2 SFC VIS 1/4 RAE46 SLP022 P0014 T01060106","FM-15","7",,,,,,,,,,,,,,,,,,,,,,,,,,,"2009-05-01"
"74486094789","2018-01-12T23:11:00","FM-16","7",,"ESE","1.5","mi","TEMP, PRECIP, SNOW",,,"PSY, SRG, SNOWBOARD",,,"FAA CWO",,,,,,,,,,,,,,,,,,,,,,,,,,,,"29.59","51","51","T","-RA:02 FG:2 |FG s RA s |",,,"100",,"VV:09 1","29.57","0.12","51","180",,"22",,,,,,,,,,,,,,,,,,,,,,,,,,,,,,,,,,,,,"MET13601/12/18 23:11:02 SPECI KJFK 130411Z 18019KT 1/8SM R04R/1400V1800FT -RA FG VV001 11/11 A2959 RMK AO2 SFC VIS 1/4 RAB0356 P0000 T01060106","FM-16","7",,,,,,,,,,,,,,,,,,,,,,,,,,,"2009-05-01"
"74486094789","2018-01-12T23:49:00","FM-16","6",,"ESE","1.5","mi","TEMP, PRECIP, SNOW",,,"PSY, SRG, SNOWBOARD",,,"FAA CWO",,,,,,,,,,,,,,,,,,,,,,,,,,,,"29.55","50","50",,"-RA:02 FG:2 |FG s RA s |",,,"100",,"VV:09 2","29.52","0.12","50","170",,"22",,,,,,,,,,,,,,,,,,,,,,,,,,,,,,,,,,,,,"MET15401/12/18 23:49:03 SPECI KJFK 130449Z 17019KT 1/8SM R04R/1800V2600FT -RA FG VV002 10/10 A2955 RMK AO2 PK WND 17027/0428 SFC VIS 1/4 RAB0356 P0003 FIBI (DM)","FM-16","6",,,,,,,,,,,,,,,,,,,,,,,,,,,"2009-05-01"
"74486094789","2018-01-12T23:51:00","FM-15","7",,"ESE","1.5","mi","TEMP, PRECIP, SNOW",,,"PSY, SRG, SNOWBOARD",,,"FAA CWO",,,,,,,,,,,,,,,,,,,,,,,,,,,,"29.55","50","50","0.03","-RA:02 FG:2 |FG s RA s |",,,"100","29.55","VV:09 2","29.52","0.12","50","170",,"22",,,,,,,,,,,,,,,,,,,,,,,,,,,,,,,,,,,,,"MET17101/12/18 23:51:02 METAR KJFK 130451Z 17019KT 1/8SM R04R/1800V2600FT -RA FG VV002 10/10 A2955 RMK AO2 PK WND 17027/0428 SFC VIS 1/4 RAB0356 SLP006 P0003 T01000100 401220056","FM-15","7",,,,,,,,,,,,,,,,,,,,,,,,,,,"2009-05-01"
"74486094789","2018-01-12T23:59:00","SOD  ","6",,"ESE","1.5","mi","TEMP, PRECIP, SNOW",,,"PSY, SRG, SNOWBOARD",,,"FAA CWO",,,,,,"49","48","100","29.88","29.93","49","16.1","0","15.5","17","54","42","170","38","0.45","1","0.0","170","29","RA FG BR",,,,,,,,,,,,,,,,,,,,,,,,,,,,,,,,,,,,,,,,,,,,,,,,,,,,,,,"SOD78424 HR PRECIPITATION (IN): 0.45 SNOW DEPTH (IN):1     24 HR SNOWFALL (IN):0.0  WEATHER(CODE):12  24 HR MAX TEMP (F): 5424 HR MIN TEMP (F): 42AVERAGE STATION PRESSURE:29.925 MINIMUM SEA LEVEL PRESSURE:29.55 TIME OF OCCURRENCE:2359 PEAK WIND SPEED (MPH): 38 PEAK WIND DIR (DEG):170 PEAK WIND TIME (LST):      FASTEST 2MIN SPEED (MPH): 29FASTEST 2MIN DIR (DEG):170 FASTEST 2MIN TIME (LST):     AVERAGE WIND SPEED (MPH):16.1 24 HR AVG TEMP (F): 48DEPART FROM NORMAL: 16  SKY COVER SR-SS (TENTHS): 1HEATING DEGREE DAYS: 17 COOLING DEGREE DAYS:  0 LATEST DAY MAX TEMP (0700-1900 LST):54  LATEST NIGHT MIN TEMP(1900-0800 LST):41 HOURLY INCREMENTAL PRECIPITATION VALUES (IN):.00 0.00 0.00 0.00 0.00 T    0.01 T    0.01 0.01 T    0.02 0.15 0.01 0.01 0.02 T    T    0.00 0.01 T    0.04 0.13 0.03","SOD  ","6",,,,,,,,,,,,,,,,,,,,,,,,,"0718","1649","2009-05-01"
"74486094789","2018-01-13T00:51:00","FM-15","7",,"ESE","1.5","mi","TEMP, PRECIP, SNOW",,,"PSY, SRG, SNOWBOARD",,,"FAA CWO",,,,,,,,,,,,,,,,,,,,,,,,,,,,"29.53","50","50","0.02","FG:2 |FG s |","+0.11","6","100","29.53","VV:09 2","29.51","0.12","50","180",,"21",,,,,,,,,,,,,,,,,,,,,,,,,,,,,,,,,,,,,"MET18401/13/18 00:51:02 METAR KJFK 130551Z 18018KT 1/8SM R04R/1400V1800FT FG VV002 10/10 A2953 RMK AO2 PK WND 19027/0540 SFC VIS 1/4 RAE20 SLP999 P0002 60023 T01000100 10106 20083 56037 (DM)","FM-15","7",,,,,,,,,,,,,,,,,,,,,,,,,,,"2009-05-01"
"74486094789","2018-01-13T01:00:00","FM-12","4",,"ESE","1.5","mi","TEMP, PRECIP, SNOW",,,"PSY, SRG, SNOWBOARD",,,"FAA CWO",,,,,,,,,,,,,,,,,,,,,,,,,,,,,"50","50",,,,,"100",,"2","29.50","0.12","50","180",,"21",,,,,,,,,,,,,,,,,,,,,,,,,,,,,,,,,,,,,"SYN09174486 11102 91818 10100 20100 39989 4999 56037 60061 741// 90551 333 10111 20056 555 91306=","FM-12","4",,,,,,,,,,,,,,,,,,,,,,,,,,,"2009-05-01"
"74486094789","2018-01-13T01:51:00","FM-15","7",,"ESE","1.5","mi","TEMP, PRECIP, SNOW",,,"PSY, SRG, SNOWBOARD",,,"FAA CWO",,,,,,,,,,,,,,,,,,,,,,,,,,,,"29.50","49","49","T","-RA:02 FG:2 |FG s RA s |",,,"100","29.49","VV:09 2","29.48","0.12","49","180",,"16",,,,,,,,,,,,,,,,,,,,,,,,,,,,,,,,,,,,,"MET14101/13/18 01:51:02 METAR KJFK 130651Z 18014KT 1/8SM R04R/1200FT -RA FG VV002 09/09 A2950 RMK AO2 SFC VIS 1/4 RAB29 SLP988 P0000 T00940094 (DM)","FM-15","7",,,,,,,,,,,,,,,,,,,,,,,,,,,"2009-05-01"
"74486094789","2018-01-13T02:51:00","FM-15","7",,"ESE","1.5","mi","TEMP, PRECIP, SNOW",,,"PSY, SRG, SNOWBOARD",,,"FAA CWO",,,,,,,,,,,,,,,,,,,,,,,,,,,,"29.44","49","49","0.01","-RA:02 FG:2 |FG s RA s |",,,"100","29.44","VV:09 2","29.41","0.12","49","170",,"15",,,,,,,,,,,,,,,,,,,,,,,,,,,,,,,,,,,,,"MET14601/13/18 02:51:02 METAR KJFK 130751Z 17013KT 1/8SM R04R/1200FT -RA FG VV002 09/09 A2944 RMK AO2 SFC VIS 1/4 RAE0653B42 SLP970 P0000 T00940094 (DM)","FM-15","7",,,,,,,,,,,,,,,,,,,,,,,,,,,"2009-05-01"
"74486094789","2018-01-13T03:49:00","FM-16","6",,"ESE","1.5","mi","TEMP, PRECIP, SNOW",,,"PSY, SRG, SNOWBOARD",,,"FAA CWO",,,,,,,,,,,,,,,,,,,,,,,,,,,,"29.34","50","50",,"-RA:02 FG:2 |FG s RA s |",,,"100",,"VV:09 2","29.31","0.12","50","140",,"20",,,,,,,,,,,,,,,,,,,,,,,,,,,,,,,,,,,,,"MET12801/13/18 03:49:02 SPECI KJFK 130849Z 14017KT 1/8SM R04R/2200V3500FT -RA FG VV002 10/10 A2934 RMK AO2 SFC VIS 1/2 P0005 FIBI (DM)","FM-16","6",,,,,,,,,,,,,,,,,,,,,,,,,,,"2009-05-01"
"74486094789","2018-01-13T03:51:00","FM-15","7",,"ESE","1.5","mi","TEMP, PRECIP, SNOW",,,"PSY, SRG, SNOWBOARD",,,"FAA CWO",,,,,,,,,,,,,,,,,,,,,,,,,,,,"29.33","50","50","0.05","-RA:02 FG:2 |FG s RA s |","+0.20","8","100",,"VV:09 2","29.31","0.12","50","140",,"16",,,,,,,,,,,,,,,,,,,,,,,,,,,,,,,,,,,,,"MET15901/13/18 03:51:02 METAR KJFK 130851Z 14014KT 1/8SM R04R/1600V2800FT -RA FG VV002 10/10 A2933 RMK AO2 SFC VIS 1/4 PRESFR SLP930 P0005 60005 T01000100 58069 (DM)","FM-15","7",,,,,,,,,,,,,,,,,,,,,,,,,,,"2009-05-01"
"74486094789","2018-01-13T04:00:00","FM-12","4",,"ESE","1.5","mi","TEMP, PRECIP, SNOW",,,"PSY, SRG, SNOWBOARD",,,"FAA CWO",,,,,,,,,,,,,,,,,,,,,,,,,,,,,"50","50",,"||RA","+0.20","8","100","29.32",,"29.30","0.12","50","140",,"16",,,,,,,,,,,,,,,,,,,,,,,,,,,,,,,,,,,,,"SYN08674486 11102 /1414 10100 20100 39921 49930 58069 60017 761// 90851 333 96041 555 91309=","FM-12","4",,,,,,,,,,,,,,,,,,,,,,,,,,,"2009-05-01"
"74486094789","2018-01-13T04:49:00","FM-16","6",,"ESE","1.5","mi","TEMP, PRECIP, SNOW",,,"PSY, SRG, SNOWBOARD",,,"FAA CWO",,,,,,,,,,,,,,,,,,,,,,,,,,,,"29.36","48","48",,"FG:2 |FG s |",,,"100",,"VV:09 2","29.34","0.12","48","190","38","31",,,,,,,,,,,,,,,,,,,,,,,,,,,,,,,,,,,,,"MET15101/13/18 04:49:02 SPECI KJFK 130949Z 19027G33KT 1/8SM R04R/1400V1600FT FG VV002 09/09 A2936 RMK AO2 PK WND 18035/0932 SFC VIS 1/4 RAE06 P0001 FIBI (DM)","FM-16","6",,,,,,,,,,,,,,,,,,,,,,,,,,,"2009-05-01"
"74486094789","2018-01-13T04:51:00","FM-15","7",,"ESE","1.5","mi","TEMP, PRECIP, SNOW",,,"PSY, SRG, SNOWBOARD",,,"FAA CWO",,,,,,,,,,,,,,,,,,,,,,,,,,,,"29.36","49","49","T","FG:2 |FG s |",,,"100","29.36","VV:09 2","29.34","0.12","49","190","38","30",,,,,,,,,,,,,,,,,,,,,,,,,,,,,,,,,,,,,"MET16301/13/18 04:51:02 METAR KJFK 130951Z 19026G33KT 1/8SM R04R/1400V1600FT FG VV002 09/09 A2936 RMK AO2 PK WND 18035/0932 SFC VIS 1/4 RAE06 SLP942 P0001 T00940094 (DM)","FM-15","7",,,,,,,,,,,,,,,,,,,,,,,,,,,"2009-05-01"
"74486094789","2018-01-13T05:38:00","FM-16","7",,"ESE","1.5","mi","TEMP, PRECIP, SNOW",,,"PSY, SRG, SNOWBOARD",,,"FAA CWO",,,,,,,,,,,,,,,,,,,,,,,,,,,,"29.39","45","45",,"FG:2 |FG s |",,,"100",,"VV:09 2","29.36","0.12","45","180","32","25",,,,,,,,,,,,,,,,,,,,,,,,,,,,,,,,,,,,,"MET14401/13/18 05:38:02 SPECI KJFK 131038Z 18022G28KT 1/8SM R04R/1800V2600FT FG VV002 07/07 A2939 RMK AO2 PK WND 19033/0954 SFC VIS 1/4 T00720072 (DM)","FM-16","7",,,,,,,,,,,,,,,,,,,,,,,,,,,"2009-05-01"
"74486094789","2018-01-13T05:51:00","FM-15","7",,"ESE","1.5","mi","TEMP, PRECIP, SNOW",,,"PSY, SRG, SNOWBOARD",,,"FAA CWO",,,,,,,,,,,,,,,,,,,,,,,,,,,,"29.41","45","45","0.00","FG:2 |FG s |",,,"100","29.41","VV:09 2","29.39","0.12","45","190",,"24",,,,,,,,,,,,,,,,,,,,,,,,,,,,,,,,,,,,,"MET15501/13/18 05:51:02 METAR KJFK 131051Z 19021KT 1/8SM R04R/2200V2600FT FG VV002 07/07 A2941 RMK AO2 PK WND 19033/0954 SFC VIS 1/4 PRESRR SLP958 T00720072 (DM)","FM-15","7",,,,,,,,,,,,,,,,,,,,,,,,,,,"2009-05-01"
"74486094789","2018-01-13T06:37:00","FM-16","7",,"ESE","1.5","mi","TEMP, PRECIP, SNOW",,,"PSY, SRG, SNOWBOARD",,,"FAA CWO",,,,,,,,,,,,,,,,,,,,,,,,,,,,"29.47","45","45",,"BR:1 ||",,,"100",,"FEW:02 2 SCT:04 17 BKN:07 29","29.44","3.00","45","190",,"22",,,,,,,,,,,,,,,,,,,,,,,,,,,,,,,,,,,,,"MET14201/13/18 06:37:02 SPECI KJFK 131137Z 19019KT 3SM BR FEW002 SCT017 BKN029 07/07 A2947 RMK AO2 PK WND 18027/1120 CIG 021 W PRESRR T00720072 (MM)","FM-16","7",,,,,,,,,,,,,,,,,,,,,,,,,,,"2009-05-01"
"74486094789","2018-01-13T06:51:00","FM-15","7",,"ESE","1.5","mi","TEMP, PRECIP, SNOW",,,"PSY, SRG, SNOWBOARD",,,"FAA CWO",,,,,,,,,,,,,,,,,,,,,,,,,,,,"29.49","45","45","0.00",,"-0.16","3","100","29.49","SCT:04 9 BKN:07 18 OVC:08 30","29.47","9.00","45","290","31","17",,,,,,,,,,,,,,,,,,,,,,,,,,,,,,,,,,,,,"MET18301/13/18 06:51:02 METAR KJFK 131151Z 29015G27KT 9SM SCT009 BKN018 OVC030 07/07 A2949 RMK AO2 PK WND 18027/1120 WSHFT 1137 CIG 009 W SLP985 60006 70052 T00720072 10117 20067 53054 (MM)","FM-15","7",,,,,,,,,,,,,,,,,,,,,,,,,,,"2009-05-01"
"74486094789","2018-01-13T06:58:00","FM-16","7",,"ESE","1.5","mi","TEMP, PRECIP, SNOW",,,"PSY, SRG, SNOWBOARD",,,"FAA CWO",,,,,,,,,,,,,,,,,,,,,,,,,,,,"29.51","46","46",,,,,"100",,"SCT:04 10 BKN:07 15 OVC:08 25","29.49","10.00","46","310",,"17",,,,,,,,,,,,,,,,,,,,,,,,,,,,,,,,,,,,,"MET12301/13/18 06:58:02 SPECI KJFK 131158Z 31015KT 10SM SCT010 BKN015 OVC025 08/08 A2951 RMK AO2 WSHFT 1144 PRESRR T00780078 (MM)","FM-16","7",,,,,,,,,,,,,,,,,,,,,,,,,,,"2009-05-01"
"74486094789","2018-01-13T07:00:00","FM-12","4",,"ESE","1.5","mi","TEMP, PRECIP, SNOW",,,"PSY, SRG, SNOWBOARD",,,"FAA CWO",,,,,,,,,,,,,,,,,,,,,,,,,,,,,"45","45",,,"-0.16","3","100","29.49","8","29.46","8.70","45","290",,"17",,,,,,,,,,,,,,,,,,,,,,,,,,,,,,,,,,,,,"SYN09874486 12364 82915 10072 20072 39975 49985 53054 60021 91151 333 10122 20067 70132 91027 555 91312=","FM-12","4",,,,,,,,,,,,,,,,,,,,,,,,,,,"2009-05-01"
"74486094789","2018-01-13T07:05:00","FM-16","7",,"ESE","1.5","mi","TEMP, PRECIP, SNOW",,,"PSY, SRG, SNOWBOARD",,,"FAA CWO",,,,,,,,,,,,,,,,,,,,,,,,,,,,"29.52","46","46",,,,,"100",,"FEW:02 8 OVC:08 14","29.49","10.00","46","310",,"20",,,,,,,,,,,,,,,,,,,,,,,,,,,,,,,,,,,,,"MET11601/13/18 07:05:02 SPECI KJFK 131205Z 31017KT 10SM FEW008 OVC014 08/08 A2952 RMK AO2 WSHFT 1144 PRESRR T00780078 (MM)","FM-16","7",,,,,,,,,,,,,,,,,,,,,,,,,,,"2009-05-01"
"74486094789","2018-01-13T07:14:00","FM-16","7",,"ESE","1.5","mi","TEMP, PRECIP, SNOW",,,"PSY, SRG, SNOWBOARD",,,"FAA CWO",,,,,,,,,,,,,,,,,,,,,,,,,,,,"29.55","45","46",,,,,"96",,"FEW:02 8 OVC:08 15","29.52","10.00","46","290","24","20",,,,,,,,,,,,,,,,,,,,,,,,,,,,,,,,,,,,,"MET11901/13/18 07:14:02 SPECI KJFK 131214Z 29017G21KT 10SM FEW008 OVC015 08/07 A2955 RMK AO2 WSHFT 1144 PRESRR T00780072 (MM)","FM-16","7",,,,,,,,,,,,,,,,,,,,,,,,,,,"2009-05-01"
"74486094789","2018-01-13T07:49:00","FM-16","6",,"ESE","1.5","mi","TEMP, PRECIP, SNOW",,,"PSY, SRG, SNOWBOARD",,,"FAA CWO",,,,,,,,,,,,,,,,,,,,,,,,,,,,"29.62","39","41",,,,,"93",,"OVC:08 14","29.59","10.00","40","290","30","24",,,,,,,,,,,,,,,,,,,,,,,,,,,,,,,,,,,,,"MET12501/13/18 07:49:02 SPECI KJFK 131249Z 29021G26KT 10SM OVC014 05/04 A2962 RMK AO2 PK WND 29028/1227 WSHFT 1144 PRESRR FIBI (MM)","FM-16","6",,,,,,,,,,,,,,,,,,,,,,,,,,,"2009-05-01"
"74486094789","2018-01-13T07:51:00","FM-15","7",,"ESE","1.5","mi","TEMP, PRECIP, SNOW",,,"PSY, SRG, SNOWBOARD",,,"FAA CWO",,,,,,,,,,,,,,,,,,,,,,,,,,,,"29.62","39","41","0.00",,,,"93","29.62","BKN:07 14 OVC:08 20","29.59","10.00","40","290","30","25",,,,,,,,,,,,,,,,,,,,,,,,,,,,,,,,,,,,,"MET14401/13/18 07:51:02 METAR KJFK 131251Z 29022G26KT 10SM BKN014 OVC020 05/04 A2962 RMK AO2 PK WND 29028/1227 WSHFT 1144 PRESRR SLP029 T00500039 (MM)","FM-15","7",,,,,,,,,,,,,,,,,,,,,,,,,,,"2009-05-01"
"74486094789","2018-01-13T08:03:00","FM-16","7",,"ESE","1.5","mi","TEMP, PRECIP, SNOW",,,"PSY, SRG, SNOWBOARD",,,"FAA CWO",,,,,,,,,,,,,,,,,,,,,,,,,,,,"29.65","36","40",,,,,"86",,"OVC:08 16","29.62","10.00","38","300","33","22",,,,,,,,,,,,,,,,,,,,,,,,,,,,,,,,,,,,,"MET11901/13/18 08:03:02 SPECI KJFK 131303Z 30019G29KT 10SM OVC016 04/02 A2965 RMK AO2 PK WND 30029/1256 PRESRR T00440022 (MM)","FM-16","7",,,,,,,,,,,,,,,,,,,,,,,,,,,"2009-05-01"
"74486094789","2018-01-13T08:51:00","FM-15","7",,"ESE","1.5","mi","TEMP, PRECIP, SNOW",,,"PSY, SRG, SNOWBOARD",,,"FAA CWO",,,,,,,,,,,,,,,,,,,,,,,,,,,,"29.74","28","34","0.00",,,,"79","29.73","BKN:07 18 BKN:07 30 BKN:07 250","29.72","10.00","32","290","28","17",,,,,,,,,,,,,,,,,,,,,,,,,,,,,,,,,,,,,"MET14101/13/18 08:51:02 METAR KJFK 131351Z 29015G24KT 10SM BKN018 BKN030 BKN250 01/M02 A2974 RMK AO2 PK WND 32030/1307 PRESRR SLP069 T00111022 (MM)","FM-15","7",,,,,,,,,,,,,,,,,,,,,,,,,,,"2009-05-01"
"74486094789","2018-01-13T09:20:00","FM-16","7",,"ESE","1.5","mi","TEMP, PRECIP, SNOW",,,"PSY, SRG, SNOWBOARD",,,"FAA CWO",,,,,,,,,,,,,,,,,,,,,,,,,,,,"29.76","24","32",,,,,"73",,"SCT:04 22 BKN:07 75 BKN:07 250","29.74","10.00","29","300","28","20",,,,,,,,,,,,,,,,,,,,,,,,,,,,,,,,,,,,,"MET12701/13/18 09:20:02 SPECI KJFK 131420Z 30017G24KT 10SM SCT022 BKN075 BKN250 00/M04 A2976 RMK AO2 PK WND 32027/1409 T00001044 (MM)","FM-16","7",,,,,,,,,,,,,,,,,,,,,,,,,,,"2009-05-01"
"74486094789","2018-01-13T09:51:00","FM-15","7",,"ESE","1.5","mi","TEMP, PRECIP, SNOW",,,"PSY, SRG, SNOWBOARD",,,"FAA CWO",,,,,,,,,,,,,,,,,,,,,,,,,,,,"29.80","21","31","0.00",,"-0.31","1","67","29.80","SCT:04 24 BKN:07 55 BKN:07 75","29.78","10.00","28","300",,"26",,,,,,,,,,,,,,,,,,,,,,,,,,,,,,,,,,,,,"MET13801/13/18 09:51:02 METAR KJFK 131451Z 30023KT 10SM SCT024 BKN055 BKN075 M01/M06 A2980 RMK AO2 PK WND 32027/1409 SLP090 T10061061 51105 (MM)","FM-15","7",,,,,,,,,,,,,,,,,,,,,,,,,,,"2009-05-01"
"74486094789","2018-01-13T10:00:00","FM-12","4",,"ESE","1.5","mi","TEMP, PRECIP, SNOW",,,"PSY, SRG, SNOWBOARD",,,"FAA CWO",,,,,,,,,,,,,,,,,,,,,,,,,,,,,"21","31",,,"-0.31","1","67","29.80","26","29.77","9.94","28","300",,"26",,,,,,,,,,,,,,,,,,,,,,,,,,,,,,,,,,,,,"SYN06474486 32566 63023 11006 21061 30080 40090 51105 91451 555 91315=","FM-12","4",,,,,,,,,,,,,,,,,,,,,,,,,,,"2009-05-01"
"74486094789","2018-01-13T10:51:00","FM-15","7",,"ESE","1.5","mi","TEMP, PRECIP, SNOW",,,"PSY, SRG, SNOWBOARD",,,"FAA CWO",,,,,,,,,,,,,,,,,,,,,,,,,,,,"29.86","18","31","0.00",,,,"59","29.85","FEW:02 35 BKN:07 70 BKN:07 250","29.83","10.00","27","310","31","25",,,,,,,,,,,,,,,,,,,,,,,,,,,,,,,,,,,,,"MET13501/13/18 10:51:02 METAR KJFK 131551Z 31022G27KT 10SM FEW035 BKN070 BKN250 M01/M08 A2986 RMK AO2 PK WND 31030/1532 SLP109 T10061078 (MM)","FM-15","7",,,,,,,,,,,,,,,,,,,,,,,,,,,"2009-05-01"
"74486094789","2018-01-13T11:19:00","FM-16","7",,"ESE","1.5","mi","TEMP, PRECIP, SNOW",,,"PSY, SRG, SNOWBOARD",,,"FAA CWO",,,,,,,,,,,,,,,,,,,,,,,,,,,,"29.87","18","30",,,,,"61",,"BKN:07 29 BKN:07 75 BKN:07 250","29.85","10.00","26","310",,"22",,,,,,,,,,,,,,,,,,,,,,,,,,,,,,,,,,,,,"MET12501/13/18 11:19:02 SPECI KJFK 131619Z 31019KT 10SM BKN029 BKN075 BKN250 M01/M08 A2987 RMK AO2 PK WND 33028/1608 T10111078 (MM)","FM-16","7",,,,,,,,,,,,,,,,,,,,,,,,,,,"2009-05-01"
"74486094789","2018-01-13T11:29:00","FM-16","7",,"ESE","1.5","mi","TEMP, PRECIP, SNOW",,,"PSY, SRG, SNOWBOARD",,,"FAA CWO",,,,,,,,,,,,,,,,,,,,,,,,,,,,"29.87","19","32",,,,,"59",,"SCT:04 29 SCT:04 150 SCT:04 250","29.85","10.00","28","320","26","16",,,,,,,,,,,,,,,,,,,,,,,,,,,,,,,,,,,,,"MET12701/13/18 11:29:02 SPECI KJFK 131629Z 32014G23KT 10SM SCT029 SCT150 SCT250 00/M07 A2987 RMK AO2 PK WND 33028/1608 T00001072 (MM)","FM-16","7",,,,,,,,,,,,,,,,,,,,,,,,,,,"2009-05-01"
"74486094789","2018-01-13T11:51:00","FM-15","7",,"ESE","1.5","mi","TEMP, PRECIP, SNOW",,,"PSY, SRG, SNOWBOARD",,,"FAA CWO",,,,,,,,,,,,,,,,,,,,,,,,,,,,"29.87","19","32","0.00",,,,"59","29.87","FEW:02 30 SCT:04 150 SCT:04 250","29.85","10.00","28","330","31","23",,,,,,,,,,,,,,,,,,,,,,,,,,,,,,,,,,,,,"MET13401/13/18 11:51:02 METAR KJFK 131651Z 33020G27KT 10SM FEW030 SCT150 SCT250 00/M07 A2987 RMK AO2 PK WND 33028/1608 SLP116 T00001072 (MM)","FM-15","7",,,,,,,,,,,,,,,,,,,,,,,,,,,"2009-05-01"
"74486094789","2018-01-13T12:51:00","FM-15","7",,"ESE","1.5","mi","TEMP, PRECIP, SNOW",,,"PSY, SRG, SNOWBOARD",,,"FAA CWO",,,,,,,,,,,,,,,,,,,,,,,,,,,,"29.92","20","34","0.00",,"-0.12","1","56","29.91","FEW:02 30 SCT:04 150 SCT:04 250","29.90","10.00","29","320","24","20",,,,,,,,,,,,,,,,,,,,,,,,,,,,,,,,,,,,,"MET13401/13/18 12:51:02 METAR KJFK 131751Z 32017G21KT 10SM FEW030 SCT150 SCT250 01/M07 A2992 RMK AO2 SLP130 T00111067 10078 21011 51040 (MM)","FM-15","7",,,,,,,,,,,,,,,,,,,,,,,,,,,"2009-05-01"
"74486094789","2018-01-13T13:00:00","FM-12","4",,"ESE","1.5","mi","TEMP, PRECIP, SNOW",,,"PSY, SRG, SNOWBOARD",,,"FAA CWO",,,,,,,,,,,,,,,,,,,,,,,,,,,,,"20","34",,,"-0.12","1","56","29.91","26","29.89","9.94","29","320",,"20",,,,,,,,,,,,,,,,,,,,,,,,,,,,,,,,,,,,,"SYN08674486 32566 43217 10011 21067 30121 40130 51040 91751 333 10117 21011 91021 555 91318=","FM-12","4",,,,,,,,,,,,,,,,,,,,,,,,,,,"2009-05-01"
"74486094789","2018-01-13T13:51:00","FM-15","7",,"ESE","1.5","mi","TEMP, PRECIP, SNOW",,,"PSY, SRG, SNOWBOARD",,,"FAA CWO",,,,,,,,,,,,,,,,,,,,,,,,,,,,"29.96","19","35","0.00",,,,"52","29.96","SCT:04 150","29.93","10.00","30","340","23","13",,,,,,,,,,,,,,,,,,,,,,,,,,,,,,,,,,,,,"MET10201/13/18 13:51:02 METAR KJFK 131851Z 34011G20KT 10SM SCT150 02/M07 A2996 RMK AO2 SLP144 T00171072 (MM)","FM-15","7",,,,,,,,,,,,,,,,,,,,,,,,,,,"2009-05-01"
"74486094789","2018-01-13T14:51:00","FM-15","7",,"ESE","1.5","mi","TEMP, PRECIP, SNOW",,,"PSY, SRG, SNOWBOARD",,,"FAA CWO",,,,,,,,,,,,,,,,,,,,,,,,,,,,"30.01","18","34","0.00",,,,"52","30.01","FEW:02 150","29.98","10.00","29","320",,"17",,,,,,,,,,,,,,,,,,,,,,,,,,,,,,,,,,,,,"MET09901/13/18 14:51:02 METAR KJFK 131951Z 32015KT 10SM FEW150 01/M08 A3001 RMK AO2 SLP163 T00111078 (RG)","FM-15","7",,,,,,,,,,,,,,,,,,,,,,,,,,,"2009-05-01"
"74486094789","2018-01-13T15:51:00","FM-15","7",,"ESE","1.5","mi","TEMP, PRECIP, SNOW",,,"PSY, SRG, SNOWBOARD",,,"FAA CWO",,,,,,,,,,,,,,,,,,,,,,,,,,,,"30.07","17","33","0.00",,"-0.15","3","52","30.06","FEW:02 100","30.04","10.00","28","310",,"20",,,,,,,,,,,,,,,,,,,,,,,,,,,,,,,,,,,,,"MET12301/13/18 15:51:02 METAR KJFK 132051Z 31017KT 10SM FEW100 01/M08 A3007 RMK AO2 PK WND 31026/2020 SLP180 T00061083 53050 (RG)","FM-15","7",,,,,,,,,,,,,,,,,,,,,,,,,,,"2009-05-01"
"74486094789","2018-01-13T16:00:00","FM-12","4",,"ESE","1.5","mi","TEMP, PRECIP, SNOW",,,"PSY, SRG, SNOWBOARD",,,"FAA CWO",,,,,,,,,,,,,,,,,,,,,,,,,,,,,"17","33",,,"-0.15","3","52","30.06",,"30.04","9.94","28","310",,"20",,,,,,,,,,,,,,,,,,,,,,,,,,,,,,,,,,,,,"SYN06474486 32966 23117 10006 21083 30172 40180 53050 92051 555 91321=","FM-12","4",,,,,,,,,,,,,,,,,,,,,,,,,,,"2009-05-01"
"74486094789","2018-01-13T16:51:00","FM-15","7",,"ESE","1.5","mi","TEMP, PRECIP, SNOW",,,"PSY, SRG, SNOWBOARD",,,"FAA CWO",,,,,,,,,,,,,,,,,,,,,,,,,,,,"30.11","15","30","0.00",,,,"54","30.11","FEW:02 90","30.09","10.00","25","320","31","23",,,,,,,,,,,,,,,,,,,,,,,,,,,,,,,,,,,,,"MET12101/13/18 16:51:02 METAR KJFK 132151Z 32020G27KT 10SM FEW090 M01/M09 A3011 RMK AO2 PK WND 30029/2141 SLP195 T10111094 (RG)","FM-15","7",,,,,,,,,,,,,,,,,,,,,,,,,,,"2009-05-01"
"74486094789","2018-01-13T17:51:00","FM-15","7",,"ESE","1.5","mi","TEMP, PRECIP, SNOW",,,"PSY, SRG, SNOWBOARD",,,"FAA CWO",,,,,,,,,,,,,,,,,,,,,,,,,,,,"30.17","13","27","0.00",,,,"55","30.17","FEW:02 90","30.14","10.00","23","310","28","18",,,,,,,,,,,,,,,,,,,,,,,,,,,,,,,,,,,,,"MET12101/13/18 17:51:02 METAR KJFK 132251Z 31016G24KT 10SM FEW090 M03/M11 A3017 RMK AO2 PK WND 31029/2207 SLP216 T10281106 (RG)","FM-15","7",,,,,,,,,,,,,,,,,,,,,,,,,,,"2009-05-01"
"74486094789","2018-01-13T18:51:00","FM-15","7",,"ESE","1.5","mi","TEMP, PRECIP, SNOW",,,"PSY, SRG, SNOWBOARD",,,"FAA CWO",,,,,,,,,,,,,,,,,,,,,,,,,,,,"30.21","12","26","0.00",,"-0.15","1","55","30.21","FEW:02 90","30.19","10.00","22","320",,"23",,,,,,,,,,,,,,,,,,,,,,,,,,,,,,,,,,,,,"MET13601/13/18 18:51:02 METAR KJFK 132351Z 32020KT 10SM FEW090 M03/M11 A3021 RMK AO2 PK WND 32027/2325 SLP231 T10331111 10022 21033 51050 (RG)","FM-15","7",,,,,,,,,,,,,,,,,,,,,,,,,,,"2009-05-01"
"74486094789","2018-01-13T19:00:00","FM-12","4",,"ESE","1.5","mi","TEMP, PRECIP, SNOW",,,"PSY, SRG, SNOWBOARD",,,"FAA CWO",,,,,,,,,,,,,,,,,,,,,,,,,,,,,"12","26",,,"-0.15","1","55","30.21",,"30.18","9.94","22","320",,"23",,,,,,,,,,,,,,,,,,,,,,,,,,,,,,,,,,,,,"SYN08074486 32966 23220 11033 21111 30219 40231 51050 92351 333 10078 21033 555 91400=","FM-12","4",,,,,,,,,,,,,,,,,,,,,,,,,,,"2009-05-01"
"74486094789","2018-01-13T19:51:00","FM-15","7",,"ESE","1.5","mi","TEMP, PRECIP, SNOW",,,"PSY, SRG, SNOWBOARD",,,"FAA CWO",,,,,,,,,,,,,,,,,,,,,,,,,,,,"30.26","10","24","0.00",,,,"55","30.26","CLR:00","30.24","10.00","20","320",,"25",,,,,,,,,,,,,,,,,,,,,,,,,,,,,,,,,,,,,"MET11001/13/18 19:51:01 METAR KJFK 140051Z 32022KT 10SM CLR M04/M12 A3026 RMK AO2 PK WND 32029/2356 SLP247 T10441122","FM-15","7",,,,,,,,,,,,,,,,,,,,,,,,,,,"2009-05-01"
"74486094789","2018-01-13T20:51:00","FM-15","7",,"ESE","1.5","mi","TEMP, PRECIP, SNOW",,,"PSY, SRG, SNOWBOARD",,,"FAA CWO",,,,,,,,,,,,,,,,,,,,,,,,,,,,"30.29","8","23","0.00",,,,"53","30.29","CLR:00","30.27","10.00","19","330","28","18",,,,,,,,,,,,,,,,,,,,,,,,,,,,,,,,,,,,,"MET09501/13/18 20:51:01 METAR KJFK 140151Z 33016G24KT 10SM CLR M05/M13 A3029 RMK AO2 SLP258 T10501133","FM-15","7",,,,,,,,,,,,,,,,,,,,,,,,,,,"2009-05-01"
"74486094789","2018-01-13T21:51:00","FM-15","7",,"ESE","1.5","mi","TEMP, PRECIP, SNOW",,,"PSY, SRG, SNOWBOARD",,,"FAA CWO",,,,,,,,,,,,,,,,,,,,,,,,,,,,"30.33","5","22","0.00",,"-0.12","1","48","30.33","CLR:00","30.30","10.00","18","350","31","22",,,,,,,,,,,,,,,,,,,,,,,,,,,,,,,,,,,,,"MET11901/13/18 21:51:02 METAR KJFK 140251Z 35019G27KT 10SM CLR M06/M15 A3033 RMK AO2 PK WND 34027/0245 SLP270 T10561150 51039","FM-15","7",,,,,,,,,,,,,,,,,,,,,,,,,,,"2009-05-01"
"74486094789","2018-01-13T22:00:00","FM-12","4",,"ESE","1.5","mi","TEMP, PRECIP, SNOW",,,"PSY, SRG, SNOWBOARD",,,"FAA CWO",,,,,,,,,,,,,,,,,,,,,,,,,,,,,"5","22",,,"-0.12","1","48","30.33",,"30.29","9.94","18","350",,"22",,,,,,,,,,,,,,,,,,,,,,,,,,,,,,,,,,,,,"SYN07474486 32966 03519 11056 21150 30259 40270 51039 90251 333 91027 555 91403=","FM-12","4",,,,,,,,,,,,,,,,,,,,,,,,,,,"2009-05-01"
"74486094789","2018-01-13T22:51:00","FM-15","7",,"ESE","1.5","mi","TEMP, PRECIP, SNOW",,,"PSY, SRG, SNOWBOARD",,,"FAA CWO",,,,,,,,,,,,,,,,,,,,,,,,,,,,"30.37","5","21","0.00",,,,"50","30.37","CLR:00","30.35","10.00","17","320",,"21",,,,,,,,,,,,,,,,,,,,,,,,,,,,,,,,,,,,,"MET09201/13/18 22:51:02 METAR KJFK 140351Z 32018KT 10SM CLR M06/M15 A3037 RMK AO2 SLP284 T10611150","FM-15","7",,,,,,,,,,,,,,,,,,,,,,,,,,,"2009-05-01"
"74486094789","2018-01-13T23:51:00","FM-15","7",,"ESE","1.5","mi","TEMP, PRECIP, SNOW",,,"PSY, SRG, SNOWBOARD",,,"FAA CWO",,,,,,,,,,,,,,,,,,,,,,,,,,,,"30.40","3","20","0.00",,,,"48","30.40","CLR:00","30.37","10.00","16","330",,"18",,,,,,,,,,,,,,,,,,,,,,,,,,,,,,,,,,,,,"MET10201/13/18 23:51:02 METAR KJFK 140451Z 33016KT 10SM CLR M07/M16 A3040 RMK AO2 SLP295 T10671161 401171067","FM-15","7",,,,,,,,,,,,,,,,,,,,,,,,,,,"2009-05-01"
"74486094789","2018-01-13T23:59:00","SOD  ","6",,"ESE","1.5","mi","TEMP, PRECIP, SNOW",,,"PSY, SRG, SNOWBOARD",,,"FAA CWO",,,,,,"25","37","69","29.87","29.76","32","20.6","0","4.5","28","53","20","180","40","0.08","0","0.0","180","33","RA FG BR",,,,,,,,,,,,,,,,,,,,,,,,,,,,,,,,,,,,,,,,,,,,,,,,,,,,,,,"SOD75724 HR PRECIPITATION (IN): 0.08 SNOW DEPTH (IN):0     24 HR SNOWFALL (IN):0.0  WEATHER(CODE):12  24 HR MAX TEMP (F): 5324 HR MIN TEMP (F): 20AVERAGE STATION PRESSURE:29.760 MINIMUM SEA LEVEL PRESSURE:29.29 TIME OF OCCURRENCE:0352 PEAK WIND SPEED (MPH): 40 PEAK WIND DIR (DEG):180 PEAK WIND TIME (LST):      FASTEST 2MIN SPEED (MPH): 33FASTEST 2MIN DIR (DEG):180 FASTEST 2MIN TIME (LST):     AVERAGE WIND SPEED (MPH):20.6 24 HR AVG TEMP (F): 37DEPART FROM NORMAL:  5  HEATING DEGREE DAYS: 28 COOLING DEGREE DAYS:  0 LATEST DAY MAX TEMP (0700-1900 LST):46  LATEST NIGHT MIN TEMP(1900-0800 LST):40 HOURLY INCREMENTAL PRECIPITATION VALUES (IN):.02 T    0.01 0.05 T    0.00 0.00 0.00 0.00 0.00 0.00 0.00 0.00 0.00 0.00 0.00 0.00 0.00 0.00 0.00 0.00 0.00 0.00 0.00","SOD  ","6",,,,,,,,,,,,,,,,,,,,,,,,,"0718","1650","2009-05-01"
"74486094789","2018-01-14T00:51:00","FM-15","7",,"ESE","1.5","mi","TEMP, PRECIP, SNOW",,,"PSY, SRG, SNOWBOARD",,,"FAA CWO",,,,,,,,,,,,,,,,,,,,,,,,,,,,"30.42","4","19","0.00",,"-0.09","1","51","30.41","CLR:00","30.40","10.00","15","320",,"18",,,,,,,,,,,,,,,,,,,,,,,,,,,,,,,,,,,,,"MET11501/14/18 00:51:02 METAR KJFK 140551Z 32016KT 10SM CLR M07/M16 A3042 RMK AO2 SLP299 T10721156 11033 21072 51029 (DM)","FM-15","7",,,,,,,,,,,,,,,,,,,,,,,,,,,"2009-05-01"
"74486094789","2018-01-14T01:00:00","FM-12","4",,"ESE","1.5","mi","TEMP, PRECIP, SNOW",,,"PSY, SRG, SNOWBOARD",,,"FAA CWO",,,,,,,,,,,,,,,,,,,,,,,,,,,,,"4","19",,,"-0.09","1","51","30.41",,"30.39","9.94","15","320",,"18",,,,,,,,,,,,,,,,,,,,,,,,,,,,,,,,,,,,,"SYN08074486 32966 03216 11072 21156 30290 40299 51029 90551 333 10117 21072 555 91406=","FM-12","4",,,,,,,,,,,,,,,,,,,,,,,,,,,"2009-05-01"
"74486094789","2018-01-14T01:51:00","FM-15","7",,"ESE","1.5","mi","TEMP, PRECIP, SNOW",,,"PSY, SRG, SNOWBOARD",,,"FAA CWO",,,,,,,,,,,,,,,,,,,,,,,,,,,,"30.45","3","18","0.00",,,,"52","30.45","CLR:00","30.42","10.00","15","330",,"20",,,,,,,,,,,,,,,,,,,,,,,,,,,,,,,,,,,,,"MET09701/14/18 01:51:02 METAR KJFK 140651Z 33017KT 10SM CLR M08/M16 A3045 RMK AO2 SLP312 T10781161 (DM)","FM-15","7",,,,,,,,,,,,,,,,,,,,,,,,,,,"2009-05-01"
"74486094789","2018-01-14T02:51:00","FM-15","7",,"ESE","1.5","mi","TEMP, PRECIP, SNOW",,,"PSY, SRG, SNOWBOARD",,,"FAA CWO",,,,,,,,,,,,,,,,,,,,,,,,,,,,"30.47","4","17","0.00",,,,"56","30.47","CLR:00","30.45","10.00","14","330",,"14",,,,,,,,,,,,,,,,,,,,,,,,,,,,,,,,,,,,,"MET09701/14/18 02:51:02 METAR KJFK 140751Z 33012KT 10SM CLR M08/M16 A3047 RMK AO2 SLP318 T10831156 (DM)","FM-15","7",,,,,,,,,,,,,,,,,,,,,,,,,,,"2009-05-01"
"74486094789","2018-01-14T03:51:00","FM-15","7",,"ESE","1.5","mi","TEMP, PRECIP, SNOW",,,"PSY, SRG, SNOWBOARD",,,"FAA CWO",,,,,,,,,,,,,,,,,,,,,,,,,,,,"30.47","3","17","0.00",,"-0.06","0","54","30.47","CLR:00","30.45","10.00","14","330",,"17",,,,,,,,,,,,,,,,,,,,,,,,,,,,,,,,,,,,,"MET10301/14/18 03:51:02 METAR KJFK 140851Z 33015KT 10SM CLR M08/M16 A3047 RMK AO2 SLP317 T10831161 50019 (DM)","FM-15","7",,,,,,,,,,,,,,,,,,,,,,,,,,,"2009-05-01"
"74486094789","2018-01-14T04:00:00","FM-12","4",,"ESE","1.5","mi","TEMP, PRECIP, SNOW",,,"PSY, SRG, SNOWBOARD",,,"FAA CWO",,,,,,,,,,,,,,,,,,,,,,,,,,,,,"3","17",,,"0.06","9","54","30.47",,"30.44","9.94","14","330",,"17",,,,,,,,,,,,,,,,,,,,,,,,,,,,,,,,,,,,,"SYN06474486 32966 03315 11083 21161 30307 40317 50019 90851 555 91409=","FM-12","4",,,,,,,,,,,,,,,,,,,,,,,,,,,"2009-05-01"
"74486094789","2018-01-14T04:51:00","FM-15","7",,"ESE","1.5","mi","TEMP, PRECIP, SNOW",,,"PSY, SRG, SNOWBOARD",,,"FAA CWO",,,,,,,,,,,,,,,,,,,,,,,,,,,,"30.49","3","16","0.00",,,,"56","30.49","CLR:00","30.47","10.00","13","340",,"16",,,,,,,,,,,,,,,,,,,,,,,,,,,,,,,,,,,,,"MET09701/14/18 04:51:02 METAR KJFK 140951Z 34014KT 10SM CLR M09/M16 A3049 RMK AO2 SLP324 T10891161 (DM)","FM-15","7",,,,,,,,,,,,,,,,,,,,,,,,,,,"2009-05-01"
"74486094789","2018-01-14T05:51:00","FM-15","7",,"ESE","1.5","mi","TEMP, PRECIP, SNOW",,,"PSY, SRG, SNOWBOARD",,,"FAA CWO",,,,,,,,,,,,,,,,,,,,,,,,,,,,"30.52","4","16","0.00",,,,"59","30.52","BKN:07 200","30.50","10.00","13","340","25","18",,,,,,,,,,,,,,,,,,,,,,,,,,,,,,,,,,,,,"MET10301/14/18 05:51:02 METAR KJFK 141051Z 34016G22KT 10SM BKN200 M09/M16 A3052 RMK AO2 SLP335 T10891156 (DM)","FM-15","7",,,,,,,,,,,,,,,,,,,,,,,,,,,"2009-05-01"
"74486094789","2018-01-14T06:51:00","FM-15","7",,"ESE","1.5","mi","TEMP, PRECIP, SNOW",,,"PSY, SRG, SNOWBOARD",,,"FAA CWO",,,,,,,,,,,,,,,,,,,,,,,,,,,,"30.56","4","16","0.00",,"-0.09","3","59","30.56","FEW:02 30 FEW:02 130 BKN:07 220","30.53","10.00","13","340",,"15",,,,,,,,,,,,,,,,,,,,,,,,,,,,,,,,,,,,,"MET13201/14/18 06:51:02 METAR KJFK 141151Z 34013KT 10SM FEW030 FEW130 BKN220 M09/M16 A3056 RMK AO2 SLP348 T10891156 11072 21089 53031 (ML)","FM-15","7",,,,,,,,,,,,,,,,,,,,,,,,,,,"2009-05-01"
"74486094789","2018-01-14T07:00:00","FM-12","4",,"ESE","1.5","mi","TEMP, PRECIP, SNOW",,,"PSY, SRG, SNOWBOARD",,,"FAA CWO",,,,,,,,,,,,,,,,,,,,,,,,,,,,,"4","16",,,"-0.09","3","59","30.56","26","30.53","9.94","13","340",,"15",,,,,,,,,,,,,,,,,,,,,,,,,,,,,,,,,,,,,"SYN08074486 32566 63413 11089 21156 30337 40348 53031 91151 333 10117 21089 555 91412=","FM-12","4",,,,,,,,,,,,,,,,,,,,,,,,,,,"2009-05-01"
"74486094789","2018-01-14T07:51:00","FM-15","7",,"ESE","1.5","mi","TEMP, PRECIP, SNOW",,,"PSY, SRG, SNOWBOARD",,,"FAA CWO",,,,,,,,,,,,,,,,,,,,,,,,,,,,"30.58","4","16","0.00",,,,"59","30.58","FEW:02 30 FEW:02 130 BKN:07 220","30.55","10.00","13","330",,"14",,,,,,,,,,,,,,,,,,,,,,,,,,,,,,,,,,,,,"MET11401/14/18 07:51:02 METAR KJFK 141251Z 33012KT 10SM FEW030 FEW130 BKN220 M09/M16 A3058 RMK AO2 SLP355 T10891156 (ML)","FM-15","7",,,,,,,,,,,,,,,,,,,,,,,,,,,"2009-05-01"
"74486094789","2018-01-14T08:51:00","FM-15","7",,"ESE","1.5","mi","TEMP, PRECIP, SNOW",,,"PSY, SRG, SNOWBOARD",,,"FAA CWO",,,,,,,,,,,,,,,,,,,,,,,,,,,,"30.62","4","18","0.00",,,,"54","30.61","FEW:02 30 FEW:02 130 SCT:04 220","30.60","10.00","15","350",,"14",,,,,,,,,,,,,,,,,,,,,,,,,,,,,,,,,,,,,"MET11401/14/18 08:51:02 METAR KJFK 141351Z 35012KT 10SM FEW030 FEW130 SCT220 M08/M16 A3062 RMK AO2 SLP367 T10781156 (ML)","FM-15","7",,,,,,,,,,,,,,,,,,,,,,,,,,,"2009-05-01"
"74486094789","2018-01-14T09:51:00","FM-15","7",,"ESE","1.5","mi","TEMP, PRECIP, SNOW",,,"PSY, SRG, SNOWBOARD",,,"FAA CWO",,,,,,,,,,,,,,,,,,,,,,,,,,,,"30.65","0","18","0.00",,"-0.09","3","45","30.65","FEW:02 30 FEW:02 220 SCT:04 250","30.63","10.00","14","360",,"21",,,,,,,,,,,,,,,,,,,,,,,,,,,,,,,,,,,,,"MET12001/14/18 09:51:02 METAR KJFK 141451Z 36018KT 10SM FEW030 FEW220 SCT250 M08/M18 A3065 RMK AO2 SLP378 T10781178 53030 (ML)","FM-15","7",,,,,,,,,,,,,,,,,,,,,,,,,,,"2009-05-01"
"74486094789","2018-01-14T10:00:00","FM-12","4",,"ESE","1.5","mi","TEMP, PRECIP, SNOW",,,"PSY, SRG, SNOWBOARD",,,"FAA CWO",,,,,,,,,,,,,,,,,,,,,,,,,,,,,"0","18",,,"-0.09","3","45","30.65","26","30.62","9.94","14","360",,"21",,,,,,,,,,,,,,,,,,,,,,,,,,,,,,,,,,,,,"SYN06474486 32566 43618 11078 21178 30368 40378 53030 91451 555 91415=","FM-12","4",,,,,,,,,,,,,,,,,,,,,,,,,,,"2009-05-01"
"74486094789","2018-01-14T10:51:00","FM-15","7",,"ESE","1.5","mi","TEMP, PRECIP, SNOW",,,"PSY, SRG, SNOWBOARD",,,"FAA CWO",,,,,,,,,,,,,,,,,,,,,,,,,,,,"30.65","-2","20","0.00",,,,"38","30.64","FEW:02 35 SCT:04 250","30.63","10.00","15","340","25","17",,,,,,,,,,,,,,,,,,,,,,,,,,,,,,,,,,,,,"MET11001/14/18 10:51:02 METAR KJFK 141551Z 34015G22KT 10SM FEW035 SCT250 M07/M19 A3065 RMK AO2 SLP377 T10671189 (ML)","FM-15","7",,,,,,,,,,,,,,,,,,,,,,,,,,,"2009-05-01"
"74486094789","2018-01-14T11:51:00","FM-15","7",,"ESE","1.5","mi","TEMP, PRECIP, SNOW",,,"PSY, SRG, SNOWBOARD",,,"FAA CWO",,,,,,,,,,,,,,,,,,,,,,,,,,,,"30.62","-4","21","0.00",,,,"33","30.62","FEW:02 200 SCT:04 250","30.60","10.00","16","350",,"18",,,,,,,,,,,,,,,,,,,,,,,,,,,,,,,,,,,,,"MET10701/14/18 11:51:02 METAR KJFK 141651Z 35016KT 10SM FEW200 SCT250 M06/M20 A3062 RMK AO2 SLP369 T10611200 (ML)","FM-15","7",,,,,,,,,,,,,,,,,,,,,,,,,,,"2009-05-01"
"74486094789","2018-01-14T12:51:00","FM-15","7",,"ESE","1.5","mi","TEMP, PRECIP, SNOW",,,"PSY, SRG, SNOWBOARD",,,"FAA CWO",,,,,,,,,,,,,,,,,,,,,,,,,,,,"30.61","-3","23","0.00",,"+0.04","8","32","30.61","FEW:02 200 SCT:04 250","30.58","10.00","17","350",,"15",,,,,,,,,,,,,,,,,,,,,,,,,,,,,,,,,,,,,"MET12501/14/18 12:51:02 METAR KJFK 141751Z 35013KT 10SM FEW200 SCT250 M05/M19 A3061 RMK AO2 SLP365 T10501194 11050 21094 58014 (ML)","FM-15","7",,,,,,,,,,,,,,,,,,,,,,,,,,,"2009-05-01"
"74486094789","2018-01-14T13:00:00","FM-12","4",,"ESE","1.5","mi","TEMP, PRECIP, SNOW",,,"PSY, SRG, SNOWBOARD",,,"FAA CWO",,,,,,,,,,,,,,,,,,,,,,,,,,,,,"-3","23",,,"+0.04","8","32","30.61",,"30.58","9.94","17","350",,"15",,,,,,,,,,,,,,,,,,,,,,,,,,,,,,,,,,,,,"SYN08074486 32966 43513 11050 21194 30354 40365 58014 91751 333 11050 21094 555 91418=","FM-12","4",,,,,,,,,,,,,,,,,,,,,,,,,,,"2009-05-01"
"74486094789","2018-01-14T13:51:00","FM-15","7",,"ESE","1.5","mi","TEMP, PRECIP, SNOW",,,"PSY, SRG, SNOWBOARD",,,"FAA CWO",,,,,,,,,,,,,,,,,,,,,,,,,,,,"30.60","-3","24","0.00",,,,"30","30.60","FEW:02 200 SCT:04 250","30.58","10.00","18","360",,"14",,,,,,,,,,,,,,,,,,,,,,,,,,,,,,,,,,,,,"MET10701/14/18 13:51:02 METAR KJFK 141851Z 36012KT 10SM FEW200 SCT250 M04/M19 A3060 RMK AO2 SLP362 T10441194 (ML)","FM-15","7",,,,,,,,,,,,,,,,,,,,,,,,,,,"2009-05-01"
"74486094789","2018-01-14T14:51:00","FM-15","7",,"ESE","1.5","mi","TEMP, PRECIP, SNOW",,,"PSY, SRG, SNOWBOARD",,,"FAA CWO",,,,,,,,,,,,,,,,,,,,,,,,,,,,"30.61","-3","24","0.00",,,,"30","30.61","FEW:02 200","30.58","10.00","18","360","23","16",,,,,,,,,,,,,,,,,,,,,,,,,,,,,,,,,,,,,"MET10301/14/18 14:51:02 METAR KJFK 141951Z 36014G20KT 10SM FEW200 M04/M19 A3061 RMK AO2 SLP365 T10441194 (RG)","FM-15","7",,,,,,,,,,,,,,,,,,,,,,,,,,,"2009-05-01"
"74486094789","2018-01-14T15:51:00","FM-15","7",,"ESE","1.5","mi","TEMP, PRECIP, SNOW",,,"PSY, SRG, SNOWBOARD",,,"FAA CWO",,,,,,,,,,,,,,,,,,,,,,,,,,,,"30.62","-4","23","0.00",,"-0.01","3","30","30.62","FEW:02 200","30.60","10.00","17","350",,"16",,,,,,,,,,,,,,,,,,,,,,,,,,,,,,,,,,,,,"MET10601/14/18 15:51:02 METAR KJFK 142051Z 35014KT 10SM FEW200 M05/M20 A3062 RMK AO2 SLP369 T10501200 53004 (RG)","FM-15","7",,,,,,,,,,,,,,,,,,,,,,,,,,,"2009-05-01"
"74486094789","2018-01-14T16:00:00","FM-12","4",,"ESE","1.5","mi","TEMP, PRECIP, SNOW",,,"PSY, SRG, SNOWBOARD",,,"FAA CWO",,,,,,,,,,,,,,,,,,,,,,,,,,,,,"-4","23",,,"-0.01","3","30","30.62",,"30.59","9.94","17","350",,"16",,,,,,,,,,,,,,,,,,,,,,,,,,,,,,,,,,,,,"SYN06474486 32966 23514 11050 21200 30358 40369 53004 92051 555 91421=","FM-12","4",,,,,,,,,,,,,,,,,,,,,,,,,,,"2009-05-01"
"74486094789","2018-01-14T16:51:00","FM-15","7",,"ESE","1.5","mi","TEMP, PRECIP, SNOW",,,"PSY, SRG, SNOWBOARD",,,"FAA CWO",,,,,,,,,,,,,,,,,,,,,,,,,,,,"30.64","-3","22","0.00",,,,"33","30.63","FEW:02 200","30.61","10.00","17","360",,"15",,,,,,,,,,,,,,,,,,,,,,,,,,,,,,,,,,,,,"MET10001/14/18 16:51:02 METAR KJFK 142151Z 36013KT 10SM FEW200 M06/M19 A3064 RMK AO2 SLP374 T10561194 (RG)","FM-15","7",,,,,,,,,,,,,,,,,,,,,,,,,,,"2009-05-01"
"74486094789","2018-01-14T17:51:00","FM-15","7",,"ESE","1.5","mi","TEMP, PRECIP, SNOW",,,"PSY, SRG, SNOWBOARD",,,"FAA CWO",,,,,,,,,,,,,,,,,,,,,,,,,,,,"30.66","-5","21","0.00",,,,"31","30.66","FEW:02 200","30.63","10.00","16","360",,"13",,,,,,,,,,,,,,,,,,,,,,,,,,,,,,,,,,,,,"MET10001/14/18 17:51:02 METAR KJFK 142251Z 36011KT 10SM FEW200 M06/M21 A3066 RMK AO2 SLP381 T10611206 (RG)","FM-15","7",,,,,,,,,,,,,,,,,,,,,,,,,,,"2009-05-01"
"74486094789","2018-01-14T18:51:00","FM-15","7",,"ESE","1.5","mi","TEMP, PRECIP, SNOW",,,"PSY, SRG, SNOWBOARD",,,"FAA CWO",,,,,,,,,,,,,,,,,,,,,,,,,,,,"30.67","-4","20","0.00",,"-0.05","3","34","30.67","FEW:02 250","30.64","10.00","15","360","23","18",,,,,,,,,,,,,,,,,,,,,,,,,,,,,,,,,,,,,"MET12101/14/18 18:51:02 METAR KJFK 142351Z 36016G20KT 10SM FEW250 M07/M20 A3067 RMK AO2 SLP386 T10671200 11039 21067 53017 (RG)","FM-15","7",,,,,,,,,,,,,,,,,,,,,,,,,,,"2009-05-01"
"74486094789","2018-01-14T19:00:00","FM-12","4",,"ESE","1.5","mi","TEMP, PRECIP, SNOW",,,"PSY, SRG, SNOWBOARD",,,"FAA CWO",,,,,,,,,,,,,,,,,,,,,,,,,,,,,"-4","20",,,"-0.05","3","34","30.67",,"30.64","9.94","15","360",,"18",,,,,,,,,,,,,,,,,,,,,,,,,,,,,,,,,,,,,"SYN08674486 32966 23616 11067 21200 30375 40386 53017 92351 333 11039 21089 91020 555 91500=","FM-12","4",,,,,,,,,,,,,,,,,,,,,,,,,,,"2009-05-01"
"74486094789","2018-01-14T19:51:00","FM-15","7",,"ESE","1.5","mi","TEMP, PRECIP, SNOW",,,"PSY, SRG, SNOWBOARD",,,"FAA CWO",,,,,,,,,,,,,,,,,,,,,,,,,,,,"30.67","-4","19","0.00",,,,"36","30.66","BKN:07 250","30.64","10.00","14","010",,"10",,,,,,,,,,,,,,,,,,,,,,,,,,,,,,,,,,,,,"MET09501/14/18 19:51:01 METAR KJFK 150051Z 01009KT 10SM BKN250 M07/M20 A3067 RMK AO2 SLP383 T10721200","FM-15","7",,,,,,,,,,,,,,,,,,,,,,,,,,,"2009-05-01"
"74486094789","2018-01-14T20:51:00","FM-15","7",,"ESE","1.5","mi","TEMP, PRECIP, SNOW",,,"PSY, SRG, SNOWBOARD",,,"FAA CWO",,,,,,,,,,,,,,,,,,,,,,,,,,,,"30.67","2","18","0.00",,,,"49","30.67","FEW:02 250","30.64","10.00","14","020",,"15",,,,,,,,,,,,,,,,,,,,,,,,,,,,,,,,,,,,,"MET09501/14/18 20:51:01 METAR KJFK 150151Z 02013KT 10SM FEW250 M08/M17 A3067 RMK AO2 SLP385 T10781167","FM-15","7",,,,,,,,,,,,,,,,,,,,,,,,,,,"2009-05-01"
"74486094789","2018-01-14T21:51:00","FM-15","7",,"ESE","1.5","mi","TEMP, PRECIP, SNOW",,,"PSY, SRG, SNOWBOARD",,,"FAA CWO",,,,,,,,,,,,,,,,,,,,,,,,,,,,"30.69","5","17","0.00",,"-0.01","3","59","30.68","FEW:02 250","30.66","10.00","14","010",,"13",,,,,,,,,,,,,,,,,,,,,,,,,,,,,,,,,,,,,"MET10101/14/18 21:51:02 METAR KJFK 150251Z 01011KT 10SM FEW250 M08/M15 A3069 RMK AO2 SLP390 T10831150 53004","FM-15","7",,,,,,,,,,,,,,,,,,,,,,,,,,,"2009-05-01"
"74486094789","2018-01-14T22:00:00","FM-12","4",,"ESE","1.5","mi","TEMP, PRECIP, SNOW",,,"PSY, SRG, SNOWBOARD",,,"FAA CWO",,,,,,,,,,,,,,,,,,,,,,,,,,,,,"5","17",,,"-0.01","3","59","30.68",,"30.66","9.94","14","010",,"13",,,,,,,,,,,,,,,,,,,,,,,,,,,,,,,,,,,,,"SYN06474486 32966 20111 11083 21150 30381 40390 53004 90251 555 91503=","FM-12","4",,,,,,,,,,,,,,,,,,,,,,,,,,,"2009-05-01"
"74486094789","2018-01-14T22:51:00","FM-15","7",,"ESE","1.5","mi","TEMP, PRECIP, SNOW",,,"PSY, SRG, SNOWBOARD",,,"FAA CWO",,,,,,,,,,,,,,,,,,,,,,,,,,,,"30.69","5","18","0.00",,,,"57","30.68","SCT:04 250","30.66","10.00","15","020",,"15",,,,,,,,,,,,,,,,,,,,,,,,,,,,,,,,,,,,,"MET09501/14/18 22:51:02 METAR KJFK 150351Z 02013KT 10SM SCT250 M08/M15 A3069 RMK AO2 SLP391 T10781150","FM-15","7",,,,,,,,,,,,,,,,,,,,,,,,,,,"2009-05-01"
"74486094789","2018-01-14T23:51:00","FM-15","7",,"ESE","1.5","mi","TEMP, PRECIP, SNOW",,,"PSY, SRG, SNOWBOARD",,,"FAA CWO",,,,,,,,,,,,,,,,,,,,,,,,,,,,"30.67","5","17","0.00",,,,"59","30.67","SCT:04 250","30.64","10.00","14","020",,"14",,,,,,,,,,,,,,,,,,,,,,,,,,,,,,,,,,,,,"MET10501/14/18 23:51:02 METAR KJFK 150451Z 02012KT 10SM SCT250 M08/M15 A3067 RMK AO2 SLP386 T10831150 410391094","FM-15","7",,,,,,,,,,,,,,,,,,,,,,,,,,,"2009-05-01"
"74486094789","2018-01-14T23:59:00","SOD  ","6",,"ESE","1.5","mi","TEMP, PRECIP, SNOW",,,"PSY, SRG, SNOWBOARD",,,"FAA CWO",,,,,,"1","20","45","30.59","30.53","15","15.7","0","-12.4","45","25","15","010","27","0.00","0","0.0","330","23",,,,,,,,,,,,,,,,,,,,,,,,,,,,,,,,,,,,,,,,,,,,,,,,,,,,,,,,"SOD73924 HR PRECIPITATION (IN): 0.00 SNOW DEPTH (IN):0     24 HR SNOWFALL (IN):0.0  24 HR MAX TEMP (F): 2524 HR MIN TEMP (F): 15AVERAGE STATION PRESSURE:30.535 MINIMUM SEA LEVEL PRESSURE:30.40 TIME OF OCCURRENCE:0042 PEAK WIND SPEED (MPH): 27 PEAK WIND DIR (DEG): 10 PEAK WIND TIME (LST):      FASTEST 2MIN SPEED (MPH): 23FASTEST 2MIN DIR (DEG):330 FASTEST 2MIN TIME (LST):     AVERAGE WIND SPEED (MPH):15.7 24 HR AVG TEMP (F): 20DEPART FROM NORMAL:-12  HEATING DEGREE DAYS: 45 COOLING DEGREE DAYS:  0 LATEST DAY MAX TEMP (0700-1900 LST):25  LATEST NIGHT MIN TEMP(1900-0800 LST):15 HOURLY INCREMENTAL PRECIPITATION VALUES (IN):.00 0.00 0.00 0.00 0.00 0.00 0.00 0.00 0.00 0.00 0.00 0.00 0.00 0.00 0.00 0.00 0.00 0.00 0.00 0.00 0.00 0.00 0.00 0.00","SOD  ","6",,,,,,,,,,,,,,,,,,,,,,,,,"0717","1651","2009-05-01"
"74486094789","2018-01-15T00:51:00","FM-15","7",,"ESE","1.5","mi","TEMP, PRECIP, SNOW",,,"PSY, SRG, SNOWBOARD",,,"FAA CWO",,,,,,,,,,,,,,,,,,,,,,,,,,,,"30.67","6","17","0.00",,"+0.02","8","62","30.66","SCT:04 250","30.64","10.00","14","020",,"14",,,,,,,,,,,,,,,,,,,,,,,,,,,,,,,,,,,,,"MET11801/15/18 00:51:02 METAR KJFK 150551Z 02012KT 10SM SCT250 M08/M14 A3067 RMK AO2 SLP384 T10831144 11067 21083 58006 (JC)","FM-15","7",,,,,,,,,,,,,,,,,,,,,,,,,,,"2009-05-01"
"74486094789","2018-01-15T01:00:00","FM-12","4",,"ESE","1.5","mi","TEMP, PRECIP, SNOW",,,"PSY, SRG, SNOWBOARD",,,"FAA CWO",,,,,,,,,,,,,,,,,,,,,,,,,,,,,"6","17",,,"+0.02","8","62","30.66",,"30.64","9.94","14","020",,"14",,,,,,,,,,,,,,,,,,,,,,,,,,,,,,,,,,,,,"SYN08074486 32966 40212 11083 21144 30375 40384 58006 90551 333 11067 21089 555 91506=","FM-12","4",,,,,,,,,,,,,,,,,,,,,,,,,,,"2009-05-01"
"74486094789","2018-01-15T01:51:00","FM-15","7",,"ESE","1.5","mi","TEMP, PRECIP, SNOW",,,"PSY, SRG, SNOWBOARD",,,"FAA CWO",,,,,,,,,,,,,,,,,,,,,,,,,,,,"30.67","7","17","0.00",,,,"64","30.67","BKN:07 250","30.64","10.00","15","020",,"11",,,,,,,,,,,,,,,,,,,,,,,,,,,,,,,,,,,,,"MET10001/15/18 01:51:02 METAR KJFK 150651Z 02010KT 10SM BKN250 M08/M14 A3067 RMK AO2 SLP385 T10831139 (JC)","FM-15","7",,,,,,,,,,,,,,,,,,,,,,,,,,,"2009-05-01"
"74486094789","2018-01-15T02:51:00","FM-15","7",,"ESE","1.5","mi","TEMP, PRECIP, SNOW",,,"PSY, SRG, SNOWBOARD",,,"FAA CWO",,,,,,,,,,,,,,,,,,,,,,,,,,,,"30.67","7","17","0.00",,,,"64","30.67","SCT:04 34 BKN:07 250","30.64","10.00","15","020",,"14",,,,,,,,,,,,,,,,,,,,,,,,,,,,,,,,,,,,,"MET10701/15/18 02:51:02 METAR KJFK 150751Z 02012KT 10SM SCT034 BKN250 M08/M14 A3067 RMK AO2 SLP386 T10831139 (JC)","FM-15","7",,,,,,,,,,,,,,,,,,,,,,,,,,,"2009-05-01"
"74486094789","2018-01-15T03:51:00","FM-15","7",,"ESE","1.5","mi","TEMP, PRECIP, SNOW",,,"PSY, SRG, SNOWBOARD",,,"FAA CWO",,,,,,,,,,,,,,,,,,,,,,,,,,,,"30.67","7","17","0.00",,"+0.00","8","64","30.66","SCT:04 34 BKN:07 250","30.64","10.00","15","020",,"16",,,,,,,,,,,,,,,,,,,,,,,,,,,,,,,,,,,,,"MET11301/15/18 03:51:02 METAR KJFK 150851Z 02014KT 10SM SCT034 BKN250 M08/M14 A3067 RMK AO2 SLP384 T10831139 58000 (JC)","FM-15","7",,,,,,,,,,,,,,,,,,,,,,,,,,,"2009-05-01"
"74486094789","2018-01-15T04:00:00","FM-12","4",,"ESE","1.5","mi","TEMP, PRECIP, SNOW",,,"PSY, SRG, SNOWBOARD",,,"FAA CWO",,,,,,,,,,,,,,,,,,,,,,,,,,,,,"7","17",,,"0.00","4","64","30.66","41","30.64","9.94","15","020",,"16",,,,,,,,,,,,,,,,,,,,,,,,,,,,,,,,,,,,,"SYN06474486 32666 60214 11083 21139 30375 40384 58000 90851 555 91509=","FM-12","4",,,,,,,,,,,,,,,,,,,,,,,,,,,"2009-05-01"
"74486094789","2018-01-15T04:51:00","FM-15","7",,"ESE","1.5","mi","TEMP, PRECIP, SNOW",,,"PSY, SRG, SNOWBOARD",,,"FAA CWO",,,,,,,,,,,,,,,,,,,,,,,,,,,,"30.66","9","18","0.00",,,,"68","30.66","BKN:07 37 OVC:08 250","30.63","10.00","16","030",,"14",,,,,,,,,,,,,,,,,,,,,,,,,,,,,,,,,,,,,"MET10701/15/18 04:51:02 METAR KJFK 150951Z 03012KT 10SM BKN037 OVC250 M08/M13 A3066 RMK AO2 SLP382 T10781128 (JC)","FM-15","7",,,,,,,,,,,,,,,,,,,,,,,,,,,"2009-05-01"
"74486094789","2018-01-15T05:51:00","FM-15","7",,"ESE","1.5","mi","TEMP, PRECIP, SNOW",,,"PSY, SRG, SNOWBOARD",,,"FAA CWO",,,,,,,,,,,,,,,,,,,,,,,,,,,,"30.67","11","20","0.00",,,,"68","30.66","BKN:07 40 OVC:08 250","30.64","10.00","18","040",,"11",,,,,,,,,,,,,,,,,,,,,,,,,,,,,,,,,,,,,"MET10701/15/18 05:51:02 METAR KJFK 151051Z 04010KT 10SM BKN040 OVC250 M07/M12 A3067 RMK AO2 SLP384 T10671117 (JC)","FM-15","7",,,,,,,,,,,,,,,,,,,,,,,,,,,"2009-05-01"
"74486094789","2018-01-15T06:51:00","FM-15","7",,"ESE","1.5","mi","TEMP, PRECIP, SNOW",,,"PSY, SRG, SNOWBOARD",,,"FAA CWO",,,,,,,,,,,,,,,,,,,,,,,,,,,,"30.68","10","18","0.00",,"-0.01","3","71","30.67","SCT:04 41 BKN:07 250","30.66","10.00","16","040","23","15",,,,,,,,,,,,,,,,,,,,,,,,,,,,,,,,,,,,,"MET12801/15/18 06:51:02 METAR KJFK 151151Z 04013G20KT 10SM SCT041 BKN250 M08/M12 A3068 RMK AO2 SLP387 T10781122 11067 21083 53003 (BH)","FM-15","7",,,,,,,,,,,,,,,,,,,,,,,,,,,"2009-05-01"
"74486094789","2018-01-15T07:00:00","FM-12","4",,"ESE","1.5","mi","TEMP, PRECIP, SNOW",,,"PSY, SRG, SNOWBOARD",,,"FAA CWO",,,,,,,,,,,,,,,,,,,,,,,,,,,,,"10","18",,,"-0.01","3","71","30.67","41","30.65","9.94","16","040",,"15",,,,,,,,,,,,,,,,,,,,,,,,,,,,,,,,,,,,,"SYN08674486 32666 60413 11078 21122 30378 40387 53003 91151 333 11039 21083 91020 555 91512=","FM-12","4",,,,,,,,,,,,,,,,,,,,,,,,,,,"2009-05-01"
"74486094789","2018-01-15T07:51:00","FM-15","7",,"ESE","1.5","mi","TEMP, PRECIP, SNOW",,,"PSY, SRG, SNOWBOARD",,,"FAA CWO",,,,,,,,,,,,,,,,,,,,,,,,,,,,"30.67","11","18","0.00",,,,"74","30.67","FEW:02 40 FEW:02 140 SCT:04 250","30.64","10.00","16","040",,"13",,,,,,,,,,,,,,,,,,,,,,,,,,,,,,,,,,,,,"MET11401/15/18 07:51:02 METAR KJFK 151251Z 04011KT 10SM FEW040 FEW140 SCT250 M08/M12 A3067 RMK AO2 SLP386 T10781117 (BH)","FM-15","7",,,,,,,,,,,,,,,,,,,,,,,,,,,"2009-05-01"
"74486094789","2018-01-15T08:51:00","FM-15","7",,"ESE","1.5","mi","TEMP, PRECIP, SNOW",,,"PSY, SRG, SNOWBOARD",,,"FAA CWO",,,,,,,,,,,,,,,,,,,,,,,,,,,,"30.66","13","21","0.00",,,,"71","30.66","FEW:02 40 FEW:02 140 SCT:04 250","30.63","10.00","19","040",,"13",,,,,,,,,,,,,,,,,,,,,,,,,,,,,,,,,,,,,"MET11401/15/18 08:51:02 METAR KJFK 151351Z 04011KT 10SM FEW040 FEW140 SCT250 M06/M11 A3066 RMK AO2 SLP383 T10611106 (BH)","FM-15","7",,,,,,,,,,,,,,,,,,,,,,,,,,,"2009-05-01"
"74486094789","2018-01-15T09:51:00","FM-15","7",,"ESE","1.5","mi","TEMP, PRECIP, SNOW",,,"PSY, SRG, SNOWBOARD",,,"FAA CWO",,,,,,,,,,,,,,,,,,,,,,,,,,,,"30.67","14","24","0.00",,"+0.00","5","65","30.67","FEW:02 40 SCT:04 250","30.64","10.00","21","050",,"17",,,,,,,,,,,,,,,,,,,,,,,,,,,,,,,,,,,,,"MET11301/15/18 09:51:02 METAR KJFK 151451Z 05015KT 10SM FEW040 SCT250 M04/M10 A3067 RMK AO2 SLP386 T10441100 55001 (BH)","FM-15","7",,,,,,,,,,,,,,,,,,,,,,,,,,,"2009-05-01"
"74486094789","2018-01-15T10:00:00","FM-12","4",,"ESE","1.5","mi","TEMP, PRECIP, SNOW",,,"PSY, SRG, SNOWBOARD",,,"FAA CWO",,,,,,,,,,,,,,,,,,,,,,,,,,,,,"14","24",,,"+0.00","5","65","30.67","41","30.64","9.94","21","050",,"17",,,,,,,,,,,,,,,,,,,,,,,,,,,,,,,,,,,,,"SYN06474486 32666 40515 11044 21100 30375 40386 55001 91451 555 91515=","FM-12","4",,,,,,,,,,,,,,,,,,,,,,,,,,,"2009-05-01"
"74486094789","2018-01-15T10:51:00","FM-15","7",,"ESE","1.5","mi","TEMP, PRECIP, SNOW",,,"PSY, SRG, SNOWBOARD",,,"FAA CWO",,,,,,,,,,,,,,,,,,,,,,,,,,,,"30.66","15","26","0.00",,,,"63","30.65","SCT:04 32 BKN:07 250","30.63","10.00","23","030",,"15",,,,,,,,,,,,,,,,,,,,,,,,,,,,,,,,,,,,,"MET11701/15/18 10:51:02 METAR KJFK 151551Z 03013KT 10SM SCT032 BKN250 M03/M09 A3066 RMK AO2 SLP380 SCT V BKN T10331094 (BH)","FM-15","7",,,,,,,,,,,,,,,,,,,,,,,,,,,"2009-05-01"
"74486094789","2018-01-15T11:51:00","FM-15","7",,"ESE","1.5","mi","TEMP, PRECIP, SNOW",,,"PSY, SRG, SNOWBOARD",,,"FAA CWO",,,,,,,,,,,,,,,,,,,,,,,,,,,,"30.61","16","26","0.00",,,,"66","30.61","BKN:07 33 BKN:07 250","30.58","10.00","23","040",,"16",,,,,,,,,,,,,,,,,,,,,,,,,,,,,,,,,,,,,"MET10701/15/18 11:51:02 METAR KJFK 151651Z 04014KT 10SM BKN033 BKN250 M03/M09 A3061 RMK AO2 SLP366 T10331089 (BH)","FM-15","7",,,,,,,,,,,,,,,,,,,,,,,,,,,"2009-05-01"
"74486094789","2018-01-15T12:51:00","FM-15","7",,"ESE","1.5","mi","TEMP, PRECIP, SNOW",,,"PSY, SRG, SNOWBOARD",,,"FAA CWO",,,,,,,,,,,,,,,,,,,,,,,,,,,,"30.58","17","27","0.00",,"+0.09","8","66","30.58","BKN:07 33 BKN:07 250","30.55","10.00","24","030",,"13",,,,,,,,,,,,,,,,,,,,,,,,,,,,,,,,,,,,,"MET12501/15/18 12:51:02 METAR KJFK 151751Z 03011KT 10SM BKN033 BKN250 M03/M08 A3058 RMK AO2 SLP354 T10281083 11028 21078 58031 (BH)","FM-15","7",,,,,,,,,,,,,,,,,,,,,,,,,,,"2009-05-01"
"74486094789","2018-01-15T13:00:00","FM-12","4",,"ESE","1.5","mi","TEMP, PRECIP, SNOW",,,"PSY, SRG, SNOWBOARD",,,"FAA CWO",,,,,,,,,,,,,,,,,,,,,,,,,,,,,"17","27",,,"+0.09","8","66","30.58","26","30.55","9.94","24","030",,"13",,,,,,,,,,,,,,,,,,,,,,,,,,,,,,,,,,,,,"SYN08074486 32566 60311 11028 21083 30344 40354 58031 91751 333 11028 21078 555 91518=","FM-12","4",,,,,,,,,,,,,,,,,,,,,,,,,,,"2009-05-01"
"74486094789","2018-01-15T13:51:00","FM-15","7",,"ESE","1.5","mi","TEMP, PRECIP, SNOW",,,"PSY, SRG, SNOWBOARD",,,"FAA CWO",,,,,,,,,,,,,,,,,,,,,,,,,,,,"30.55","17","29","0.00",,,,"61","30.55","BKN:07 36 BKN:07 250","30.53","10.00","25","030",,"15",,,,,,,,,,,,,,,,,,,,,,,,,,,,,,,,,,,,,"MET10701/15/18 13:51:02 METAR KJFK 151851Z 03013KT 10SM BKN036 BKN250 M02/M08 A3055 RMK AO2 SLP345 T10171083 (BH)","FM-15","7",,,,,,,,,,,,,,,,,,,,,,,,,,,"2009-05-01"
"74486094789","2018-01-15T14:51:00","FM-15","7",,"ESE","1.5","mi","TEMP, PRECIP, SNOW",,,"PSY, SRG, SNOWBOARD",,,"FAA CWO",,,,,,,,,,,,,,,,,,,,,,,,,,,,"30.54","18","29","0.00",,,,"63","30.54","BKN:07 36 BKN:07 250","30.51","10.00","25","040",,"14",,,,,,,,,,,,,,,,,,,,,,,,,,,,,,,,,,,,,"MET10701/15/18 14:51:02 METAR KJFK 151951Z 04012KT 10SM BKN036 BKN250 M02/M08 A3054 RMK AO2 SLP341 T10171078 (RR)","FM-15","7",,,,,,,,,,,,,,,,,,,,,,,,,,,"2009-05-01"
"74486094789","2018-01-15T15:51:00","FM-15","7",,"ESE","1.5","mi","TEMP, PRECIP, SNOW",,,"PSY, SRG, SNOWBOARD",,,"FAA CWO",,,,,,,,,,,,,,,,,,,,,,,,,,,,"30.54","18","29","0.00",,"+0.04","6","63","30.54","BKN:07 37 BKN:07 250","30.51","10.00","25","040",,"10",,,,,,,,,,,,,,,,,,,,,,,,,,,,,,,,,,,,,"MET11301/15/18 15:51:02 METAR KJFK 152051Z 04009KT 10SM BKN037 BKN250 M02/M08 A3054 RMK AO2 SLP341 T10171078 56013 (RR)","FM-15","7",,,,,,,,,,,,,,,,,,,,,,,,,,,"2009-05-01"
"74486094789","2018-01-15T16:00:00","FM-12","4",,"ESE","1.5","mi","TEMP, PRECIP, SNOW",,,"PSY, SRG, SNOWBOARD",,,"FAA CWO",,,,,,,,,,,,,,,,,,,,,,,,,,,,,"18","29",,,"+0.04","6","63","30.54","41","30.51","9.94","25","040",,"10",,,,,,,,,,,,,,,,,,,,,,,,,,,,,,,,,,,,,"SYN06474486 32666 60409 11017 21078 30331 40341 56013 92051 555 91521=","FM-12","4",,,,,,,,,,,,,,,,,,,,,,,,,,,"2009-05-01"
"74486094789","2018-01-15T16:51:00","FM-15","7",,"ESE","1.5","mi","TEMP, PRECIP, SNOW",,,"PSY, SRG, SNOWBOARD",,,"FAA CWO",,,,,,,,,,,,,,,,,,,,,,,,,,,,"30.54","18","27","0.00",,,,"69","30.54","SCT:04 37 SCT:04 250","30.51","10.00","24","040",,"13",,,,,,,,,,,,,,,,,,,,,,,,,,,,,,,,,,,,,"MET10701/15/18 16:51:02 METAR KJFK 152151Z 04011KT 10SM SCT037 SCT250 M03/M08 A3054 RMK AO2 SLP342 T10281078 (RR)","FM-15","7",,,,,,,,,,,,,,,,,,,,,,,,,,,"2009-05-01"
"74486094789","2018-01-15T17:51:00","FM-15","7",,"ESE","1.5","mi","TEMP, PRECIP, SNOW",,,"PSY, SRG, SNOWBOARD",,,"FAA CWO",,,,,,,,,,,,,,,,,,,,,,,,,,,,"30.55","18","26","0.00",,,,"71","30.55","SCT:04 37 SCT:04 250","30.53","10.00","24","060",,"11",,,,,,,,,,,,,,,,,,,,,,,,,,,,,,,,,,,,,"MET10701/15/18 17:51:02 METAR KJFK 152251Z 06010KT 10SM SCT037 SCT250 M03/M08 A3055 RMK AO2 SLP345 T10331078 (RR)","FM-15","7",,,,,,,,,,,,,,,,,,,,,,,,,,,"2009-05-01"
"74486094789","2018-01-15T18:51:00","FM-15","7",,"ESE","1.5","mi","TEMP, PRECIP, SNOW",,,"PSY, SRG, SNOWBOARD",,,"FAA CWO",,,,,,,,,,,,,,,,,,,,,,,,,,,,"30.55","17","24","0.00",,"-0.01","0","75","30.54","FEW:02 37 FEW:02 250","30.53","10.00","22","040",,"6",,,,,,,,,,,,,,,,,,,,,,,,,,,,,,,,,,,,,"MET12501/15/18 18:51:02 METAR KJFK 152351Z 04005KT 10SM FEW037 FEW250 M04/M08 A3055 RMK AO2 SLP343 T10441083 11011 21044 50002 (RR)","FM-15","7",,,,,,,,,,,,,,,,,,,,,,,,,,,"2009-05-01"
"74486094789","2018-01-15T19:00:00","FM-12","4",,"ESE","1.5","mi","TEMP, PRECIP, SNOW",,,"PSY, SRG, SNOWBOARD",,,"FAA CWO",,,,,,,,,,,,,,,,,,,,,,,,,,,,,"17","24",,,"0.01","9","75","30.54","41","30.52","9.94","22","040",,"6",,,,,,,,,,,,,,,,,,,,,,,,,,,,,,,,,,,,,"SYN08074486 32666 20405 11044 21083 30334 40343 50002 92351 333 11011 21083 555 91600=","FM-12","4",,,,,,,,,,,,,,,,,,,,,,,,,,,"2009-05-01"
"74486094789","2018-01-15T19:51:00","FM-15","7",,"ESE","1.5","mi","TEMP, PRECIP, SNOW",,,"PSY, SRG, SNOWBOARD",,,"FAA CWO",,,,,,,,,,,,,,,,,,,,,,,,,,,,"30.55","17","23","0.00",,,,"78","30.55","FEW:02 35 FEW:02 250","30.53","10.00","21","040",,"7",,,,,,,,,,,,,,,,,,,,,,,,,,,,,,,,,,,,,"MET10201/15/18 19:51:01 METAR KJFK 160051Z 04006KT 10SM FEW035 FEW250 M05/M08 A3055 RMK AO2 SLP345 T10501083","FM-15","7",,,,,,,,,,,,,,,,,,,,,,,,,,,"2009-05-01"
"74486094789","2018-01-15T20:51:00","FM-15","7",,"ESE","1.5","mi","TEMP, PRECIP, SNOW",,,"PSY, SRG, SNOWBOARD",,,"FAA CWO",,,,,,,,,,,,,,,,,,,,,,,,,,,,"30.54","17","23","0.00",,,,"78","30.53","FEW:02 35 FEW:02 130 FEW:02 250","30.51","10.00","21","040",,"7",,,,,,,,,,,,,,,,,,,,,,,,,,,,,,,,,,,,,"MET10901/15/18 20:51:01 METAR KJFK 160151Z 04006KT 10SM FEW035 FEW130 FEW250 M05/M08 A3054 RMK AO2 SLP340 T10501083","FM-15","7",,,,,,,,,,,,,,,,,,,,,,,,,,,"2009-05-01"
"74486094789","2018-01-15T21:51:00","FM-15","7",,"ESE","1.5","mi","TEMP, PRECIP, SNOW",,,"PSY, SRG, SNOWBOARD",,,"FAA CWO",,,,,,,,,,,,,,,,,,,,,,,,,,,,"30.53","16","23","0.00",,"+0.02","8","74","30.53","FEW:02 35 FEW:02 130","30.50","10.00","21","040",,"7",,,,,,,,,,,,,,,,,,,,,,,,,,,,,,,,,,,,,"MET10801/15/18 21:51:02 METAR KJFK 160251Z 04006KT 10SM FEW035 FEW130 M05/M09 A3053 RMK AO2 SLP337 T10501089 58006","FM-15","7",,,,,,,,,,,,,,,,,,,,,,,,,,,"2009-05-01"
"74486094789","2018-01-15T22:00:00","FM-12","4",,"ESE","1.5","mi","TEMP, PRECIP, SNOW",,,"PSY, SRG, SNOWBOARD",,,"FAA CWO",,,,,,,,,,,,,,,,,,,,,,,,,,,,,"16","23",,,"+0.02","8","74","30.53","41","30.50","9.94","21","040",,"7",,,,,,,,,,,,,,,,,,,,,,,,,,,,,,,,,,,,,"SYN06474486 32666 20406 11050 21089 30327 40337 58006 90251 555 91603=","FM-12","4",,,,,,,,,,,,,,,,,,,,,,,,,,,"2009-05-01"
"74486094789","2018-01-15T22:51:00","FM-15","7",,"ESE","1.5","mi","TEMP, PRECIP, SNOW",,,"PSY, SRG, SNOWBOARD",,,"FAA CWO",,,,,,,,,,,,,,,,,,,,,,,,,,,,"30.52","17","23","0.00",,,,"78","30.52","FEW:02 35","30.50","10.00","21","060",,"7",,,,,,,,,,,,,,,,,,,,,,,,,,,,,,,,,,,,,"MET09501/15/18 22:51:02 METAR KJFK 160351Z 06006KT 10SM FEW035 M05/M08 A3052 RMK AO2 SLP335 T10501083","FM-15","7",,,,,,,,,,,,,,,,,,,,,,,,,,,"2009-05-01"
"74486094789","2018-01-15T23:51:00","FM-15","7",,"ESE","1.5","mi","TEMP, PRECIP, SNOW",,,"PSY, SRG, SNOWBOARD",,,"FAA CWO",,,,,,,,,,,,,,,,,,,,,,,,,,,,"30.51","17","23","0.00",,,,"78","30.51","FEW:02 35 BKN:07 200","30.48","10.00","21","060",,"5",,,,,,,,,,,,,,,,,,,,,,,,,,,,,,,,,,,,,"MET11201/15/18 23:51:02 METAR KJFK 160451Z 06004KT 10SM FEW035 BKN200 M05/M08 A3051 RMK AO2 SLP331 T10501083 410111083","FM-15","7",,,,,,,,,,,,,,,,,,,,,,,,,,,"2009-05-01"
"74486094789","2018-01-15T23:59:00","SOD  ","6",,"ESE","1.5","mi","TEMP, PRECIP, SNOW",,,"PSY, SRG, SNOWBOARD",,,"FAA CWO",,,,,,"14","24","69","30.60","30.59","20","11.8","0","-8.4","41","30","17","040","24","0.00","0","0.0","030","20",,,,,,,,,,,,,,,,,,,,,,,,,,,,,,,,,,,,,,,,,,,,,,,,,,,,,,,,"SOD73924 HR PRECIPITATION (IN): 0.00 SNOW DEPTH (IN):0     24 HR SNOWFALL (IN):0.0  24 HR MAX TEMP (F): 3024 HR MIN TEMP (F): 17AVERAGE STATION PRESSURE:30.590 MINIMUM SEA LEVEL PRESSURE:30.51 TIME OF OCCURRENCE:2359 PEAK WIND SPEED (MPH): 24 PEAK WIND DIR (DEG): 40 PEAK WIND TIME (LST):      FASTEST 2MIN SPEED (MPH): 20FASTEST 2MIN DIR (DEG): 30 FASTEST 2MIN TIME (LST):     AVERAGE WIND SPEED (MPH):11.8 24 HR AVG TEMP (F): 24DEPART FROM NORMAL: -8  HEATING DEGREE DAYS: 41 COOLING DEGREE DAYS:  0 LATEST DAY MAX TEMP (0700-1900 LST):30  LATEST NIGHT MIN TEMP(1900-0800 LST):17 HOURLY INCREMENTAL PRECIPITATION VALUES (IN):.00 0.00 0.00 0.00 0.00 0.00 0.00 0.00 0.00 0.00 0.00 0.00 0.00 0.00 0.00 0.00 0.00 0.00 0.00 0.00 0.00 0.00 0.00 0.00","SOD  ","6",,,,,,,,,,,,,,,,,,,,,,,,,"0717","1652","2009-05-01"
"74486094789","2018-01-16T00:37:00","FM-16","7",,"ESE","1.5","mi","TEMP, PRECIP, SNOW",,,"PSY, SRG, SNOWBOARD",,,"FAA CWO",,,,,,,,,,,,,,,,,,,,,,,,,,,,"30.51","17","23",,,,,"78",,"BKN:07 14 OVC:08 200","30.48","10.00","21","020",,"7",,,,,,,,,,,,,,,,,,,,,,,,,,,,,,,,,,,,,"MET10001/16/18 00:37:02 SPECI KJFK 160537Z 02006KT 10SM BKN014 OVC200 M05/M08 A3051 RMK AO2 T10501083 (JC)","FM-16","7",,,,,,,,,,,,,,,,,,,,,,,,,,,"2009-05-01"
"74486094789","2018-01-16T00:51:00","FM-15","7",,"ESE","1.5","mi","TEMP, PRECIP, SNOW",,,"PSY, SRG, SNOWBOARD",,,"FAA CWO",,,,,,,,,,,,,,,,,,,,,,,,,,,,"30.51","18","23","0.00",,"+0.02","6","81","30.50","OVC:08 13","30.48","10.00","21","030",,"7",,,,,,,,,,,,,,,,,,,,,,,,,,,,,,,,,,,,,"MET11801/16/18 00:51:02 METAR KJFK 160551Z 03006KT 10SM OVC013 M05/M08 A3051 RMK AO2 SLP330 T10501078 11044 21061 56007 (JC)","FM-15","7",,,,,,,,,,,,,,,,,,,,,,,,,,,"2009-05-01"
"74486094789","2018-01-16T01:00:00","FM-12","4",,"ESE","1.5","mi","TEMP, PRECIP, SNOW",,,"PSY, SRG, SNOWBOARD",,,"FAA CWO",,,,,,,,,,,,,,,,,,,,,,,,,,,,,"18","23",,,"+0.02","6","81","30.50","15","30.47","9.94","21","030",,"7",,,,,,,,,,,,,,,,,,,,,,,,,,,,,,,,,,,,,"SYN08074486 32466 80306 11050 21078 30320 40330 56007 90551 333 11044 21083 555 91606=","FM-12","4",,,,,,,,,,,,,,,,,,,,,,,,,,,"2009-05-01"
"74486094789","2018-01-16T01:51:00","FM-15","7",,"ESE","1.5","mi","TEMP, PRECIP, SNOW",,,"PSY, SRG, SNOWBOARD",,,"FAA CWO",,,,,,,,,,,,,,,,,,,,,,,,,,,,"30.50","20","25","0.00",,,,"81","30.49","OVC:08 13","30.47","10.00","23","040",,"9",,,,,,,,,,,,,,,,,,,,,,,,,,,,,,,,,,,,,"MET10001/16/18 01:51:02 METAR KJFK 160651Z 04008KT 10SM OVC013 M04/M07 A3050 RMK AO2 SLP326 T10391067 (JC)","FM-15","7",,,,,,,,,,,,,,,,,,,,,,,,,,,"2009-05-01"
"74486094789","2018-01-16T02:51:00","FM-15","7",,"ESE","1.5","mi","TEMP, PRECIP, SNOW",,,"PSY, SRG, SNOWBOARD",,,"FAA CWO",,,,,,,,,,,,,,,,,,,,,,,,,,,,"30.52","21","25","0.00",,,,"85","30.52","OVC:08 12","30.50","10.00","24","360",,"9",,,,,,,,,,,,,,,,,,,,,,,,,,,,,,,,,,,,,"MET10001/16/18 02:51:02 METAR KJFK 160751Z 36008KT 10SM OVC012 M04/M06 A3052 RMK AO2 SLP334 T10391061 (JC)","FM-15","7",,,,,,,,,,,,,,,,,,,,,,,,,,,"2009-05-01"
"74486094789","2018-01-16T03:51:00","FM-15","7",,"ESE","1.5","mi","TEMP, PRECIP, SNOW",,,"PSY, SRG, SNOWBOARD",,,"FAA CWO",,,,,,,,,,,,,,,,,,,,,,,,,,,,"30.52","22","25","0.00",,"-0.01","3","88","30.52","OVC:08 11","30.50","10.00","24","030",,"8",,,,,,,,,,,,,,,,,,,,,,,,,,,,,,,,,,,,,"MET10601/16/18 03:51:02 METAR KJFK 160851Z 03007KT 10SM OVC011 M04/M06 A3052 RMK AO2 SLP334 T10391056 53004 (JC)","FM-15","7",,,,,,,,,,,,,,,,,,,,,,,,,,,"2009-05-01"
"74486094789","2018-01-16T04:00:00","FM-12","4",,"ESE","1.5","mi","TEMP, PRECIP, SNOW",,,"PSY, SRG, SNOWBOARD",,,"FAA CWO",,,,,,,,,,,,,,,,,,,,,,,,,,,,,"22","25",,,"-0.01","3","88","30.52","15","30.49","9.94","24","030",,"8",,,,,,,,,,,,,,,,,,,,,,,,,,,,,,,,,,,,,"SYN06474486 32466 80307 11039 21056 30324 40334 53004 90851 555 91609=","FM-12","4",,,,,,,,,,,,,,,,,,,,,,,,,,,"2009-05-01"
"74486094789","2018-01-16T04:49:00","FM-16","6",,"ESE","1.5","mi","TEMP, PRECIP, SNOW",,,"PSY, SRG, SNOWBOARD",,,"FAA CWO",,,,,,,,,,,,,,,,,,,,,,,,,,,,"30.51","21","25",,,,,"86",,"OVC:08 9","30.48","10.00","24","040",,"8",,,,,,,,,,,,,,,,,,,,,,,,,,,,,,,,,,,,,"MET08801/16/18 04:49:02 SPECI KJFK 160949Z 04007KT 10SM OVC009 M04/M06 A3051 RMK AO2 FIBI (JC)","FM-16","6",,,,,,,,,,,,,,,,,,,,,,,,,,,"2009-05-01"
"74486094789","2018-01-16T04:51:00","FM-15","7",,"ESE","1.5","mi","TEMP, PRECIP, SNOW",,,"PSY, SRG, SNOWBOARD",,,"FAA CWO",,,,,,,,,,,,,,,,,,,,,,,,,,,,"30.51","22","25","0.00",,,,"88","30.51","OVC:08 9","30.48","10.00","24","040",,"9",,,,,,,,,,,,,,,,,,,,,,,,,,,,,,,,,,,,,"MET10001/16/18 04:51:02 METAR KJFK 160951Z 04008KT 10SM OVC009 M04/M06 A3051 RMK AO2 SLP331 T10391056 (JC)","FM-15","7",,,,,,,,,,,,,,,,,,,,,,,,,,,"2009-05-01"
"74486094789","2018-01-16T05:16:00","FM-16","7",,"ESE","1.5","mi","TEMP, PRECIP, SNOW",,,"PSY, SRG, SNOWBOARD",,,"FAA CWO",,,,,,,,,,,,,,,,,,,,,,,,,,,,"30.52","22","25",,,,,"88",,"OVC:08 10","30.50","10.00","24","020",,"8",,,,,,,,,,,,,,,,,,,,,,,,,,,,,,,,,,,,,"MET09301/16/18 05:16:02 SPECI KJFK 161016Z 02007KT 10SM OVC010 M04/M06 A3052 RMK AO2 T10391056 (JC)","FM-16","7",,,,,,,,,,,,,,,,,,,,,,,,,,,"2009-05-01"
"74486094789","2018-01-16T05:51:00","FM-15","7",,"ESE","1.5","mi","TEMP, PRECIP, SNOW",,,"PSY, SRG, SNOWBOARD",,,"FAA CWO",,,,,,,,,,,,,,,,,,,,,,,,,,,,"30.51","23","26","0.00",,,,"88","30.51","OVC:08 13","30.48","10.00","25","030",,"8",,,,,,,,,,,,,,,,,,,,,,,,,,,,,,,,,,,,,"MET10001/16/18 05:51:02 METAR KJFK 161051Z 03007KT 10SM OVC013 M03/M05 A3051 RMK AO2 SLP332 T10331050 (JC)","FM-15","7",,,,,,,,,,,,,,,,,,,,,,,,,,,"2009-05-01"
"74486094789","2018-01-16T06:51:00","FM-15","7",,"ESE","1.5","mi","TEMP, PRECIP, SNOW",,,"PSY, SRG, SNOWBOARD",,,"FAA CWO",,,,,,,,,,,,,,,,,,,,,,,,,,,,"30.53","23","26","0.00",,"-0.01","3","88","30.53","BKN:07 14 BKN:07 220","30.50","10.00","25","040",,"3",,,,,,,,,,,,,,,,,,,,,,,,,,,,,,,,,,,,,"MET12501/16/18 06:51:02 METAR KJFK 161151Z 04003KT 10SM BKN014 BKN220 M03/M05 A3053 RMK AO2 SLP338 T10331050 11033 21050 53004 (BH)","FM-15","7",,,,,,,,,,,,,,,,,,,,,,,,,,,"2009-05-01"
"74486094789","2018-01-16T07:00:00","FM-12","4",,"ESE","1.5","mi","TEMP, PRECIP, SNOW",,,"PSY, SRG, SNOWBOARD",,,"FAA CWO",,,,,,,,,,,,,,,,,,,,,,,,,,,,,"23","26",,,"-0.01","3","88","30.53","15","30.50","9.94","25","040",,"3",,,,,,,,,,,,,,,,,,,,,,,,,,,,,,,,,,,,,"SYN08074486 32466 60403 11033 21050 30327 40338 53004 91151 333 11011 21061 555 91612=","FM-12","4",,,,,,,,,,,,,,,,,,,,,,,,,,,"2009-05-01"
"74486094789","2018-01-16T07:49:00","FM-16","6",,"ESE","1.5","mi","TEMP, PRECIP, SNOW",,,"PSY, SRG, SNOWBOARD",,,"FAA CWO",,,,,,,,,,,,,,,,,,,,,,,,,,,,"30.53","23","27",,,,,"86",,"SCT:04 15 BKN:07 34 BKN:07 220","30.50","10.00","26","040",,"7",,,,,,,,,,,,,,,,,,,,,,,,,,,,,,,,,,,,,"MET11201/16/18 07:49:02 SPECI KJFK 161249Z 04006KT 10SM SCT015 BKN034 BKN220 M03/M05 A3053 RMK AO2 SCT V BKN FIBI (BH)","FM-16","6",,,,,,,,,,,,,,,,,,,,,,,,,,,"2009-05-01"
"74486094789","2018-01-16T07:51:00","FM-15","7",,"ESE","1.5","mi","TEMP, PRECIP, SNOW",,,"PSY, SRG, SNOWBOARD",,,"FAA CWO",,,,,,,,,,,,,,,,,,,,,,,,,,,,"30.53","23","27","0.00",,,,"85","30.52","SCT:04 15 BKN:07 34 BKN:07 220","30.50","10.00","26","040",,"8",,,,,,,,,,,,,,,,,,,,,,,,,,,,,,,,,,,,,"MET12401/16/18 07:51:02 METAR KJFK 161251Z 04007KT 10SM SCT015 BKN034 BKN220 M03/M05 A3053 RMK AO2 SLP336 SCT V BKN T10281050 (BH)","FM-15","7",,,,,,,,,,,,,,,,,,,,,,,,,,,"2009-05-01"
"74486094789","2018-01-16T08:51:00","FM-15","7",,"ESE","1.5","mi","TEMP, PRECIP, SNOW",,,"PSY, SRG, SNOWBOARD",,,"FAA CWO",,,,,,,,,,,,,,,,,,,,,,,,,,,,"30.53","24","29","0.00",,,,"82","30.53","FEW:02 16 OVC:08 35","30.50","10.00","27","080",,"3",,,,,,,,,,,,,,,,,,,,,,,,,,,,,,,,,,,,,"MET10701/16/18 08:51:02 METAR KJFK 161351Z 08003KT 10SM FEW016 OVC035 M02/M04 A3053 RMK AO2 SLP337 T10171044 (BH)","FM-15","7",,,,,,,,,,,,,,,,,,,,,,,,,,,"2009-05-01"
"74486094789","2018-01-16T09:51:00","FM-15","7",,"ESE","1.5","mi","TEMP, PRECIP, SNOW",,,"PSY, SRG, SNOWBOARD",,,"FAA CWO",,,,,,,,,,,,,,,,,,,,,,,,,,,,"30.52","26","31","0.00",,"+0.01","8","82","30.52","FEW:02 12 BKN:07 33 BKN:07 75","30.50","10.00","29","000",,"0",,,,,,,,,,,,,,,,,,,,,,,,,,,,,,,,,,,,,"MET12001/16/18 09:51:02 METAR KJFK 161451Z 00000KT 10SM FEW012 BKN033 BKN075 M01/M03 A3052 RMK AO2 SLP335 T10061033 58003 (BH)","FM-15","7",,,,,,,,,,,,,,,,,,,,,,,,,,,"2009-05-01"
"74486094789","2018-01-16T10:00:00","FM-12","4",,"ESE","1.5","mi","TEMP, PRECIP, SNOW",,,"PSY, SRG, SNOWBOARD",,,"FAA CWO",,,,,,,,,,,,,,,,,,,,,,,,,,,,,"26","31",,,"+0.01","8","82","30.52","15","30.49","9.94","29","000",,"0",,,,,,,,,,,,,,,,,,,,,,,,,,,,,,,,,,,,,"SYN06474486 32466 80000 11006 21033 30324 40335 58003 91451 555 91615=","FM-12","4",,,,,,,,,,,,,,,,,,,,,,,,,,,"2009-05-01"
"74486094789","2018-01-16T10:51:00","FM-15","7",,"ESE","1.5","mi","TEMP, PRECIP, SNOW",,,"PSY, SRG, SNOWBOARD",,,"FAA CWO",,,,,,,,,,,,,,,,,,,,,,,,,,,,"30.51","28","32","0.00",,,,"85","30.50","FEW:02 12 BKN:07 34 OVC:08 70","30.48","10.00","31","100",,"6",,,,,,,,,,,,,,,,,,,,,,,,,,,,,,,,,,,,,"MET11301/16/18 10:51:02 METAR KJFK 161551Z 10005KT 10SM FEW012 BKN034 OVC070 00/M02 A3051 RMK AO2 SLP330 T00001022 (BH)","FM-15","7",,,,,,,,,,,,,,,,,,,,,,,,,,,"2009-05-01"
"74486094789","2018-01-16T11:51:00","FM-15","7",,"ESE","1.5","mi","TEMP, PRECIP, SNOW",,,"PSY, SRG, SNOWBOARD",,,"FAA CWO",,,,,,,,,,,,,,,,,,,,,,,,,,,,"30.48","29","34","0.00",,,,"82","30.48","FEW:02 15 BKN:07 33 BKN:07 70","30.45","10.00","32","080",,"3",,,,,,,,,,,,,,,,,,,,,,,,,,,,,,,,,,,,,"MET11301/16/18 11:51:02 METAR KJFK 161651Z 08003KT 10SM FEW015 BKN033 BKN070 01/M02 A3048 RMK AO2 SLP321 T00111017 (BH)","FM-15","7",,,,,,,,,,,,,,,,,,,,,,,,,,,"2009-05-01"
"74486094789","2018-01-16T12:51:00","FM-15","7",,"ESE","1.5","mi","TEMP, PRECIP, SNOW",,,"PSY, SRG, SNOWBOARD",,,"FAA CWO",,,,,,,,,,,,,,,,,,,,,,,,,,,,"30.45","29","36","0.00",,"+0.07","8","76","30.45","FEW:02 17 SCT:04 32 BKN:07 70","30.42","10.00","33","110",,"8",,,,,,,,,,,,,,,,,,,,,,,,,,,,,,,,,,,,,"MET13101/16/18 12:51:02 METAR KJFK 161751Z 11007KT 10SM FEW017 SCT032 BKN070 02/M02 A3045 RMK AO2 SLP311 T00221017 10022 21033 58023 (BH)","FM-15","7",,,,,,,,,,,,,,,,,,,,,,,,,,,"2009-05-01"
"74486094789","2018-01-16T13:00:00","FM-12","4",,"ESE","1.5","mi","TEMP, PRECIP, SNOW",,,"PSY, SRG, SNOWBOARD",,,"FAA CWO",,,,,,,,,,,,,,,,,,,,,,,,,,,,,"29","36",,,"+0.07","8","76","30.45","15","30.42","9.94","33","110",,"8",,,,,,,,,,,,,,,,,,,,,,,,,,,,,,,,,,,,,"SYN08074486 32466 61107 10022 21017 30300 40311 58023 91751 333 10022 21044 555 91618=","FM-12","4",,,,,,,,,,,,,,,,,,,,,,,,,,,"2009-05-01"
"74486094789","2018-01-16T13:51:00","FM-15","7",,"ESE","1.5","mi","TEMP, PRECIP, SNOW",,,"PSY, SRG, SNOWBOARD",,,"FAA CWO",,,,,,,,,,,,,,,,,,,,,,,,,,,,"30.44","30","37","0.00",,,,"76","30.44","FEW:02 17 BKN:07 31 BKN:07 75","30.42","10.00","34","110",,"6",,,,,,,,,,,,,,,,,,,,,,,,,,,,,,,,,,,,,"MET11301/16/18 13:51:02 METAR KJFK 161851Z 11005KT 10SM FEW017 BKN031 BKN075 03/M01 A3044 RMK AO2 SLP308 T00281011 (BH)","FM-15","7",,,,,,,,,,,,,,,,,,,,,,,,,,,"2009-05-01"
"74486094789","2018-01-16T14:51:00","FM-15","7",,"ESE","1.5","mi","TEMP, PRECIP, SNOW",,,"PSY, SRG, SNOWBOARD",,,"FAA CWO",,,,,,,,,,,,,,,,,,,,,,,,,,,,"30.44","32","39","0.00",,,,"76","30.43","FEW:02 17 BKN:07 30 BKN:07 70","30.42","10.00","36","140",,"8",,,,,,,,,,,,,,,,,,,,,,,,,,,,,,,,,,,,,"MET11201/16/18 14:51:02 METAR KJFK 161951Z 14007KT 10SM FEW017 BKN030 BKN070 04/00 A3044 RMK AO2 SLP306 T00390000 (RR)","FM-15","7",,,,,,,,,,,,,,,,,,,,,,,,,,,"2009-05-01"
"74486094789","2018-01-16T15:51:00","FM-15","7",,"ESE","1.5","mi","TEMP, PRECIP, SNOW",,,"PSY, SRG, SNOWBOARD",,,"FAA CWO",,,,,,,,,,,,,,,,,,,,,,,,,,,,"30.43","33","37","0.00",,"+0.03","8","86","30.42","FEW:02 17 BKN:07 30 OVC:08 70","30.40","10.00","35","100",,"6",,,,,,,,,,,,,,,,,,,,,,,,,,,,,,,,,,,,,"MET11801/16/18 15:51:02 METAR KJFK 162051Z 10005KT 10SM FEW017 BKN030 OVC070 03/01 A3043 RMK AO2 SLP302 T00280006 58009 (RR)","FM-15","7",,,,,,,,,,,,,,,,,,,,,,,,,,,"2009-05-01"
"74486094789","2018-01-16T16:00:00","FM-12","4",,"ESE","1.5","mi","TEMP, PRECIP, SNOW",,,"PSY, SRG, SNOWBOARD",,,"FAA CWO",,,,,,,,,,,,,,,,,,,,,,,,,,,,,"33","37",,,"+0.03","8","86","30.42","15","30.40","9.94","35","100",,"6",,,,,,,,,,,,,,,,,,,,,,,,,,,,,,,,,,,,,"SYN06474486 32466 81005 10028 20006 30293 40302 58009 92051 555 91621=","FM-12","4",,,,,,,,,,,,,,,,,,,,,,,,,,,"2009-05-01"
"74486094789","2018-01-16T16:51:00","FM-15","7",,"ESE","1.5","mi","TEMP, PRECIP, SNOW",,,"PSY, SRG, SNOWBOARD",,,"FAA CWO",,,,,,,,,,,,,,,,,,,,,,,,,,,,"30.42","32","37","0.00",,,,"82","30.42","FEW:02 17 BKN:07 30 BKN:07 250","30.40","10.00","35","100",,"7",,,,,,,,,,,,,,,,,,,,,,,,,,,,,,,,,,,,,"MET11201/16/18 16:51:02 METAR KJFK 162151Z 10006KT 10SM FEW017 BKN030 BKN250 03/00 A3042 RMK AO2 SLP300 T00280000 (RR)","FM-15","7",,,,,,,,,,,,,,,,,,,,,,,,,,,"2009-05-01"
"74486094789","2018-01-16T17:16:00","FM-16","7",,"ESE","1.5","mi","TEMP, PRECIP, SNOW",,,"PSY, SRG, SNOWBOARD",,,"FAA CWO",,,,,,,,,,,,,,,,,,,,,,,,,,,,"30.42","32","36",,,,,"86",,"FEW:02 17 BKN:07 29 BKN:07 250","30.40","10.00","34","100",,"6",,,,,,,,,,,,,,,,,,,,,,,,,,,,,,,,,,,,,"MET10501/16/18 17:16:02 SPECI KJFK 162216Z 10005KT 10SM FEW017 BKN029 BKN250 02/00 A3042 RMK AO2 T00220000 (RR)","FM-16","7",,,,,,,,,,,,,,,,,,,,,,,,,,,"2009-05-01"
"74486094789","2018-01-16T17:47:00","FM-16","7",,"ESE","1.5","mi","TEMP, PRECIP, SNOW",,,"PSY, SRG, SNOWBOARD",,,"FAA CWO",,,,,,,,,,,,,,,,,,,,,,,,,,,,"30.42","32","36",,,,,"87",,"SCT:04 27 BKN:07 34 BKN:07 200","30.40","10.00","34","090",,"6",,,,,,,,,,,,,,,,,,,,,,,,,,,,,,,,,,,,,"MET09501/16/18 17:47:02 SPECI KJFK 162247Z 09005KT 10SM SCT027 BKN034 BKN200 02/00 A3042 RMK AO2 (RR)","FM-16","7",,,,,,,,,,,,,,,,,,,,,,,,,,,"2009-05-01"
"74486094789","2018-01-16T17:51:00","FM-15","7",,"ESE","1.5","mi","TEMP, PRECIP, SNOW",,,"PSY, SRG, SNOWBOARD",,,"FAA CWO",,,,,,,,,,,,,,,,,,,,,,,,,,,,"30.41","32","35","0.00",,,,"89","30.41","SCT:04 27 BKN:07 34 BKN:07 200","30.38","10.00","34","090",,"6",,,,,,,,,,,,,,,,,,,,,,,,,,,,,,,,,,,,,"MET11201/16/18 17:51:02 METAR KJFK 162251Z 09005KT 10SM SCT027 BKN034 BKN200 02/00 A3041 RMK AO2 SLP299 T00170000 (RR)","FM-15","7",,,,,,,,,,,,,,,,,,,,,,,,,,,"2009-05-01"
"74486094789","2018-01-16T18:51:00","FM-15","7",,"ESE","1.5","mi","TEMP, PRECIP, SNOW",,,"PSY, SRG, SNOWBOARD",,,"FAA CWO",,,,,,,,,,,,,,,,,,,,,,,,,,,,"30.42","32","35","0.00",,"+0.00","5","89","30.42","BKN:07 33 OVC:08 200","30.40","10.00","34","070",,"6",,,,,,,,,,,,,,,,,,,,,,,,,,,,,,,,,,,,,"MET12301/16/18 18:51:02 METAR KJFK 162351Z 07005KT 10SM BKN033 OVC200 02/00 A3042 RMK AO2 SLP300 T00170000 10039 20017 55001 (RR)","FM-15","7",,,,,,,,,,,,,,,,,,,,,,,,,,,"2009-05-01"
"74486094789","2018-01-16T19:00:00","FM-12","4",,"ESE","1.5","mi","TEMP, PRECIP, SNOW",,,"PSY, SRG, SNOWBOARD",,,"FAA CWO",,,,,,,,,,,,,,,,,,,,,,,,,,,,,"32","35",,,"+0.00","5","89","30.42","26","30.39","9.94","34","070",,"6",,,,,,,,,,,,,,,,,,,,,,,,,,,,,,,,,,,,,"SYN08074486 32566 80705 10017 20000 30290 40300 55001 92351 333 10039 21049 555 91700=","FM-12","4",,,,,,,,,,,,,,,,,,,,,,,,,,,"2009-05-01"
"74486094789","2018-01-16T19:51:00","FM-15","7",,"ESE","1.5","mi","TEMP, PRECIP, SNOW",,,"PSY, SRG, SNOWBOARD",,,"FAA CWO",,,,,,,,,,,,,,,,,,,,,,,,,,,,"30.41","30","34","0.00",,,,"85","30.40","BKN:07 33 BKN:07 150 OVC:08 220","30.38","10.00","32","040",,"6",,,,,,,,,,,,,,,,,,,,,,,,,,,,,,,,,,,,,"MET10801/16/18 19:51:01 METAR KJFK 170051Z 04005KT 10SM BKN033 BKN150 OVC220 01/M01 A3041 RMK AO2 SLP296 T00111011","FM-15","7",,,,,,,,,,,,,,,,,,,,,,,,,,,"2009-05-01"
"74486094789","2018-01-16T20:51:00","FM-15","7",,"ESE","1.5","mi","TEMP, PRECIP, SNOW",,,"PSY, SRG, SNOWBOARD",,,"FAA CWO",,,,,,,,,,,,,,,,,,,,,,,,,,,,"30.40","30","33","0.00",,,,"89","30.39","FEW:02 21 SCT:04 34 BKN:07 150","30.37","10.00","32","050",,"7",,,,,,,,,,,,,,,,,,,,,,,,,,,,,,,,,,,,,"MET10801/16/18 20:51:01 METAR KJFK 170151Z 05006KT 10SM FEW021 SCT034 BKN150 01/M01 A3040 RMK AO2 SLP292 T00061011","FM-15","7",,,,,,,,,,,,,,,,,,,,,,,,,,,"2009-05-01"
"74486094789","2018-01-16T21:51:00","FM-15","7",,"ESE","1.5","mi","TEMP, PRECIP, SNOW",,,"PSY, SRG, SNOWBOARD",,,"FAA CWO",,,,,,,,,,,,,,,,,,,,,,,,,,,,"30.38","30","34","0.00",,"+0.04","8","85","30.38","FEW:02 23 OVC:08 180","30.35","10.00","32","010",,"6",,,,,,,,,,,,,,,,,,,,,,,,,,,,,,,,,,,,,"MET10701/16/18 21:51:02 METAR KJFK 170251Z 01005KT 10SM FEW023 OVC180 01/M01 A3038 RMK AO2 SLP288 T00111011 58012","FM-15","7",,,,,,,,,,,,,,,,,,,,,,,,,,,"2009-05-01"
"74486094789","2018-01-16T22:00:00","FM-12","4",,"ESE","1.5","mi","TEMP, PRECIP, SNOW",,,"PSY, SRG, SNOWBOARD",,,"FAA CWO",,,,,,,,,,,,,,,,,,,,,,,,,,,,,"30","34",,,"+0.04","8","85","30.38","26","30.35","9.94","32","010",,"6",,,,,,,,,,,,,,,,,,,,,,,,,,,,,,,,,,,,,"SYN06474486 32566 80105 10011 21011 30276 40288 58012 90251 555 91703=","FM-12","4",,,,,,,,,,,,,,,,,,,,,,,,,,,"2009-05-01"
"74486094789","2018-01-16T22:51:00","FM-15","7",,"ESE","1.5","mi","TEMP, PRECIP, SNOW",,,"PSY, SRG, SNOWBOARD",,,"FAA CWO",,,,,,,,,,,,,,,,,,,,,,,,,,,,"30.36","32","35","0.00",,,,"89","30.36","SCT:04 25 OVC:08 160","30.34","10.00","34","050",,"6",,,,,,,,,,,,,,,,,,,,,,,,,,,,,,,,,,,,,"MET10001/16/18 22:51:02 METAR KJFK 170351Z 05005KT 10SM SCT025 OVC160 02/00 A3036 RMK AO2 SLP282 T00170000","FM-15","7",,,,,,,,,,,,,,,,,,,,,,,,,,,"2009-05-01"
"74486094789","2018-01-16T23:51:00","FM-15","7",,"ESE","1.5","mi","TEMP, PRECIP, SNOW",,,"PSY, SRG, SNOWBOARD",,,"FAA CWO",,,,,,,,,,,,,,,,,,,,,,,,,,,,"30.33","33","36","0.00",,,,"89","30.33","FEW:02 19 BKN:07 35 OVC:08 150","30.30","10.00","35","030",,"6",,,,,,,,,,,,,,,,,,,,,,,,,,,,,,,,,,,,,"MET11701/16/18 23:51:02 METAR KJFK 170451Z 03005KT 10SM FEW019 BKN035 OVC150 02/01 A3033 RMK AO2 SLP272 T00220006 400391061","FM-15","7",,,,,,,,,,,,,,,,,,,,,,,,,,,"2009-05-01"
"74486094789","2018-01-16T23:59:00","SOD  ","6",,"ESE","1.5","mi","TEMP, PRECIP, SNOW",,,"PSY, SRG, SNOWBOARD",,,"FAA CWO",,,,,,"27","30","85","30.46","30.45","30","6.3","0","-2.3","35","39","21","090","12","0.00","0","0.0","030","10",,,,,,,,,,,,,,,,,,,,,,,,,,,,,,,,,,,,,,,,,,,,,,,,,,,,,,,,"SOD73924 HR PRECIPITATION (IN): 0.00 SNOW DEPTH (IN):0     24 HR SNOWFALL (IN):0.0  24 HR MAX TEMP (F): 3924 HR MIN TEMP (F): 21AVERAGE STATION PRESSURE:30.450 MINIMUM SEA LEVEL PRESSURE:30.33 TIME OF OCCURRENCE:2359 PEAK WIND SPEED (MPH): 12 PEAK WIND DIR (DEG): 90 PEAK WIND TIME (LST):      FASTEST 2MIN SPEED (MPH): 10FASTEST 2MIN DIR (DEG): 30 FASTEST 2MIN TIME (LST):     AVERAGE WIND SPEED (MPH): 6.3 24 HR AVG TEMP (F): 30DEPART FROM NORMAL: -2  HEATING DEGREE DAYS: 35 COOLING DEGREE DAYS:  0 LATEST DAY MAX TEMP (0700-1900 LST):39  LATEST NIGHT MIN TEMP(1900-0800 LST):21 HOURLY INCREMENTAL PRECIPITATION VALUES (IN):.00 0.00 0.00 0.00 0.00 0.00 0.00 0.00 0.00 0.00 0.00 0.00 0.00 0.00 0.00 0.00 0.00 0.00 0.00 0.00 0.00 0.00 0.00 0.00","SOD  ","6",,,,,,,,,,,,,,,,,,,,,,,,,"0717","1654","2009-05-01"
"74486094789","2018-01-17T00:39:00","FM-16","7",,"ESE","1.5","mi","TEMP, PRECIP, SNOW",,,"PSY, SRG, SNOWBOARD",,,"FAA CWO",,,,,,,,,,,,,,,,,,,,,,,,,,,,"30.32","34","36",,,,,"93",,"BKN:07 14 OVC:08 38","30.29","10.00","35","020",,"6",,,,,,,,,,,,,,,,,,,,,,,,,,,,,,,,,,,,,"MET09801/17/18 00:39:02 SPECI KJFK 170539Z 02005KT 10SM BKN014 OVC038 02/01 A3032 RMK AO2 T00220011 (JC)","FM-16","7",,,,,,,,,,,,,,,,,,,,,,,,,,,"2009-05-01"
"74486094789","2018-01-17T00:51:00","FM-15","7",,"ESE","1.5","mi","TEMP, PRECIP, SNOW",,,"PSY, SRG, SNOWBOARD",,,"FAA CWO",,,,,,,,,,,,,,,,,,,,,,,,,,,,"30.31","34","37","0.00",,"+0.07","8","89","30.31","OVC:08 14","30.29","10.00","36","350",,"6",,,,,,,,,,,,,,,,,,,,,,,,,,,,,,,,,,,,,"MET11601/17/18 00:51:02 METAR KJFK 170551Z 35005KT 10SM OVC014 03/01 A3031 RMK AO2 SLP265 T00280011 10028 20006 58023 (JC)","FM-15","7",,,,,,,,,,,,,,,,,,,,,,,,,,,"2009-05-01"
"74486094789","2018-01-17T01:00:00","FM-12","4",,"ESE","1.5","mi","TEMP, PRECIP, SNOW",,,"PSY, SRG, SNOWBOARD",,,"FAA CWO",,,,,,,,,,,,,,,,,,,,,,,,,,,,,"34","37",,,"+0.07","8","89","30.31","15","30.28","9.94","36","350",,"6",,,,,,,,,,,,,,,,,,,,,,,,,,,,,,,,,,,,,"SYN08074486 32466 83505 10028 20011 30253 40265 58023 90551 333 10028 21049 555 91706=","FM-12","4",,,,,,,,,,,,,,,,,,,,,,,,,,,"2009-05-01"
"74486094789","2018-01-17T01:51:00","FM-15","7",,"ESE","1.5","mi","TEMP, PRECIP, SNOW",,,"PSY, SRG, SNOWBOARD",,,"FAA CWO",,,,,,,,,,,,,,,,,,,,,,,,,,,,"30.30","33","36","0.00",,,,"89","30.30","BKN:07 13 OVC:08 37","30.27","10.00","35","010",,"6",,,,,,,,,,,,,,,,,,,,,,,,,,,,,,,,,,,,,"MET10501/17/18 01:51:02 METAR KJFK 170651Z 01005KT 10SM BKN013 OVC037 02/01 A3030 RMK AO2 SLP260 T00220006 (JC)","FM-15","7",,,,,,,,,,,,,,,,,,,,,,,,,,,"2009-05-01"
"74486094789","2018-01-17T02:51:00","FM-15","7",,"ESE","1.5","mi","TEMP, PRECIP, SNOW",,,"PSY, SRG, SNOWBOARD",,,"FAA CWO",,,,,,,,,,,,,,,,,,,,,,,,,,,,"30.29","34","36","T","-RA:02 |RA |",,,"93","30.29","BKN:07 11 OVC:08 41","30.27","8.00","35","010",,"7",,,,,,,,,,,,,,,,,,,,,,,,,,,,,,,,,,,,,"MET12001/17/18 02:51:02 METAR KJFK 170751Z 01006KT 8SM -RA BKN011 OVC041 02/01 A3029 RMK AO2 RAB33 SLP257 P0000 T00220011 (JC)","FM-15","7",,,,,,,,,,,,,,,,,,,,,,,,,,,"2009-05-01"
"74486094789","2018-01-17T03:51:00","FM-15","7",,"ESE","1.5","mi","TEMP, PRECIP, SNOW",,,"PSY, SRG, SNOWBOARD",,,"FAA CWO",,,,,,,,,,,,,,,,,,,,,,,,,,,,"30.27","35","35","0.04","-RA:02 BR:1 |RA |","+0.04","8","100","30.27","BKN:07 10 OVC:08 25","30.24","6.00","35","350",,"7",,,,,,,,,,,,,,,,,,,,,,,,,,,,,,,,,,,,,"MET12901/17/18 03:51:02 METAR KJFK 170851Z 35006KT 6SM -RA BR BKN010 OVC025 02/02 A3027 RMK AO2 SLP249 P0004 60004 T00170017 58015 (JC)","FM-15","7",,,,,,,,,,,,,,,,,,,,,,,,,,,"2009-05-01"
"74486094789","2018-01-17T04:00:00","FM-12","4",,"ESE","1.5","mi","TEMP, PRECIP, SNOW",,,"PSY, SRG, SNOWBOARD",,,"FAA CWO",,,,,,,,,,,,,,,,,,,,,,,,,,,,,"35","35",,"||RA","+0.04","8","100","30.27","15","30.24","5.59","35","350",,"7",,,,,,,,,,,,,,,,,,,,,,,,,,,,,,,,,,,,,"SYN08674486 11459 83506 10017 20017 30239 40249 58015 60017 761// 90851 333 96010 555 91709=","FM-12","4",,,,,,,,,,,,,,,,,,,,,,,,,,,"2009-05-01"
"74486094789","2018-01-17T04:51:00","FM-15","7",,"ESE","1.5","mi","TEMP, PRECIP, SNOW",,,"PSY, SRG, SNOWBOARD",,,"FAA CWO",,,,,,,,,,,,,,,,,,,,,,,,,,,,"30.25","36","36","0.02","-RA:02 BR:1 |RA |",,,"100","30.24","BKN:07 11 BKN:07 26 OVC:08 60","30.22","5.00","36","050",,"6",,,,,,,,,,,,,,,,,,,,,,,,,,,,,,,,,,,,,"MET12401/17/18 04:51:02 METAR KJFK 170951Z 05005KT 5SM -RA BR BKN011 BKN026 OVC060 02/02 A3025 RMK AO2 SLP241 P0002 T00220022 (JC)","FM-15","7",,,,,,,,,,,,,,,,,,,,,,,,,,,"2009-05-01"
"74486094789","2018-01-17T05:43:00","FM-16","7",,"ESE","1.5","mi","TEMP, PRECIP, SNOW",,,"PSY, SRG, SNOWBOARD",,,"FAA CWO",,,,,,,,,,,,,,,,,,,,,,,,,,,,"30.26","37","37","0.01","-RA:02 BR:1 |RA |",,,"100",,"BKN:07 4 OVC:08 24","30.24","4.00","37","020",,"5",,,,,,,,,,,,,,,,,,,,,,,,,,,,,,,,,,,,,"MET11001/17/18 05:43:02 SPECI KJFK 171043Z 02004KT 4SM -RA BR BKN004 OVC024 03/03 A3026 RMK AO2 P0001 T00280028 (JC)","FM-16","7",,,,,,,,,,,,,,,,,,,,,,,,,,,"2009-05-01"
"74486094789","2018-01-17T05:51:00","FM-15","7",,"ESE","1.5","mi","TEMP, PRECIP, SNOW",,,"PSY, SRG, SNOWBOARD",,,"FAA CWO",,,,,,,,,,,,,,,,,,,,,,,,,,,,"30.26","36","36","0.01","-RA:02 BR:1 |RA |",,,"100","30.25","OVC:08 4","30.24","4.00","36","020",,"5",,,,,,,,,,,,,,,,,,,,,,,,,,,,,,,,,,,,,"MET11001/17/18 05:51:02 METAR KJFK 171051Z 02004KT 4SM -RA BR OVC004 02/02 A3026 RMK AO2 SLP245 P0001 T00220022 (JC)","FM-15","7",,,,,,,,,,,,,,,,,,,,,,,,,,,"2009-05-01"
"74486094789","2018-01-17T06:49:00","FM-16","6",,"ESE","1.5","mi","TEMP, PRECIP, SNOW",,,"PSY, SRG, SNOWBOARD",,,"FAA CWO",,,,,,,,,,,,,,,,,,,,,,,,,,,,"30.25","36","36",,"-RA:02 BR:1 |RA |",,,"100",,"OVC:08 3","30.22","1.00","36","310",,"8",,,,,,,,,,,,,,,,,,,,,,,,,,,,,,,,,,,,,"MET12101/17/18 06:49:02 SPECI KJFK 171149Z 31007KT 1SM R04R/P6000FT -RA BR OVC003 02/02 A3025 RMK AO2 SFC VIS 5 P0000 FIBI (BH)","FM-16","6",,,,,,,,,,,,,,,,,,,,,,,,,,,"2009-05-01"
"74486094789","2018-01-17T06:51:00","FM-15","7",,"ESE","1.5","mi","TEMP, PRECIP, SNOW",,,"PSY, SRG, SNOWBOARD",,,"FAA CWO",,,,,,,,,,,,,,,,,,,,,,,,,,,,"30.25","36","36","T","-RA:02 BR:1 |RA |","+0.01","6","100","30.25","OVC:08 3","30.22","1.00","36","320",,"9",,,,,,,,,,,,,,,,,,,,,,,,,,,,,,,,,,,,,"MET16301/17/18 06:51:02 METAR KJFK 171151Z 32008KT 1SM R04R/P6000FT -RA BR OVC003 02/02 A3025 RMK AO2 SFC VIS 5 SLP244 P0000 60007 70007 T00220022 10028 20017 56005 (BH)","FM-15","7",,,,,,,,,,,,,,,,,,,,,,,,,,,"2009-05-01"
"74486094789","2018-01-17T07:00:00","FM-12","4",,"ESE","1.5","mi","TEMP, PRECIP, SNOW",,,"PSY, SRG, SNOWBOARD",,,"FAA CWO",,,,,,,,,,,,,,,,,,,,,,,,,,,,,"36","36",,"||RA","+0.01","6","100","30.25","2","30.22","0.99","36","320",,"9",,,,,,,,,,,,,,,,,,,,,,,,,,,,,,,,,,,,,"SYN10474486 11116 83208 10022 20022 30232 40244 56005 60021 761// 91151 333 10039 20006 70018 96010 555 91712=","FM-12","4",,,,,,,,,,,,,,,,,,,,,,,,,,,"2009-05-01"
"74486094789","2018-01-17T07:51:00","FM-15","7",,"ESE","1.5","mi","TEMP, PRECIP, SNOW",,,"PSY, SRG, SNOWBOARD",,,"FAA CWO",,,,,,,,,,,,,,,,,,,,,,,,,,,,"30.26","35","36","0.02","-RA:02 BR:1 |RA |",,,"97","30.25","OVC:08 4","30.24","1.50","36","320",,"11",,,,,,,,,,,,,,,,,,,,,,,,,,,,,,,,,,,,,"MET13601/17/18 07:51:02 METAR KJFK 171251Z 32010KT 1 1/2SM -RA BR OVC004 02/02 A3026 RMK AO2 SFC VIS 4 SLP245 CIG 003V005 P0002 T00220017 (BH)","FM-15","7",,,,,,,,,,,,,,,,,,,,,,,,,,,"2009-05-01"
"74486094789","2018-01-17T08:08:00","FM-16","7",,"ESE","1.5","mi","TEMP, PRECIP, SNOW",,,"PSY, SRG, SNOWBOARD",,,"FAA CWO",,,,,,,,,,,,,,,,,,,,,,,,,,,,"30.26","35","35","0.01","-RA:02 BR:1 |RA |",,,"100",,"OVC:08 5","30.24","2.50","35","330",,"14",,,,,,,,,,,,,,,,,,,,,,,,,,,,,,,,,,,,,"MET11701/17/18 08:08:02 SPECI KJFK 171308Z 33012KT 2 1/2SM -RA BR OVC005 02/02 A3026 RMK AO2 SFC VIS 5 P0001 T00170017 (BH)","FM-16","7",,,,,,,,,,,,,,,,,,,,,,,,,,,"2009-05-01"
"74486094789","2018-01-17T08:51:00","FM-15","7",,"ESE","1.5","mi","TEMP, PRECIP, SNOW",,,"PSY, SRG, SNOWBOARD",,,"FAA CWO",,,,,,,,,,,,,,,,,,,,,,,,,,,,"30.27","34","34","0.05","-RA:02 SN:03 BR:1 |RA RA |",,,"100","30.26","BKN:07 6 OVC:08 13","30.24","2.50","34","330",,"13",,,,,,,,,,,,,,,,,,,,,,,,,,,,,,,,,,,,,"MET13901/17/18 08:51:02 METAR KJFK 171351Z 33011KT 2 1/2SM -RASN BR BKN006 OVC013 01/01 A3027 RMK AO2 SFC VIS 4 SNB41 SLP248 P0004 T00110011 (BH)","FM-15","7",,,,,,,,,,,,,,,,,,,,,,,,,,,"2009-05-01"
"74486094789","2018-01-17T09:07:00","FM-16","7",,"ESE","1.5","mi","TEMP, PRECIP, SNOW",,,"PSY, SRG, SNOWBOARD",,,"FAA CWO",,,,,,,,,,,,,,,,,,,,,,,,,,,,"30.27","33","34","0.02","-SN:03 RA:02 BR:1 |RA RA |",,,"97",,"X:10 0 SCT:04 7 OVC:08 13","30.24","2.00","34","330",,"13",,,,,,,,,,,,,,,,,,,,,,,,,,,,,,,,,,,,,"MET15301/17/18 09:07:02 SPECI KJFK 171407Z 33011KT 2SM -SNRA BR FEW000 SCT007 OVC013 01/01 A3027 RMK AO2 SFC VIS 2 1/2 SN FEW000 SCT V BKN P0002 T00110006 (BH)","FM-16","7",,,,,,,,,,,,,,,,,,,,,,,,,,,"2009-05-01"
"74486094789","2018-01-17T09:49:00","FM-16","6",,"ESE","1.5","mi","TEMP, PRECIP, SNOW",,,"PSY, SRG, SNOWBOARD",,,"FAA CWO",,,,,,,,,,,,,,,,,,,,,,,,,,,,"30.27","34","34",,"-SN:03 BR:1 |SN |",,,"100",,"X:10 0 SCT:04 6 OVC:08 15","30.24","2.00","34","340",,"10",,,,,,,,,,,,,,,,,,,,,,,,,,,,,,,,,,,,,"MET16401/17/18 09:49:02 SPECI KJFK 171449Z 34009KT 2SM -SN BR FEW000 SCT006 OVC015 01/01 A3027 RMK AO2 SFC VIS 2 1/2 RAE15 CIG 013V017 SN FEW000 SCT V BKN P0004 FIBI (BH)","FM-16","6",,,,,,,,,,,,,,,,,,,,,,,,,,,"2009-05-01"
"74486094789","2018-01-17T09:51:00","FM-15","7",,"ESE","1.5","mi","TEMP, PRECIP, SNOW",,,"PSY, SRG, SNOWBOARD",,,"FAA CWO",,,,,,,,,,,,,,,,,,,,,,,,,,,,"30.27","33","34","0.04","-SN:03 BR:1 |SN |","-0.01","1","97","30.27","X:10 0 SCT:04 6 OVC:08 15","30.24","2.00","34","340",,"10",,,,,,,,,,,,,,,,,,,,,,,,,,,,,,,,,,,,,"MET18801/17/18 09:51:02 METAR KJFK 171451Z 34009KT 2SM -SN BR FEW000 SCT006 OVC015 01/01 A3027 RMK AO2 SFC VIS 2 1/2 RAE15 SLP249 CIG 013V017 SN FEW000 SCT V BKN P0004 60010 T00110006 51005 (BH)","FM-15","7",,,,,,,,,,,,,,,,,,,,,,,,,,,"2009-05-01"
"74486094789","2018-01-17T10:00:00","FM-12","4",,"ESE","1.5","mi","TEMP, PRECIP, SNOW",,,"PSY, SRG, SNOWBOARD",,,"FAA CWO",,,,,,,,,,,,,,,,,,,,,,,,,,,,,"33","34",,,"-0.01","1","97","30.27","5","30.24","1.99","34","340",,"10",,,,,,,,,,,,,,,,,,,,,,,,,,,,,,,,,,,,,"SYN08674486 11232 83409 10011 20006 30239 40249 51005 60037 771// 91451 333 96010 555 91715=","FM-12","4",,,,,,,,,,,,,,,,,,,,,,,,,,,"2009-05-01"
"74486094789","2018-01-17T10:15:00","FM-16","7",,"ESE","1.5","mi","TEMP, PRECIP, SNOW",,,"PSY, SRG, SNOWBOARD",,,"FAA CWO",,,,,,,,,,,,,,,,,,,,,,,,,,,,"30.27","33","33","0.02","-SN:03 BR:1 |SN |",,,"100",,"X:10 0 BKN:07 6 OVC:08 18","30.24","1.00","33","330",,"9",,,,,,,,,,,,,,,,,,,,,,,,,,,,,,,,,,,,,"MET15401/17/18 10:15:02 SPECI KJFK 171515Z 33008KT 1SM R04R/P6000FT -SN BR SCT000 BKN006 OVC018 01/01 A3027 RMK AO2 SFC VIS 1 3/4 SN SCT000 P0002 T00060006 (BH)","FM-16","7",,,,,,,,,,,,,,,,,,,,,,,,,,,"2009-05-01"
"74486094789","2018-01-17T10:51:00","FM-15","7",,"ESE","1.5","mi","TEMP, PRECIP, SNOW",,,"PSY, SRG, SNOWBOARD",,,"FAA CWO",,,,,,,,,,,,,,,,,,,,,,,,,,,,"30.26","33","34","0.03","-SN:03 BR:1 |SN |",,,"97","30.26","X:10 0 BKN:07 6 OVC:08 26","30.24","1.25","34","320",,"9",,,,,,,,,,,,,,,,,,,,,,,,,,,,,,,,,,,,,"MET15201/17/18 10:51:02 METAR KJFK 171551Z 32008KT 1 1/4SM -SN BR FEW000 BKN006 OVC026 01/01 A3026 RMK AO2 SFC VIS 2 1/2 SLP246 SN FEW000 P0004 T00110006 (BH)","FM-15","7",,,,,,,,,,,,,,,,,,,,,,,,,,,"2009-05-01"
"74486094789","2018-01-17T11:26:00","FM-16","7",,"ESE","1.5","mi","TEMP, PRECIP, SNOW",,,"PSY, SRG, SNOWBOARD",,,"FAA CWO",,,,,,,,,,,,,,,,,,,,,,,,,,,,"30.25","34","35","0.01","-SN:03 BR:1 |SN |",,,"96",,"BKN:07 7 OVC:08 25","30.22","2.00","35","320",,"10",,,,,,,,,,,,,,,,,,,,,,,,,,,,,,,,,,,,,"MET12001/17/18 11:26:02 SPECI KJFK 171626Z 32009KT 2SM -SN BR BKN007 OVC025 02/01 A3025 RMK AO2 SFC VIS 3 P0001 T00170011 (BH)","FM-16","7",,,,,,,,,,,,,,,,,,,,,,,,,,,"2009-05-01"
"74486094789","2018-01-17T11:49:00","FM-16","6",,"ESE","1.5","mi","TEMP, PRECIP, SNOW",,,"PSY, SRG, SNOWBOARD",,,"FAA CWO",,,,,,,,,,,,,,,,,,,,,,,,,,,,"30.23","34","36",,"-SN:03 BR:1 |SN |",,,"93",,"BKN:07 7 BKN:07 18 OVC:08 34","30.21","3.00","35","310",,"11",,,,,,,,,,,,,,,,,,,,,,,,,,,,,,,,,,,,,"MET12201/17/18 11:49:02 SPECI KJFK 171649Z 31010KT 3SM -SN BR BKN007 BKN018 OVC034 02/01 A3023 RMK AO2 SFC VIS 5 P0001 FIBI (BH)","FM-16","6",,,,,,,,,,,,,,,,,,,,,,,,,,,"2009-05-01"
"74486094789","2018-01-17T11:51:00","FM-15","7",,"ESE","1.5","mi","TEMP, PRECIP, SNOW",,,"PSY, SRG, SNOWBOARD",,,"FAA CWO",,,,,,,,,,,,,,,,,,,,,,,,,,,,"30.23","34","35","0.01","-SN:03 BR:1 |SN |",,,"96","30.23","BKN:07 7 BKN:07 18 OVC:08 34","30.21","3.00","35","300",,"13",,,,,,,,,,,,,,,,,,,,,,,,,,,,,,,,,,,,,"MET13401/17/18 11:51:02 METAR KJFK 171651Z 30011KT 3SM -SN BR BKN007 BKN018 OVC034 02/01 A3023 RMK AO2 SFC VIS 5 SLP237 P0001 T00170011 (BH)","FM-15","7",,,,,,,,,,,,,,,,,,,,,,,,,,,"2009-05-01"
"74486094789","2018-01-17T12:24:00","FM-16","7",,"ESE","1.5","mi","TEMP, PRECIP, SNOW",,,"PSY, SRG, SNOWBOARD",,,"FAA CWO",,,,,,,,,,,,,,,,,,,,,,,,,,,,"30.22","33","34","T","-SN:03 BR:1 |SN |",,,"97",,"FEW:02 6 BKN:07 10 OVC:08 36","30.19","3.00","34","310",,"15",,,,,,,,,,,,,,,,,,,,,,,,,,,,,,,,,,,,,"MET13901/17/18 12:24:02 SPECI KJFK 171724Z 31013KT 3SM -SN BR FEW006 BKN010 OVC036 01/01 A3022 RMK AO2 SFC VIS 5 CIG 008V013 P0000 T00110006 (BH)","FM-16","7",,,,,,,,,,,,,,,,,,,,,,,,,,,"2009-05-01"
"74486094789","2018-01-17T12:39:00","FM-16","7",,"ESE","1.5","mi","TEMP, PRECIP, SNOW",,,"PSY, SRG, SNOWBOARD",,,"FAA CWO",,,,,,,,,,,,,,,,,,,,,,,,,,,,"30.22","32","34","T","-SN:03 BR:1 |SN |",,,"92",,"BKN:07 9 OVC:08 13","30.19","2.50","33","310",,"15",,,,,,,,,,,,,,,,,,,,,,,,,,,,,,,,,,,,,"MET12401/17/18 12:39:02 SPECI KJFK 171739Z 31013KT 2 1/2SM -SN BR BKN009 OVC013 01/00 A3022 RMK AO2 TWR VIS 3 P0000 T00110000 (BH)","FM-16","7",,,,,,,,,,,,,,,,,,,,,,,,,,,"2009-05-01"
"74486094789","2018-01-17T12:46:00","FM-16","7",,"ESE","1.5","mi","TEMP, PRECIP, SNOW",,,"PSY, SRG, SNOWBOARD",,,"FAA CWO",,,,,,,,,,,,,,,,,,,,,,,,,,,,"30.21","32","34","T","-SN:03 BR:1 |SN |",,,"93",,"BKN:07 11 OVC:08 36","30.19","2.50","33","310",,"16",,,,,,,,,,,,,,,,,,,,,,,,,,,,,,,,,,,,,"MET12601/17/18 12:46:02 SPECI KJFK 171746Z 31014KT 2 1/2SM -SN BR BKN011 OVC036 01/00 A3021 RMK AO2 SFC VIS 3 CIG 009V013 P0000 (BH)","FM-16","7",,,,,,,,,,,,,,,,,,,,,,,,,,,"2009-05-01"
"74486094789","2018-01-17T12:51:00","FM-15","7",,"ESE","1.5","mi","TEMP, PRECIP, SNOW",,,"PSY, SRG, SNOWBOARD",,,"FAA CWO",,,,,,,,,,,,,,,,,,,,,,,,,,,,"30.20","31","33","T","-SN:03 BR:1 |SN |","+0.06","8","92","30.20","BKN:07 11 OVC:08 34","30.17","2.50","32","320",,"15",,,,,,,,,,,,,,,,,,,,,,,,,,,,,,,,,,,,,"MET17701/17/18 12:51:02 METAR KJFK 171751Z 32013KT 2 1/2SM -SN BR BKN011 OVC034 01/M01 A3020 RMK AO2 SFC VIS 4 SLP227 CIG 009V013 931002 P0000 60015 T00061006 10022 20006 58022 $ (BH)","FM-15","7",,,,,,,,,,,,,,,,,,,,,,,,,,,"2009-05-01"
"74486094789","2018-01-17T13:00:00","FM-12","4",,"ESE","1.5","mi","TEMP, PRECIP, SNOW",,,"PSY, SRG, SNOWBOARD",,,"FAA CWO",,,,,,,,,,,,,,,,,,,,,,,,,,,,,"31","33",,,"+0.06","8","92","30.20","15","30.16","2.49","32","320",,"15",,,,,,,,,,,,,,,,,,,,,,,,,,,,,,,,,,,,,"SYN09874486 11440 83213 10006 21006 30215 40227 58022 60041 771// 91751 333 10028 20006 96010 555 91718=","FM-12","4",,,,,,,,,,,,,,,,,,,,,,,,,,,"2009-05-01"
"74486094789","2018-01-17T13:36:00","FM-16","7",,"ESE","1.5","mi","TEMP, PRECIP, SNOW",,,"PSY, SRG, SNOWBOARD",,,"FAA CWO",,,,,,,,,,,,,,,,,,,,,,,,,,,,"30.18","32","34","T","-SN:03 |SN |",,,"92",,"BKN:07 12 BKN:07 38 OVC:08 95","30.16","7.00","33","320",,"13",,,,,,,,,,,,,,,,,,,,,,,,,,,,,,,,,,,,,"MET11601/17/18 13:36:02 SPECI KJFK 171836Z 32011KT 7SM -SN BKN012 BKN038 OVC095 01/00 A3018 RMK AO2 P0000 T00110000 $ (BH)","FM-16","7",,,,,,,,,,,,,,,,,,,,,,,,,,,"2009-05-01"
"74486094789","2018-01-17T13:51:00","FM-15","7",,"ESE","1.5","mi","TEMP, PRECIP, SNOW",,,"PSY, SRG, SNOWBOARD",,,"FAA CWO",,,,,,,,,,,,,,,,,,,,,,,,,,,,"30.18","32","34","T",,,,"92","30.17","BKN:07 12 BKN:07 26 OVC:08 90","30.16","8.00","33","320",,"15",,,,,,,,,,,,,,,,,,,,,,,,,,,,,,,,,,,,,"MET13801/17/18 13:51:02 METAR KJFK 171851Z 32013KT 8SM BKN012 BKN026 OVC090 01/00 A3018 RMK AO2 SNE50 SLP218 BKN012 V SCT P0000 T00110000 $ (BH)","FM-15","7",,,,,,,,,,,,,,,,,,,,,,,,,,,"2009-05-01"
"74486094789","2018-01-17T14:45:00","FM-16","7",,"ESE","1.5","mi","TEMP, PRECIP, SNOW",,,"PSY, SRG, SNOWBOARD",,,"FAA CWO",,,,,,,,,,,,,,,,,,,,,,,,,,,,"30.18","30","36",,,,,"81",,"BKN:07 15 OVC:08 200","30.16","10.00","34","320",,"14",,,,,,,,,,,,,,,,,,,,,,,,,,,,,,,,,,,,,"MET09101/17/18 14:45:02 SPECI KJFK 171945Z 32012KT 10SM BKN015 OVC200 02/M01 A3018 RMK AO2 $ (RR)","FM-16","7",,,,,,,,,,,,,,,,,,,,,,,,,,,"2009-05-01"
"74486094789","2018-01-17T14:51:00","FM-15","7",,"ESE","1.5","mi","TEMP, PRECIP, SNOW",,,"PSY, SRG, SNOWBOARD",,,"FAA CWO",,,,,,,,,,,,,,,,,,,,,,,,,,,,"30.18","31","35","0.00",,,,"85","30.18","BKN:07 15 OVC:08 200","30.16","10.00","33","330",,"13",,,,,,,,,,,,,,,,,,,,,,,,,,,,,,,,,,,,,"MET10801/17/18 14:51:02 METAR KJFK 171951Z 33011KT 10SM BKN015 OVC200 02/M01 A3018 RMK AO2 SLP219 T00171006 $ (RR)","FM-15","7",,,,,,,,,,,,,,,,,,,,,,,,,,,"2009-05-01"
"74486094789","2018-01-17T15:51:00","FM-15","7",,"ESE","1.5","mi","TEMP, PRECIP, SNOW",,,"PSY, SRG, SNOWBOARD",,,"FAA CWO",,,,,,,,,,,,,,,,,,,,,,,,,,,,"30.19","31","34","0.00",,"-0.01","2","89","30.18","BKN:07 17 OVC:08 30","30.16","10.00","33","320",,"11",,,,,,,,,,,,,,,,,,,,,,,,,,,,,,,,,,,,,"MET12001/17/18 15:51:02 METAR KJFK 172051Z 32010KT 10SM BKN017 OVC030 01/M01 A3019 RMK AO2 SLP221 60000 T00111006 52003 $ (RR)","FM-15","7",,,,,,,,,,,,,,,,,,,,,,,,,,,"2009-05-01"
"74486094789","2018-01-17T16:00:00","FM-12","4",,"ESE","1.5","mi","TEMP, PRECIP, SNOW",,,"PSY, SRG, SNOWBOARD",,,"FAA CWO",,,,,,,,,,,,,,,,,,,,,,,,,,,,,"31","34",,,"-0.01","2","89","30.18","15","30.16","9.94","33","320",,"11",,,,,,,,,,,,,,,,,,,,,,,,,,,,,,,,,,,,,"SYN07074486 12466 83210 10011 21006 30212 40221 52003 69907 92051 555 91721=","FM-12","4",,,,,,,,,,,,,,,,,,,,,,,,,,,"2009-05-01"
"74486094789","2018-01-17T16:51:00","FM-15","7",,"ESE","1.5","mi","TEMP, PRECIP, SNOW",,,"PSY, SRG, SNOWBOARD",,,"FAA CWO",,,,,,,,,,,,,,,,,,,,,,,,,,,,"30.17","26","32","0.00",,,,"79","30.17","OVC:08 16","30.14","10.00","30","310",,"15",,,,,,,,,,,,,,,,,,,,,,,,,,,,,,,,,,,,,"MET10101/17/18 16:51:02 METAR KJFK 172151Z 31013KT 10SM OVC016 00/M03 A3017 RMK AO2 SLP217 T00001033 $ (RR)","FM-15","7",,,,,,,,,,,,,,,,,,,,,,,,,,,"2009-05-01"
"74486094789","2018-01-17T17:51:00","FM-15","7",,"ESE","1.5","mi","TEMP, PRECIP, SNOW",,,"PSY, SRG, SNOWBOARD",,,"FAA CWO",,,,,,,,,,,,,,,,,,,,,,,,,,,,"30.19","23","30","0.00",,,,"75","30.19","BKN:07 20 BKN:07 140 OVC:08 250","30.16","10.00","28","310",,"15",,,,,,,,,,,,,,,,,,,,,,,,,,,,,,,,,,,,,"MET11601/17/18 17:51:02 METAR KJFK 172251Z 31013KT 10SM BKN020 BKN140 OVC250 M01/M05 A3019 RMK AO2 SLP223 T10111050 $ (RR)","FM-15","7",,,,,,,,,,,,,,,,,,,,,,,,,,,"2009-05-01"
"74486094789","2018-01-17T18:37:00","FM-16","7",,"ESE","1.5","mi","TEMP, PRECIP, SNOW",,,"PSY, SRG, SNOWBOARD",,,"FAA CWO",,,,,,,,,,,,,,,,,,,,,,,,,,,,"30.18","22","29",,,,,"75",,"SCT:04 27 BKN:07 170 OVC:08 250","30.16","10.00","27","310",,"16",,,,,,,,,,,,,,,,,,,,,,,,,,,,,,,,,,,,,"MET10901/17/18 18:37:02 SPECI KJFK 172337Z 31014KT 10SM SCT027 BKN170 OVC250 M02/M06 A3018 RMK AO2 T10171056 $ (RR)","FM-16","7",,,,,,,,,,,,,,,,,,,,,,,,,,,"2009-05-01"
"74486094789","2018-01-17T18:51:00","FM-15","7",,"ESE","1.5","mi","TEMP, PRECIP, SNOW",,,"PSY, SRG, SNOWBOARD",,,"FAA CWO",,,,,,,,,,,,,,,,,,,,,,,,,,,,"30.18","21","29","0.00",,"+0.01","8","72","30.17","SCT:04 28 BKN:07 170 OVC:08 250","30.16","10.00","26","310",,"15",,,,,,,,,,,,,,,,,,,,,,,,,,,,,,,,,,,,,"MET14701/17/18 18:51:02 METAR KJFK 172351Z 31013KT 10SM SCT028 BKN170 OVC250 M02/M06 A3018 RMK AO2 SLP217 931000 60000 T10171061 10017 21017 58003 $ (RR)","FM-15","7",,,,,,,,,,,,,,,,,,,,,,,,,,,"2009-05-01"
"74486094789","2018-01-17T19:00:00","FM-12","4",,"ESE","1.5","mi","TEMP, PRECIP, SNOW",,,"PSY, SRG, SNOWBOARD",,,"FAA CWO",,,,,,,,,,,,,,,,,,,,,,,,,,,,,"21","29",,,"+0.01","8","72","30.17","26","30.15","9.94","26","310",,"15",,,,,,,,,,,,,,,,,,,,,,,,,,,,,,,,,,,,,"SYN08674486 12566 83113 11017 21061 30209 40217 58003 69901 92351 333 10022 21017 555 91800=","FM-12","4",,,,,,,,,,,,,,,,,,,,,,,,,,,"2009-05-01"
"74486094789","2018-01-17T19:51:00","FM-15","7",,"ESE","1.5","mi","TEMP, PRECIP, SNOW",,,"PSY, SRG, SNOWBOARD",,,"FAA CWO",,,,,,,,,,,,,,,,,,,,,,,,,,,,"30.18","18","27","0.00",,,,"69","30.18","SCT:04 21 OVC:08 180","30.16","10.00","24","300",,"16",,,,,,,,,,,,,,,,,,,,,,,,,,,,,,,,,,,,,"MET10401/17/18 19:51:01 METAR KJFK 180051Z 30014KT 10SM SCT021 OVC180 M03/M08 A3018 RMK AO2 SLP220 T10281078 $","FM-15","7",,,,,,,,,,,,,,,,,,,,,,,,,,,"2009-05-01"
"74486094789","2018-01-17T20:37:00","FM-16","7",,"ESE","1.5","mi","TEMP, PRECIP, SNOW",,,"PSY, SRG, SNOWBOARD",,,"FAA CWO",,,,,,,,,,,,,,,,,,,,,,,,,,,,"30.18","17","27",,,,,"66",,"OVC:08 21","30.16","10.00","24","300",,"16",,,,,,,,,,,,,,,,,,,,,,,,,,,,,,,,,,,,,"MET09001/17/18 20:37:01 SPECI KJFK 180137Z 30014KT 10SM OVC021 M03/M08 A3018 RMK AO2 T10281083 $","FM-16","7",,,,,,,,,,,,,,,,,,,,,,,,,,,"2009-05-01"
"74486094789","2018-01-17T20:51:00","FM-15","7",,"ESE","1.5","mi","TEMP, PRECIP, SNOW",,,"PSY, SRG, SNOWBOARD",,,"FAA CWO",,,,,,,,,,,,,,,,,,,,,,,,,,,,"30.18","17","26","0.00",,,,"69","30.18","OVC:08 21","30.16","10.00","23","300",,"16",,,,,,,,,,,,,,,,,,,,,,,,,,,,,,,,,,,,,"MET09701/17/18 20:51:01 METAR KJFK 180151Z 30014KT 10SM OVC021 M03/M08 A3018 RMK AO2 SLP220 T10331083 $","FM-15","7",,,,,,,,,,,,,,,,,,,,,,,,,,,"2009-05-01"
"74486094789","2018-01-17T21:51:00","FM-15","7",,"ESE","1.5","mi","TEMP, PRECIP, SNOW",,,"PSY, SRG, SNOWBOARD",,,"FAA CWO",,,,,,,,,,,,,,,,,,,,,,,,,,,,"30.20","16","25","0.00",,"-0.02","3","69","30.20","OVC:08 22","30.17","10.00","22","320",,"15",,,,,,,,,,,,,,,,,,,,,,,,,,,,,,,,,,,,,"MET10301/17/18 21:51:02 METAR KJFK 180251Z 32013KT 10SM OVC022 M04/M09 A3020 RMK AO2 SLP226 T10391089 53008 $","FM-15","7",,,,,,,,,,,,,,,,,,,,,,,,,,,"2009-05-01"
"74486094789","2018-01-17T22:00:00","FM-12","4",,"ESE","1.5","mi","TEMP, PRECIP, SNOW",,,"PSY, SRG, SNOWBOARD",,,"FAA CWO",,,,,,,,,,,,,,,,,,,,,,,,,,,,,"16","25",,,"-0.02","3","69","30.20","26","30.16","9.94","22","320",,"15",,,,,,,,,,,,,,,,,,,,,,,,,,,,,,,,,,,,,"SYN06474486 32566 83213 11039 21089 30215 40226 53008 90251 555 91803=","FM-12","4",,,,,,,,,,,,,,,,,,,,,,,,,,,"2009-05-01"
"74486094789","2018-01-17T22:51:00","FM-15","7",,"ESE","1.5","mi","TEMP, PRECIP, SNOW",,,"PSY, SRG, SNOWBOARD",,,"FAA CWO",,,,,,,,,,,,,,,,,,,,,,,,,,,,"30.18","15","24","0.00",,,,"68","30.18","BKN:07 22","30.16","10.00","21","320",,"15",,,,,,,,,,,,,,,,,,,,,,,,,,,,,,,,,,,,,"MET09701/17/18 22:51:02 METAR KJFK 180351Z 32013KT 10SM BKN022 M04/M09 A3018 RMK AO2 SLP219 T10441094 $","FM-15","7",,,,,,,,,,,,,,,,,,,,,,,,,,,"2009-05-01"
"74486094789","2018-01-17T23:51:00","FM-15","7",,"ESE","1.5","mi","TEMP, PRECIP, SNOW",,,"PSY, SRG, SNOWBOARD",,,"FAA CWO",,,,,,,,,,,,,,,,,,,,,,,,,,,,"30.17","14","23","0.00",,,,"68","30.16","BKN:07 24","30.14","10.00","20","330",,"15",,,,,,,,,,,,,,,,,,,,,,,,,,,,,,,,,,,,,"MET10701/17/18 23:51:02 METAR KJFK 180451Z 33013KT 10SM BKN024 M05/M10 A3017 RMK AO2 SLP215 T10501100 401221050 $","FM-15","7",,,,,,,,,,,,,,,,,,,,,,,,,,,"2009-05-01"
"74486094789","2018-01-17T23:59:00","SOD  ","6",,"ESE","1.5","mi","TEMP, PRECIP, SNOW",,,"PSY, SRG, SNOWBOARD",,,"FAA CWO",,,,,,"29","30","87","30.22","30.21","31","11.5","0","-2.3","35","37","23","320","23","0.22","0","0.2","320","20","RA SN BR",,,,,,,,,,,,,,,,,,,,,,,,,,,,,,,,,,,,,,,,,,,,,,,,,,,,,,,"SOD78324 HR PRECIPITATION (IN): 0.22 SNOW DEPTH (IN):0     24 HR SNOWFALL (IN):0.2  WEATHER(CODE):1  24 HR MAX TEMP (F): 3724 HR MIN TEMP (F): 23AVERAGE STATION PRESSURE:30.210 MINIMUM SEA LEVEL PRESSURE:30.16 TIME OF OCCURRENCE:2351 PEAK WIND SPEED (MPH): 23 PEAK WIND DIR (DEG):320 PEAK WIND TIME (LST):      FASTEST 2MIN SPEED (MPH): 20FASTEST 2MIN DIR (DEG):320 FASTEST 2MIN TIME (LST):     AVERAGE WIND SPEED (MPH):11.5 24 HR AVG TEMP (F): 30DEPART FROM NORMAL: -2  SKY COVER SR-SS (TENTHS): 1HEATING DEGREE DAYS: 35 COOLING DEGREE DAYS:  0 LATEST DAY MAX TEMP (0700-1900 LST):36  LATEST NIGHT MIN TEMP(1900-0800 LST):33 HOURLY INCREMENTAL PRECIPITATION VALUES (IN):.00 0.00 T    0.04 0.02 0.01 T    0.02 0.05 0.04 0.03 0.01 T    T    0.00 0.00 0.00 0.00 0.00 0.00 0.00 0.00 0.00 0.00","SOD  ","6",,,,,,,,,,,,,,,,,,,,,,,,,"0716","1655","2009-05-01"
"74486094789","2018-01-18T00:29:00","FM-16","7",,"ESE","1.5","mi","TEMP, PRECIP, SNOW",,,"PSY, SRG, SNOWBOARD",,,"FAA CWO",,,,,,,,,,,,,,,,,,,,,,,,,,,,"30.16","13","22",,,,,"68",,"SCT:04 25 SCT:04 180","30.14","10.00","19","310",,"10",,,,,,,,,,,,,,,,,,,,,,,,,,,,,,,,,,,,,"MET10201/18/18 00:29:02 SPECI KJFK 180529Z 31009KT 10SM SCT025 SCT180 M06/M11 A3016 RMK AO2 T10561106 $ (JC)","FM-16","7",,,,,,,,,,,,,,,,,,,,,,,,,,,"2009-05-01"
"74486094789","2018-01-18T00:51:00","FM-15","7",,"ESE","1.5","mi","TEMP, PRECIP, SNOW",,,"PSY, SRG, SNOWBOARD",,,"FAA CWO",,,,,,,,,,,,,,,,,,,,,,,,,,,,"30.15","12","22","0.00",,"+0.05","6","66","30.15","SCT:04 25 SCT:04 180","30.12","10.00","19","310",,"13",,,,,,,,,,,,,,,,,,,,,,,,,,,,,,,,,,,,,"MET12701/18/18 00:51:02 METAR KJFK 180551Z 31011KT 10SM SCT025 SCT180 M06/M11 A3015 RMK AO2 SLP209 T10561111 11017 21056 56017 $ (JC)","FM-15","7",,,,,,,,,,,,,,,,,,,,,,,,,,,"2009-05-01"
"74486094789","2018-01-18T01:00:00","FM-12","4",,"ESE","1.5","mi","TEMP, PRECIP, SNOW",,,"PSY, SRG, SNOWBOARD",,,"FAA CWO",,,,,,,,,,,,,,,,,,,,,,,,,,,,,"12","22",,,"+0.05","6","66","30.15","26","30.12","9.94","19","310",,"13",,,,,,,,,,,,,,,,,,,,,,,,,,,,,,,,,,,,,"SYN08074486 32566 43111 11056 21111 30199 40209 56017 90551 333 10028 21056 555 91806=","FM-12","4",,,,,,,,,,,,,,,,,,,,,,,,,,,"2009-05-01"
"74486094789","2018-01-18T01:51:00","FM-15","7",,"ESE","1.5","mi","TEMP, PRECIP, SNOW",,,"PSY, SRG, SNOWBOARD",,,"FAA CWO",,,,,,,,,,,,,,,,,,,,,,,,,,,,"30.13","11","21","0.00",,,,"65","30.13","FEW:02 170","30.11","10.00","18","320",,"14",,,,,,,,,,,,,,,,,,,,,,,,,,,,,,,,,,,,,"MET10201/18/18 01:51:02 METAR KJFK 180651Z 32012KT 10SM FEW170 M06/M12 A3013 RMK AO2 SLP203 T10611117 $ (JC)","FM-15","7",,,,,,,,,,,,,,,,,,,,,,,,,,,"2009-05-01"
"74486094789","2018-01-18T02:51:00","FM-15","7",,"ESE","1.5","mi","TEMP, PRECIP, SNOW",,,"PSY, SRG, SNOWBOARD",,,"FAA CWO",,,,,,,,,,,,,,,,,,,,,,,,,,,,"30.13","10","21","0.00",,,,"62","30.12","CLR:00","30.11","10.00","18","320",,"18",,,,,,,,,,,,,,,,,,,,,,,,,,,,,,,,,,,,,"MET09901/18/18 02:51:02 METAR KJFK 180751Z 32016KT 10SM CLR M06/M12 A3013 RMK AO2 SLP200 T10611122 $ (JC)","FM-15","7",,,,,,,,,,,,,,,,,,,,,,,,,,,"2009-05-01"
"74486094789","2018-01-18T03:51:00","FM-15","7",,"ESE","1.5","mi","TEMP, PRECIP, SNOW",,,"PSY, SRG, SNOWBOARD",,,"FAA CWO",,,,,,,,,,,,,,,,,,,,,,,,,,,,"30.08","10","21","0.00",,"+0.07","8","62","30.07","CLR:00","30.06","10.00","18","330","26","21",,,,,,,,,,,,,,,,,,,,,,,,,,,,,,,,,,,,,"MET10801/18/18 03:51:02 METAR KJFK 180851Z 33018G23KT 10SM CLR M06/M12 A3008 RMK AO2 SLP184 T10611122 58025 $ (JC)","FM-15","7",,,,,,,,,,,,,,,,,,,,,,,,,,,"2009-05-01"
"74486094789","2018-01-18T04:00:00","FM-12","4",,"ESE","1.5","mi","TEMP, PRECIP, SNOW",,,"PSY, SRG, SNOWBOARD",,,"FAA CWO",,,,,,,,,,,,,,,,,,,,,,,,,,,,,"10","21",,,"+0.07","8","62","30.07",,"30.05","9.94","18","330",,"21",,,,,,,,,,,,,,,,,,,,,,,,,,,,,,,,,,,,,"SYN07474486 32966 03318 11061 21122 30175 40184 58025 90851 333 91023 555 91809=","FM-12","4",,,,,,,,,,,,,,,,,,,,,,,,,,,"2009-05-01"
"74486094789","2018-01-18T04:51:00","FM-15","7",,"ESE","1.5","mi","TEMP, PRECIP, SNOW",,,"PSY, SRG, SNOWBOARD",,,"FAA CWO",,,,,,,,,,,,,,,,,,,,,,,,,,,,"30.04","10","20","0.00",,,,"65","30.04","CLR:00","30.01","10.00","17","320",,"20",,,,,,,,,,,,,,,,,,,,,,,,,,,,,,,,,,,,,"MET09901/18/18 04:51:02 METAR KJFK 180951Z 32017KT 10SM CLR M07/M12 A3004 RMK AO2 SLP172 T10671122 $ (JC)","FM-15","7",,,,,,,,,,,,,,,,,,,,,,,,,,,"2009-05-01"
"74486094789","2018-01-18T05:51:00","FM-15","7",,"ESE","1.5","mi","TEMP, PRECIP, SNOW",,,"PSY, SRG, SNOWBOARD",,,"FAA CWO",,,,,,,,,,,,,,,,,,,,,,,,,,,,"30.05","9","20","0.00",,,,"62","30.05","CLR:00","30.03","10.00","17","330",,"11",,,,,,,,,,,,,,,,,,,,,,,,,,,,,,,,,,,,,"MET09901/18/18 05:51:02 METAR KJFK 181051Z 33010KT 10SM CLR M07/M13 A3005 RMK AO2 SLP176 T10671128 $ (JC)","FM-15","7",,,,,,,,,,,,,,,,,,,,,,,,,,,"2009-05-01"
"74486094789","2018-01-18T06:51:00","FM-15","7",,"ESE","1.5","mi","TEMP, PRECIP, SNOW",,,"PSY, SRG, SNOWBOARD",,,"FAA CWO",,,,,,,,,,,,,,,,,,,,,,,,,,,,"30.10","9","19","0.00",,"-0.03","3","65","30.10","FEW:02 110 FEW:02 180","30.08","10.00","16","320",,"6",,,,,,,,,,,,,,,,,,,,,,,,,,,,,,,,,,,,,"MET13301/18/18 06:51:02 METAR KJFK 181151Z 32005KT 10SM FEW110 FEW180 M07/M13 A3010 RMK AO2 SLP193 70015 T10721128 11056 21072 53009 $ (BH)","FM-15","7",,,,,,,,,,,,,,,,,,,,,,,,,,,"2009-05-01"
"74486094789","2018-01-18T07:00:00","FM-12","4",,"ESE","1.5","mi","TEMP, PRECIP, SNOW",,,"PSY, SRG, SNOWBOARD",,,"FAA CWO",,,,,,,,,,,,,,,,,,,,,,,,,,,,,"9","19",,,"-0.03","3","65","30.10",,"30.07","9.94","16","320",,"6",,,,,,,,,,,,,,,,,,,,,,,,,,,,,,,,,,,,,"SYN08674486 32966 23205 11072 21128 30182 40193 53009 91151 333 10122 21072 70038 555 91812=","FM-12","4",,,,,,,,,,,,,,,,,,,,,,,,,,,"2009-05-01"
"74486094789","2018-01-18T07:51:00","FM-15","7",,"ESE","1.5","mi","TEMP, PRECIP, SNOW",,,"PSY, SRG, SNOWBOARD",,,"FAA CWO",,,,,,,,,,,,,,,,,,,,,,,,,,,,"30.07","10","22","0.00",,,,"60","30.07","FEW:02 95 SCT:04 180","30.04","10.00","19","320",,"14",,,,,,,,,,,,,,,,,,,,,,,,,,,,,,,,,,,,,"MET10901/18/18 07:51:02 METAR KJFK 181251Z 32012KT 10SM FEW095 SCT180 M06/M12 A3007 RMK AO2 SLP182 T10561122 $ (BH)","FM-15","7",,,,,,,,,,,,,,,,,,,,,,,,,,,"2009-05-01"
"74486094789","2018-01-18T08:51:00","FM-15","7",,"ESE","1.5","mi","TEMP, PRECIP, SNOW",,,"PSY, SRG, SNOWBOARD",,,"FAA CWO",,,,,,,,,,,,,,,,,,,,,,,,,,,,"30.05","8","23","0.00",,,,"53","30.04","FEW:02 95 SCT:04 200","30.03","10.00","19","310",,"13",,,,,,,,,,,,,,,,,,,,,,,,,,,,,,,,,,,,,"MET10901/18/18 08:51:02 METAR KJFK 181351Z 31011KT 10SM FEW095 SCT200 M05/M13 A3005 RMK AO2 SLP173 T10501133 $ (BH)","FM-15","7",,,,,,,,,,,,,,,,,,,,,,,,,,,"2009-05-01"
"74486094789","2018-01-18T09:51:00","FM-15","7",,"ESE","1.5","mi","TEMP, PRECIP, SNOW",,,"PSY, SRG, SNOWBOARD",,,"FAA CWO",,,,,,,,,,,,,,,,,,,,,,,,,,,,"30.09","9","27","0.00",,"+0.02","5","46","30.08","FEW:02 200","30.06","10.00","22","280",,"8",,,,,,,,,,,,,,,,,,,,,,,,,,,,,,,,,,,,,"MET10801/18/18 09:51:02 METAR KJFK 181451Z 28007KT 10SM FEW200 M03/M13 A3009 RMK AO2 SLP187 T10281128 55006 $ (BH)","FM-15","7",,,,,,,,,,,,,,,,,,,,,,,,,,,"2009-05-01"
"74486094789","2018-01-18T10:00:00","FM-12","4",,"ESE","1.5","mi","TEMP, PRECIP, SNOW",,,"PSY, SRG, SNOWBOARD",,,"FAA CWO",,,,,,,,,,,,,,,,,,,,,,,,,,,,,"9","27",,,"+0.02","5","46","30.08",,"30.06","9.94","22","280",,"8",,,,,,,,,,,,,,,,,,,,,,,,,,,,,,,,,,,,,"SYN06474486 32966 22807 11028 21128 30178 40187 55006 91451 555 91815=","FM-12","4",,,,,,,,,,,,,,,,,,,,,,,,,,,"2009-05-01"
"74486094789","2018-01-18T10:51:00","FM-15","7",,"ESE","1.5","mi","TEMP, PRECIP, SNOW",,,"PSY, SRG, SNOWBOARD",,,"FAA CWO",,,,,,,,,,,,,,,,,,,,,,,,,,,,"30.05","9","29","0.00",,,,"43","30.04","FEW:02 200","30.03","10.00","23","320",,"15",,,,,,,,,,,,,,,,,,,,,,,,,,,,,,,,,,,,,"MET10201/18/18 10:51:02 METAR KJFK 181551Z 32013KT 10SM FEW200 M02/M13 A3005 RMK AO2 SLP174 T10171128 $ (BH)","FM-15","7",,,,,,,,,,,,,,,,,,,,,,,,,,,"2009-05-01"
"74486094789","2018-01-18T11:51:00","FM-15","7",,"ESE","1.5","mi","TEMP, PRECIP, SNOW",,,"PSY, SRG, SNOWBOARD",,,"FAA CWO",,,,,,,,,,,,,,,,,,,,,,,,,,,,"29.99","9","31","0.00",,,,"40","29.99","FEW:02 250","29.96","10.00","25","290",,"16",,,,,,,,,,,,,,,,,,,,,,,,,,,,,,,,,,,,,"MET10201/18/18 11:51:02 METAR KJFK 181651Z 29014KT 10SM FEW250 M01/M13 A2999 RMK AO2 SLP155 T10061128 $ (BH)","FM-15","7",,,,,,,,,,,,,,,,,,,,,,,,,,,"2009-05-01"
"74486094789","2018-01-18T12:51:00","FM-15","7",,"ESE","1.5","mi","TEMP, PRECIP, SNOW",,,"PSY, SRG, SNOWBOARD",,,"FAA CWO",,,,,,,,,,,,,,,,,,,,,,,,,,,,"29.95","9","33","0.00",,"+0.13","6","36","29.95","FEW:02 250","29.93","10.00","26","310",,"16",,,,,,,,,,,,,,,,,,,,,,,,,,,,,,,,,,,,,"MET11901/18/18 12:51:02 METAR KJFK 181751Z 31014KT 10SM FEW250 01/M13 A2995 RMK AO2 SLP142 T00061128 10006 21072 56045 $ (BH)","FM-15","7",,,,,,,,,,,,,,,,,,,,,,,,,,,"2009-05-01"
"74486094789","2018-01-18T13:00:00","FM-12","4",,"ESE","1.5","mi","TEMP, PRECIP, SNOW",,,"PSY, SRG, SNOWBOARD",,,"FAA CWO",,,,,,,,,,,,,,,,,,,,,,,,,,,,,"9","33",,,"+0.13","6","36","29.95",,"29.92","9.94","26","310",,"16",,,,,,,,,,,,,,,,,,,,,,,,,,,,,,,,,,,,,"SYN08074486 32966 23114 10006 21128 30131 40142 56045 91751 333 10006 21072 555 91818=","FM-12","4",,,,,,,,,,,,,,,,,,,,,,,,,,,"2009-05-01"
"74486094789","2018-01-18T13:51:00","FM-15","7",,"ESE","1.5","mi","TEMP, PRECIP, SNOW",,,"PSY, SRG, SNOWBOARD",,,"FAA CWO",,,,,,,,,,,,,,,,,,,,,,,,,,,,"29.93","9","33","0.00",,,,"36","29.93","FEW:02 250","29.91","10.00","26","300",,"20",,,,,,,,,,,,,,,,,,,,,,,,,,,,,,,,,,,,,"MET10101/18/18 13:51:02 METAR KJFK 181851Z 30017KT 10SM FEW250 01/M13 A2993 RMK AO2 SLP136 T00061128 $ (BH)","FM-15","7",,,,,,,,,,,,,,,,,,,,,,,,,,,"2009-05-01"
"74486094789","2018-01-18T14:51:00","FM-15","7",,"ESE","1.5","mi","TEMP, PRECIP, SNOW",,,"PSY, SRG, SNOWBOARD",,,"FAA CWO",,,,,,,,,,,,,,,,,,,,,,,,,,,,"29.93","10","33","0.00",,,,"38","29.93","FEW:02 250","29.91","10.00","26","310","23","17",,,,,,,,,,,,,,,,,,,,,,,,,,,,,,,,,,,,,"MET10401/18/18 14:51:02 METAR KJFK 181951Z 31015G20KT 10SM FEW250 01/M12 A2993 RMK AO2 SLP136 T00061122 $ (RR)","FM-15","7",,,,,,,,,,,,,,,,,,,,,,,,,,,"2009-05-01"
"74486094789","2018-01-18T15:51:00","FM-15","7",,"ESE","1.5","mi","TEMP, PRECIP, SNOW",,,"PSY, SRG, SNOWBOARD",,,"FAA CWO",,,,,,,,,,,,,,,,,,,,,,,,,,,,"29.94","11","33","0.00",,"+0.01","5","40","29.94","CLR:00","29.91","10.00","26","310",,"17",,,,,,,,,,,,,,,,,,,,,,,,,,,,,,,,,,,,,"MET10401/18/18 15:51:02 METAR KJFK 182051Z 31015KT 10SM CLR 01/M12 A2994 RMK AO2 SLP139 T00061117 55003 $ (RR)","FM-15","7",,,,,,,,,,,,,,,,,,,,,,,,,,,"2009-05-01"
"74486094789","2018-01-18T16:00:00","FM-12","4",,"ESE","1.5","mi","TEMP, PRECIP, SNOW",,,"PSY, SRG, SNOWBOARD",,,"FAA CWO",,,,,,,,,,,,,,,,,,,,,,,,,,,,,"11","33",,,"+0.01","5","40","29.94",,"29.91","9.94","26","310",,"17",,,,,,,,,,,,,,,,,,,,,,,,,,,,,,,,,,,,,"SYN06474486 32966 03115 10006 21117 30128 40139 55003 92051 555 91821=","FM-12","4",,,,,,,,,,,,,,,,,,,,,,,,,,,"2009-05-01"
"74486094789","2018-01-18T16:51:00","FM-15","7",,"ESE","1.5","mi","TEMP, PRECIP, SNOW",,,"PSY, SRG, SNOWBOARD",,,"FAA CWO",,,,,,,,,,,,,,,,,,,,,,,,,,,,"29.96","12","32","0.00",,,,"43","29.96","CLR:00","29.93","10.00","26","320",,"15",,,,,,,,,,,,,,,,,,,,,,,,,,,,,,,,,,,,,"MET09801/18/18 16:51:02 METAR KJFK 182151Z 32013KT 10SM CLR 00/M11 A2996 RMK AO2 SLP144 T00001111 $ (RR)","FM-15","7",,,,,,,,,,,,,,,,,,,,,,,,,,,"2009-05-01"
"74486094789","2018-01-18T17:51:00","FM-15","7",,"ESE","1.5","mi","TEMP, PRECIP, SNOW",,,"PSY, SRG, SNOWBOARD",,,"FAA CWO",,,,,,,,,,,,,,,,,,,,,,,,,,,,"30.00","13","31","0.00",,,,"47","29.99","CLR:00","29.98","10.00","25","310","22","16",,,,,,,,,,,,,,,,,,,,,,,,,,,,,,,,,,,,,"MET10201/18/18 17:51:02 METAR KJFK 182251Z 31014G19KT 10SM CLR M01/M11 A3000 RMK AO2 SLP157 T10061106 $ (RR)","FM-15","7",,,,,,,,,,,,,,,,,,,,,,,,,,,"2009-05-01"
"74486094789","2018-01-18T18:51:00","FM-15","7",,"ESE","1.5","mi","TEMP, PRECIP, SNOW",,,"PSY, SRG, SNOWBOARD",,,"FAA CWO",,,,,,,,,,,,,,,,,,,,,,,,,,,,"30.03","13","30","0.00",,"-0.09","3","49","30.03","CLR:00","30.01","10.00","25","320",,"16",,,,,,,,,,,,,,,,,,,,,,,,,,,,,,,,,,,,,"MET11701/18/18 18:51:02 METAR KJFK 182351Z 32014KT 10SM CLR M01/M11 A3003 RMK AO2 SLP170 T10111106 10011 21011 53030 $ (RR)","FM-15","7",,,,,,,,,,,,,,,,,,,,,,,,,,,"2009-05-01"
"74486094789","2018-01-18T19:00:00","FM-12","4",,"ESE","1.5","mi","TEMP, PRECIP, SNOW",,,"PSY, SRG, SNOWBOARD",,,"FAA CWO",,,,,,,,,,,,,,,,,,,,,,,,,,,,,"13","30",,,"-0.09","3","49","30.03",,"30.00","9.94","25","320",,"16",,,,,,,,,,,,,,,,,,,,,,,,,,,,,,,,,,,,,"SYN08074486 32966 03214 11011 21106 30158 40170 53030 92351 333 10011 21072 555 91900=","FM-12","4",,,,,,,,,,,,,,,,,,,,,,,,,,,"2009-05-01"
"74486094789","2018-01-18T19:51:00","FM-15","7",,"ESE","1.5","mi","TEMP, PRECIP, SNOW",,,"PSY, SRG, SNOWBOARD",,,"FAA CWO",,,,,,,,,,,,,,,,,,,,,,,,,,,,"30.05","13","29","0.00",,,,"51","30.05","CLR:00","30.03","10.00","24","320",,"14",,,,,,,,,,,,,,,,,,,,,,,,,,,,,,,,,,,,,"MET09401/18/18 19:51:01 METAR KJFK 190051Z 32012KT 10SM CLR M02/M11 A3005 RMK AO2 SLP175 T10171106 $","FM-15","7",,,,,,,,,,,,,,,,,,,,,,,,,,,"2009-05-01"
"74486094789","2018-01-18T20:51:00","FM-15","7",,"ESE","1.5","mi","TEMP, PRECIP, SNOW",,,"PSY, SRG, SNOWBOARD",,,"FAA CWO",,,,,,,,,,,,,,,,,,,,,,,,,,,,"30.08","13","28","0.00",,,,"53","30.08","CLR:00","30.06","10.00","24","320",,"14",,,,,,,,,,,,,,,,,,,,,,,,,,,,,,,,,,,,,"MET09401/18/18 20:51:01 METAR KJFK 190151Z 32012KT 10SM CLR M02/M11 A3008 RMK AO2 SLP185 T10221106 $","FM-15","7",,,,,,,,,,,,,,,,,,,,,,,,,,,"2009-05-01"
"74486094789","2018-01-18T21:51:00","FM-15","7",,"ESE","1.5","mi","TEMP, PRECIP, SNOW",,,"PSY, SRG, SNOWBOARD",,,"FAA CWO",,,,,,,,,,,,,,,,,,,,,,,,,,,,"30.10","13","28","0.00",,"-0.06","2","53","30.09","FEW:02 250","30.08","10.00","24","330",,"15",,,,,,,,,,,,,,,,,,,,,,,,,,,,,,,,,,,,,"MET10301/18/18 21:51:02 METAR KJFK 190251Z 33013KT 10SM FEW250 M02/M11 A3010 RMK AO2 SLP191 T10221106 52021 $","FM-15","7",,,,,,,,,,,,,,,,,,,,,,,,,,,"2009-05-01"
"74486094789","2018-01-18T22:00:00","FM-12","4",,"ESE","1.5","mi","TEMP, PRECIP, SNOW",,,"PSY, SRG, SNOWBOARD",,,"FAA CWO",,,,,,,,,,,,,,,,,,,,,,,,,,,,,"13","28",,,"-0.06","2","53","30.09",,"30.07","9.94","24","330",,"15",,,,,,,,,,,,,,,,,,,,,,,,,,,,,,,,,,,,,"SYN06474486 32966 23313 11022 21106 30182 40191 52021 90251 555 91903=","FM-12","4",,,,,,,,,,,,,,,,,,,,,,,,,,,"2009-05-01"
"74486094789","2018-01-18T22:51:00","FM-15","7",,"ESE","1.5","mi","TEMP, PRECIP, SNOW",,,"PSY, SRG, SNOWBOARD",,,"FAA CWO",,,,,,,,,,,,,,,,,,,,,,,,,,,,"30.09","13","27","0.00",,,,"55","30.09","FEW:02 250","30.06","10.00","23","320",,"14",,,,,,,,,,,,,,,,,,,,,,,,,,,,,,,,,,,,,"MET09701/18/18 22:51:02 METAR KJFK 190351Z 32012KT 10SM FEW250 M03/M11 A3009 RMK AO2 SLP188 T10281106 $","FM-15","7",,,,,,,,,,,,,,,,,,,,,,,,,,,"2009-05-01"
"74486094789","2018-01-18T23:51:00","FM-15","7",,"ESE","1.5","mi","TEMP, PRECIP, SNOW",,,"PSY, SRG, SNOWBOARD",,,"FAA CWO",,,,,,,,,,,,,,,,,,,,,,,,,,,,"30.09","13","26","0.00",,,,"57","30.08","CLR:00","30.06","10.00","22","300",,"9",,,,,,,,,,,,,,,,,,,,,,,,,,,,,,,,,,,,,"MET10401/18/18 23:51:02 METAR KJFK 190451Z 30008KT 10SM CLR M03/M11 A3009 RMK AO2 SLP187 T10331106 400111072 $","FM-15","7",,,,,,,,,,,,,,,,,,,,,,,,,,,"2009-05-01"
"74486094789","2018-01-18T23:59:00","SOD  ","6",,"ESE","1.5","mi","TEMP, PRECIP, SNOW",,,"PSY, SRG, SNOWBOARD",,,"FAA CWO",,,,,,"11","27","51","30.04","30.03","22","14.9","0","-5.3","38","34","19","330","27","0.00","0","0.0","330","21",,,,,,,,,,,,,,,,,,,,,,,,,,,,,,,,,,,,,,,,,,,,,,,,,,,,,,,,"SOD73924 HR PRECIPITATION (IN): 0.00 SNOW DEPTH (IN):0     24 HR SNOWFALL (IN):0.0  24 HR MAX TEMP (F): 3424 HR MIN TEMP (F): 19AVERAGE STATION PRESSURE:30.030 MINIMUM SEA LEVEL PRESSURE:29.93 TIME OF OCCURRENCE:1516 PEAK WIND SPEED (MPH): 27 PEAK WIND DIR (DEG):330 PEAK WIND TIME (LST):      FASTEST 2MIN SPEED (MPH): 21FASTEST 2MIN DIR (DEG):330 FASTEST 2MIN TIME (LST):     AVERAGE WIND SPEED (MPH):14.9 24 HR AVG TEMP (F): 27DEPART FROM NORMAL: -5  HEATING DEGREE DAYS: 38 COOLING DEGREE DAYS:  0 LATEST DAY MAX TEMP (0700-1900 LST):34  LATEST NIGHT MIN TEMP(1900-0800 LST):19 HOURLY INCREMENTAL PRECIPITATION VALUES (IN):.00 0.00 0.00 0.00 0.00 0.00 0.00 0.00 0.00 0.00 0.00 0.00 0.00 0.00 0.00 0.00 0.00 0.00 0.00 0.00 0.00 0.00 0.00 0.00","SOD  ","6",,,,,,,,,,,,,,,,,,,,,,,,,"0716","1656","2009-05-01"
"74486094789","2018-01-19T00:51:00","FM-15","7",,"ESE","1.5","mi","TEMP, PRECIP, SNOW",,,"PSY, SRG, SNOWBOARD",,,"FAA CWO",,,,,,,,,,,,,,,,,,,,,,,,,,,,"30.06","13","26","0.00",,"+0.03","8","57","30.06","CLR:00","30.03","10.00","22","290",,"11",,,,,,,,,,,,,,,,,,,,,,,,,,,,,,,,,,,,,"MET11701/19/18 00:51:02 METAR KJFK 190551Z 29010KT 10SM CLR M03/M11 A3006 RMK AO2 SLP179 T10331106 11011 21039 58011 $ (JC)","FM-15","7",,,,,,,,,,,,,,,,,,,,,,,,,,,"2009-05-01"
"74486094789","2018-01-19T01:00:00","FM-12","4",,"ESE","1.5","mi","TEMP, PRECIP, SNOW",,,"PSY, SRG, SNOWBOARD",,,"FAA CWO",,,,,,,,,,,,,,,,,,,,,,,,,,,,,"13","26",,,"+0.03","8","57","30.06",,"30.03","9.94","22","290",,"11",,,,,,,,,,,,,,,,,,,,,,,,,,,,,,,,,,,,,"SYN08074486 32966 02910 11033 21106 30168 40179 58011 90551 333 11011 21072 555 91906=","FM-12","4",,,,,,,,,,,,,,,,,,,,,,,,,,,"2009-05-01"
"74486094789","2018-01-19T01:51:00","FM-15","7",,"ESE","1.5","mi","TEMP, PRECIP, SNOW",,,"PSY, SRG, SNOWBOARD",,,"FAA CWO",,,,,,,,,,,,,,,,,,,,,,,,,,,,"30.06","13","25","0.00",,,,"60","30.06","CLR:00","30.03","10.00","22","280",,"8",,,,,,,,,,,,,,,,,,,,,,,,,,,,,,,,,,,,,"MET09901/19/18 01:51:02 METAR KJFK 190651Z 28007KT 10SM CLR M04/M11 A3006 RMK AO2 SLP178 T10391106 $ (JC)","FM-15","7",,,,,,,,,,,,,,,,,,,,,,,,,,,"2009-05-01"
"74486094789","2018-01-19T02:51:00","FM-15","7",,"ESE","1.5","mi","TEMP, PRECIP, SNOW",,,"PSY, SRG, SNOWBOARD",,,"FAA CWO",,,,,,,,,,,,,,,,,,,,,,,,,,,,"30.06","13","25","0.00",,,,"60","30.06","CLR:00","30.03","10.00","22","280",,"8",,,,,,,,,,,,,,,,,,,,,,,,,,,,,,,,,,,,,"MET09901/19/18 02:51:02 METAR KJFK 190751Z 28007KT 10SM CLR M04/M11 A3006 RMK AO2 SLP179 T10391106 $ (JC)","FM-15","7",,,,,,,,,,,,,,,,,,,,,,,,,,,"2009-05-01"
"74486094789","2018-01-19T03:51:00","FM-15","7",,"ESE","1.5","mi","TEMP, PRECIP, SNOW",,,"PSY, SRG, SNOWBOARD",,,"FAA CWO",,,,,,,,,,,,,,,,,,,,,,,,,,,,"30.08","14","25","0.00",,"-0.01","3","63","30.07","CLR:00","30.06","10.00","22","270",,"10",,,,,,,,,,,,,,,,,,,,,,,,,,,,,,,,,,,,,"MET10501/19/18 03:51:02 METAR KJFK 190851Z 27009KT 10SM CLR M04/M10 A3008 RMK AO2 SLP184 T10391100 53005 $ (JC)","FM-15","7",,,,,,,,,,,,,,,,,,,,,,,,,,,"2009-05-01"
"74486094789","2018-01-19T04:00:00","FM-12","4",,"ESE","1.5","mi","TEMP, PRECIP, SNOW",,,"PSY, SRG, SNOWBOARD",,,"FAA CWO",,,,,,,,,,,,,,,,,,,,,,,,,,,,,"14","25",,,"-0.01","3","63","30.07",,"30.05","9.94","22","270",,"10",,,,,,,,,,,,,,,,,,,,,,,,,,,,,,,,,,,,,"SYN06474486 32966 02709 11039 21100 30175 40184 53005 90851 555 91909=","FM-12","4",,,,,,,,,,,,,,,,,,,,,,,,,,,"2009-05-01"
"74486094789","2018-01-19T04:51:00","FM-15","7",,"ESE","1.5","mi","TEMP, PRECIP, SNOW",,,"PSY, SRG, SNOWBOARD",,,"FAA CWO",,,,,,,,,,,,,,,,,,,,,,,,,,,,"30.08","15","25","0.00",,,,"66","30.07","FEW:02 50","30.06","10.00","22","250",,"8",,,,,,,,,,,,,,,,,,,,,,,,,,,,,,,,,,,,,"MET10201/19/18 04:51:02 METAR KJFK 190951Z 25007KT 10SM FEW050 M04/M09 A3008 RMK AO2 SLP184 T10391094 $ (JC)","FM-15","7",,,,,,,,,,,,,,,,,,,,,,,,,,,"2009-05-01"
"74486094789","2018-01-19T05:51:00","FM-15","7",,"ESE","1.5","mi","TEMP, PRECIP, SNOW",,,"PSY, SRG, SNOWBOARD",,,"FAA CWO",,,,,,,,,,,,,,,,,,,,,,,,,,,,"30.08","16","23","0.00",,,,"74","30.08","SCT:04 250","30.06","10.00","21","240",,"6",,,,,,,,,,,,,,,,,,,,,,,,,,,,,,,,,,,,,"MET10201/19/18 05:51:02 METAR KJFK 191051Z 24005KT 10SM SCT250 M05/M09 A3008 RMK AO2 SLP186 T10501089 $ (JC)","FM-15","7",,,,,,,,,,,,,,,,,,,,,,,,,,,"2009-05-01"
"74486094789","2018-01-19T06:51:00","FM-15","7",,"ESE","1.5","mi","TEMP, PRECIP, SNOW",,,"PSY, SRG, SNOWBOARD",,,"FAA CWO",,,,,,,,,,,,,,,,,,,,,,,,,,,,"30.08","16","26","0.00",,"-0.01","3","66","30.08","SCT:04 240","30.06","10.00","23","250",,"9",,,,,,,,,,,,,,,,,,,,,,,,,,,,,,,,,,,,,"MET12001/19/18 06:51:02 METAR KJFK 191151Z 25008KT 10SM SCT240 M03/M09 A3008 RMK AO2 SLP187 T10331089 11033 21056 53002 $ (JC)","FM-15","7",,,,,,,,,,,,,,,,,,,,,,,,,,,"2009-05-01"
"74486094789","2018-01-19T07:00:00","FM-12","4",,"ESE","1.5","mi","TEMP, PRECIP, SNOW",,,"PSY, SRG, SNOWBOARD",,,"FAA CWO",,,,,,,,,,,,,,,,,,,,,,,,,,,,,"16","26",,,"-0.01","3","66","30.08",,"30.05","9.94","23","250",,"9",,,,,,,,,,,,,,,,,,,,,,,,,,,,,,,,,,,,,"SYN08074486 32966 42508 11033 21089 30175 40187 53002 91151 333 10011 21056 555 91912=","FM-12","4",,,,,,,,,,,,,,,,,,,,,,,,,,,"2009-05-01"
"74486094789","2018-01-19T07:51:00","FM-15","7",,"ESE","1.5","mi","TEMP, PRECIP, SNOW",,,"PSY, SRG, SNOWBOARD",,,"FAA CWO",,,,,,,,,,,,,,,,,,,,,,,,,,,,"30.08","18","27","0.00",,,,"69","30.08","BKN:07 220","30.06","10.00","24","240",,"11",,,,,,,,,,,,,,,,,,,,,,,,,,,,,,,,,,,,,"MET10201/19/18 07:51:02 METAR KJFK 191251Z 24010KT 10SM BKN220 M03/M08 A3008 RMK AO2 SLP186 T10281078 $ (JC)","FM-15","7",,,,,,,,,,,,,,,,,,,,,,,,,,,"2009-05-01"
"74486094789","2018-01-19T08:51:00","FM-15","7",,"ESE","1.5","mi","TEMP, PRECIP, SNOW",,,"PSY, SRG, SNOWBOARD",,,"FAA CWO",,,,,,,,,,,,,,,,,,,,,,,,,,,,"30.10","18","30","0.00",,,,"61","30.09","BKN:07 220","30.08","10.00","26","240",,"13",,,,,,,,,,,,,,,,,,,,,,,,,,,,,,,,,,,,,"MET10201/19/18 08:51:02 METAR KJFK 191351Z 24011KT 10SM BKN220 M01/M08 A3010 RMK AO2 SLP191 T10111078 $ (BH)","FM-15","7",,,,,,,,,,,,,,,,,,,,,,,,,,,"2009-05-01"
"74486094789","2018-01-19T09:51:00","FM-15","7",,"ESE","1.5","mi","TEMP, PRECIP, SNOW",,,"PSY, SRG, SNOWBOARD",,,"FAA CWO",,,,,,,,,,,,,,,,,,,,,,,,,,,,"30.10","16","32","0.00",,"-0.02","3","52","30.10","BKN:07 210","30.08","10.00","27","240",,"14",,,,,,,,,,,,,,,,,,,,,,,,,,,,,,,,,,,,,"MET10701/19/18 09:51:02 METAR KJFK 191451Z 24012KT 10SM BKN210 00/M09 A3010 RMK AO2 SLP193 T00001089 53006 $ (BH)","FM-15","7",,,,,,,,,,,,,,,,,,,,,,,,,,,"2009-05-01"
"74486094789","2018-01-19T10:00:00","FM-12","4",,"ESE","1.5","mi","TEMP, PRECIP, SNOW",,,"PSY, SRG, SNOWBOARD",,,"FAA CWO",,,,,,,,,,,,,,,,,,,,,,,,,,,,,"16","32",,,"-0.02","3","52","30.10",,"30.07","9.94","27","240",,"14",,,,,,,,,,,,,,,,,,,,,,,,,,,,,,,,,,,,,"SYN06474486 32966 62412 10000 21089 30182 40193 53006 91451 555 91915=","FM-12","4",,,,,,,,,,,,,,,,,,,,,,,,,,,"2009-05-01"
"74486094789","2018-01-19T10:51:00","FM-15","7",,"ESE","1.5","mi","TEMP, PRECIP, SNOW",,,"PSY, SRG, SNOWBOARD",,,"FAA CWO",,,,,,,,,,,,,,,,,,,,,,,,,,,,"30.09","16","34","0.00",,,,"48","30.09","BKN:07 200","30.06","10.00","28","250",,"10",,,,,,,,,,,,,,,,,,,,,,,,,,,,,,,,,,,,,"MET10101/19/18 10:51:02 METAR KJFK 191551Z 25009KT 10SM BKN200 01/M09 A3009 RMK AO2 SLP189 T00111089 $ (BH)","FM-15","7",,,,,,,,,,,,,,,,,,,,,,,,,,,"2009-05-01"
"74486094789","2018-01-19T11:51:00","FM-15","7",,"ESE","1.5","mi","TEMP, PRECIP, SNOW",,,"PSY, SRG, SNOWBOARD",,,"FAA CWO",,,,,,,,,,,,,,,,,,,,,,,,,,,,"30.06","16","36","0.00",,,,"44","30.06","BKN:07 210 BKN:07 300","30.03","10.00","29","260",,"13",,,,,,,,,,,,,,,,,,,,,,,,,,,,,,,,,,,,,"MET10601/19/18 11:51:02 METAR KJFK 191651Z 26011KT 10SM BKN210 BKN300 02/M09 A3006 RMK AO2 SLP178 T00221089 (BH)","FM-15","7",,,,,,,,,,,,,,,,,,,,,,,,,,,"2009-05-01"
"74486094789","2018-01-19T12:51:00","FM-15","7",,"ESE","1.5","mi","TEMP, PRECIP, SNOW",,,"PSY, SRG, SNOWBOARD",,,"FAA CWO",,,,,,,,,,,,,,,,,,,,,,,,,,,,"30.03","16","36","0.00",,"+0.08","8","44","30.02","BKN:07 200 BKN:07 300","30.01","10.00","29","270",,"15",,,,,,,,,,,,,,,,,,,,,,,,,,,,,,,,,,,,,"MET12401/19/18 12:51:02 METAR KJFK 191751Z 27013KT 10SM BKN200 BKN300 02/M09 A3003 RMK AO2 SLP167 T00221089 10028 21033 58026 (BH)","FM-15","7",,,,,,,,,,,,,,,,,,,,,,,,,,,"2009-05-01"
"74486094789","2018-01-19T13:00:00","FM-12","4",,"ESE","1.5","mi","TEMP, PRECIP, SNOW",,,"PSY, SRG, SNOWBOARD",,,"FAA CWO",,,,,,,,,,,,,,,,,,,,,,,,,,,,,"16","36",,,"+0.08","8","44","30.02",,"30.00","9.94","29","270",,"15",,,,,,,,,,,,,,,,,,,,,,,,,,,,,,,,,,,,,"SYN08074486 32966 62713 10022 21089 30158 40167 58026 91751 333 10028 21033 555 91918=","FM-12","4",,,,,,,,,,,,,,,,,,,,,,,,,,,"2009-05-01"
"74486094789","2018-01-19T13:51:00","FM-15","7",,"ESE","1.5","mi","TEMP, PRECIP, SNOW",,,"PSY, SRG, SNOWBOARD",,,"FAA CWO",,,,,,,,,,,,,,,,,,,,,,,,,,,,"30.01","16","35","0.00",,,,"46","30.01","SCT:04 220 BKN:07 300","29.98","10.00","29","260",,"15",,,,,,,,,,,,,,,,,,,,,,,,,,,,,,,,,,,,,"MET10601/19/18 13:51:02 METAR KJFK 191851Z 26013KT 10SM SCT220 BKN300 02/M09 A3001 RMK AO2 SLP161 T00171089 (BH)","FM-15","7",,,,,,,,,,,,,,,,,,,,,,,,,,,"2009-05-01"
"74486094789","2018-01-19T14:51:00","FM-15","7",,"ESE","1.5","mi","TEMP, PRECIP, SNOW",,,"PSY, SRG, SNOWBOARD",,,"FAA CWO",,,,,,,,,,,,,,,,,,,,,,,,,,,,"30.00","17","37","0.00",,,,"44","29.99","SCT:04 220 BKN:07 260","29.98","10.00","30","240",,"13",,,,,,,,,,,,,,,,,,,,,,,,,,,,,,,,,,,,,"MET10601/19/18 14:51:02 METAR KJFK 191951Z 24011KT 10SM SCT220 BKN260 03/M08 A3000 RMK AO2 SLP157 T00281083 (RR)","FM-15","7",,,,,,,,,,,,,,,,,,,,,,,,,,,"2009-05-01"
"74486094789","2018-01-19T15:51:00","FM-15","7",,"ESE","1.5","mi","TEMP, PRECIP, SNOW",,,"PSY, SRG, SNOWBOARD",,,"FAA CWO",,,,,,,,,,,,,,,,,,,,,,,,,,,,"30.00","18","37","0.00",,"+0.03","5","46","30.00","BKN:07 210 BKN:07 260","29.98","10.00","30","250",,"15",,,,,,,,,,,,,,,,,,,,,,,,,,,,,,,,,,,,,"MET11201/19/18 15:51:02 METAR KJFK 192051Z 25013KT 10SM BKN210 BKN260 03/M08 A3000 RMK AO2 SLP158 T00281078 55009 (RR)","FM-15","7",,,,,,,,,,,,,,,,,,,,,,,,,,,"2009-05-01"
"74486094789","2018-01-19T16:00:00","FM-12","4",,"ESE","1.5","mi","TEMP, PRECIP, SNOW",,,"PSY, SRG, SNOWBOARD",,,"FAA CWO",,,,,,,,,,,,,,,,,,,,,,,,,,,,,"18","37",,,"+0.03","5","46","30.00",,"29.97","9.94","30","250",,"15",,,,,,,,,,,,,,,,,,,,,,,,,,,,,,,,,,,,,"SYN06474486 32966 62513 10028 21078 30148 40158 55009 92051 555 91921=","FM-12","4",,,,,,,,,,,,,,,,,,,,,,,,,,,"2009-05-01"
"74486094789","2018-01-19T16:51:00","FM-15","7",,"ESE","1.5","mi","TEMP, PRECIP, SNOW",,,"PSY, SRG, SNOWBOARD",,,"FAA CWO",,,,,,,,,,,,,,,,,,,,,,,,,,,,"30.00","19","34","0.00",,,,"54","30.00","SCT:04 200 BKN:07 260","29.98","10.00","29","240",,"9",,,,,,,,,,,,,,,,,,,,,,,,,,,,,,,,,,,,,"MET10601/19/18 16:51:02 METAR KJFK 192151Z 24008KT 10SM SCT200 BKN260 01/M07 A3000 RMK AO2 SLP159 T00111072 (RR)","FM-15","7",,,,,,,,,,,,,,,,,,,,,,,,,,,"2009-05-01"
"74486094789","2018-01-19T17:51:00","FM-15","7",,"ESE","1.5","mi","TEMP, PRECIP, SNOW",,,"PSY, SRG, SNOWBOARD",,,"FAA CWO",,,,,,,,,,,,,,,,,,,,,,,,,,,,"30.00","19","36","0.00",,,,"50","30.00","SCT:04 190 BKN:07 260","29.98","10.00","30","250",,"11",,,,,,,,,,,,,,,,,,,,,,,,,,,,,,,,,,,,,"MET10601/19/18 17:51:02 METAR KJFK 192251Z 25010KT 10SM SCT190 BKN260 02/M07 A3000 RMK AO2 SLP158 T00221072 (RR)","FM-15","7",,,,,,,,,,,,,,,,,,,,,,,,,,,"2009-05-01"
"74486094789","2018-01-19T18:51:00","FM-15","7",,"ESE","1.5","mi","TEMP, PRECIP, SNOW",,,"PSY, SRG, SNOWBOARD",,,"FAA CWO",,,,,,,,,,,,,,,,,,,,,,,,,,,,"30.01","20","36","0.00",,"-0.01","3","52","30.00","SCT:04 260","29.98","10.00","30","250",,"8",,,,,,,,,,,,,,,,,,,,,,,,,,,,,,,,,,,,,"MET11701/19/18 18:51:02 METAR KJFK 192351Z 25007KT 10SM SCT260 02/M07 A3001 RMK AO2 SLP160 T00221067 10033 20006 53002 (RR)","FM-15","7",,,,,,,,,,,,,,,,,,,,,,,,,,,"2009-05-01"
"74486094789","2018-01-19T19:00:00","FM-12","4",,"ESE","1.5","mi","TEMP, PRECIP, SNOW",,,"PSY, SRG, SNOWBOARD",,,"FAA CWO",,,,,,,,,,,,,,,,,,,,,,,,,,,,,"20","36",,,"-0.01","3","52","30.00",,"29.98","9.94","30","250",,"8",,,,,,,,,,,,,,,,,,,,,,,,,,,,,,,,,,,,,"SYN08074486 32966 42507 10022 21067 30151 40160 53002 92351 333 10033 21055 555 92000=","FM-12","4",,,,,,,,,,,,,,,,,,,,,,,,,,,"2009-05-01"
"74486094789","2018-01-19T19:51:00","FM-15","7",,"ESE","1.5","mi","TEMP, PRECIP, SNOW",,,"PSY, SRG, SNOWBOARD",,,"FAA CWO",,,,,,,,,,,,,,,,,,,,,,,,,,,,"30.00","23","32","0.00",,,,"69","30.00","FEW:02 250","29.98","10.00","29","220",,"6",,,,,,,,,,,,,,,,,,,,,,,,,,,,,,,,,,,,,"MET09401/19/18 19:51:01 METAR KJFK 200051Z 22005KT 10SM FEW250 00/M05 A3000 RMK AO2 SLP160 T00001050","FM-15","7",,,,,,,,,,,,,,,,,,,,,,,,,,,"2009-05-01"
"74486094789","2018-01-19T20:51:00","FM-15","7",,"ESE","1.5","mi","TEMP, PRECIP, SNOW",,,"PSY, SRG, SNOWBOARD",,,"FAA CWO",,,,,,,,,,,,,,,,,,,,,,,,,,,,"30.00","22","35","0.00",,,,"59","30.00","SCT:04 250","29.98","10.00","30","230",,"7",,,,,,,,,,,,,,,,,,,,,,,,,,,,,,,,,,,,,"MET09401/19/18 20:51:01 METAR KJFK 200151Z 23006KT 10SM SCT250 02/M06 A3000 RMK AO2 SLP159 T00171056","FM-15","7",,,,,,,,,,,,,,,,,,,,,,,,,,,"2009-05-01"
"74486094789","2018-01-19T21:51:00","FM-15","7",,"ESE","1.5","mi","TEMP, PRECIP, SNOW",,,"PSY, SRG, SNOWBOARD",,,"FAA CWO",,,,,,,,,,,,,,,,,,,,,,,,,,,,"30.00","22","34","0.00",,"+0.01","8","61","30.00","SCT:04 250","29.98","10.00","30","190",,"5",,,,,,,,,,,,,,,,,,,,,,,,,,,,,,,,,,,,,"MET10001/19/18 21:51:02 METAR KJFK 200251Z 19004KT 10SM SCT250 01/M06 A3000 RMK AO2 SLP158 T00111056 58002","FM-15","7",,,,,,,,,,,,,,,,,,,,,,,,,,,"2009-05-01"
"74486094789","2018-01-19T22:00:00","FM-12","4",,"ESE","1.5","mi","TEMP, PRECIP, SNOW",,,"PSY, SRG, SNOWBOARD",,,"FAA CWO",,,,,,,,,,,,,,,,,,,,,,,,,,,,,"22","34",,,"+0.01","8","61","30.00",,"29.97","9.94","30","190",,"5",,,,,,,,,,,,,,,,,,,,,,,,,,,,,,,,,,,,,"SYN06474486 32966 41904 10011 21056 30148 40158 58002 90251 555 92003=","FM-12","4",,,,,,,,,,,,,,,,,,,,,,,,,,,"2009-05-01"
"74486094789","2018-01-19T22:51:00","FM-15","7",,"ESE","1.5","mi","TEMP, PRECIP, SNOW",,,"PSY, SRG, SNOWBOARD",,,"FAA CWO",,,,,,,,,,,,,,,,,,,,,,,,,,,,"29.98","26","33","0.00",,,,"75","29.98","SCT:04 250","29.96","10.00","30","200",,"10",,,,,,,,,,,,,,,,,,,,,,,,,,,,,,,,,,,,,"MET09401/19/18 22:51:02 METAR KJFK 200351Z 20009KT 10SM SCT250 01/M03 A2998 RMK AO2 SLP153 T00061033","FM-15","7",,,,,,,,,,,,,,,,,,,,,,,,,,,"2009-05-01"
"74486094789","2018-01-19T23:51:00","FM-15","7",,"ESE","1.5","mi","TEMP, PRECIP, SNOW",,,"PSY, SRG, SNOWBOARD",,,"FAA CWO",,,,,,,,,,,,,,,,,,,,,,,,,,,,"29.96","23","35","0.00",,,,"61","29.96","FEW:02 250","29.93","10.00","31","220",,"10",,,,,,,,,,,,,,,,,,,,,,,,,,,,,,,,,,,,,"MET10401/19/18 23:51:02 METAR KJFK 200451Z 22009KT 10SM FEW250 02/M05 A2996 RMK AO2 SLP145 T00171050 400331056","FM-15","7",,,,,,,,,,,,,,,,,,,,,,,,,,,"2009-05-01"
"74486094789","2018-01-19T23:59:00","SOD  ","6",,"ESE","1.5","mi","TEMP, PRECIP, SNOW",,,"PSY, SRG, SNOWBOARD",,,"FAA CWO",,,,,,"18","30","58","30.04","30.01","27","10.3","0","-2.3","35","38","22","260","20","0.00","0","0.0","260","16",,,,,,,,,,,,,,,,,,,,,,,,,,,,,,,,,,,,,,,,,,,,,,,,,,,,,,,,"SOD73924 HR PRECIPITATION (IN): 0.00 SNOW DEPTH (IN):0     24 HR SNOWFALL (IN):0.0  24 HR MAX TEMP (F): 3824 HR MIN TEMP (F): 22AVERAGE STATION PRESSURE:30.015 MINIMUM SEA LEVEL PRESSURE:29.95 TIME OF OCCURRENCE:2359 PEAK WIND SPEED (MPH): 20 PEAK WIND DIR (DEG):260 PEAK WIND TIME (LST):      FASTEST 2MIN SPEED (MPH): 16FASTEST 2MIN DIR (DEG):260 FASTEST 2MIN TIME (LST):     AVERAGE WIND SPEED (MPH):10.3 24 HR AVG TEMP (F): 30DEPART FROM NORMAL: -2  HEATING DEGREE DAYS: 35 COOLING DEGREE DAYS:  0 LATEST DAY MAX TEMP (0700-1900 LST):38  LATEST NIGHT MIN TEMP(1900-0800 LST):22 HOURLY INCREMENTAL PRECIPITATION VALUES (IN):.00 0.00 0.00 0.00 0.00 0.00 0.00 0.00 0.00 0.00 0.00 0.00 0.00 0.00 0.00 0.00 0.00 0.00 0.00 0.00 0.00 0.00 0.00 0.00","SOD  ","6",,,,,,,,,,,,,,,,,,,,,,,,,"0715","1657","2009-05-01"
"74486094789","2018-01-20T00:51:00","FM-15","7",,"ESE","1.5","mi","TEMP, PRECIP, SNOW",,,"PSY, SRG, SNOWBOARD",,,"FAA CWO",,,,,,,,,,,,,,,,,,,,,,,,,,,,"29.95","23","33","0.00",,"+0.05","6","66","29.94","FEW:02 250","29.93","10.00","29","210",,"9",,,,,,,,,,,,,,,,,,,,,,,,,,,,,,,,,,,,,"MET11701/20/18 00:51:02 METAR KJFK 200551Z 21008KT 10SM FEW250 01/M05 A2995 RMK AO2 SLP140 T00061050 10022 21006 56018 (DM)","FM-15","7",,,,,,,,,,,,,,,,,,,,,,,,,,,"2009-05-01"
"74486094789","2018-01-20T01:00:00","FM-12","4",,"ESE","1.5","mi","TEMP, PRECIP, SNOW",,,"PSY, SRG, SNOWBOARD",,,"FAA CWO",,,,,,,,,,,,,,,,,,,,,,,,,,,,,"23","33",,,"+0.05","6","66","29.94",,"29.92","9.94","29","210",,"9",,,,,,,,,,,,,,,,,,,,,,,,,,,,,,,,,,,,,"SYN08074486 32966 22108 10006 21050 30131 40140 56018 90551 333 10022 21056 555 92006=","FM-12","4",,,,,,,,,,,,,,,,,,,,,,,,,,,"2009-05-01"
"74486094789","2018-01-20T01:51:00","FM-15","7",,"ESE","1.5","mi","TEMP, PRECIP, SNOW",,,"PSY, SRG, SNOWBOARD",,,"FAA CWO",,,,,,,,,,,,,,,,,,,,,,,,,,,,"29.94","24","31","0.00",,,,"76","29.93","FEW:02 250","29.91","10.00","29","210",,"8",,,,,,,,,,,,,,,,,,,,,,,,,,,,,,,,,,,,,"MET10001/20/18 01:51:02 METAR KJFK 200651Z 21007KT 10SM FEW250 M01/M04 A2994 RMK AO2 SLP136 T10061044 (DM)","FM-15","7",,,,,,,,,,,,,,,,,,,,,,,,,,,"2009-05-01"
"74486094789","2018-01-20T02:51:00","FM-15","7",,"ESE","1.5","mi","TEMP, PRECIP, SNOW",,,"PSY, SRG, SNOWBOARD",,,"FAA CWO",,,,,,,,,,,,,,,,,,,,,,,,,,,,"29.93","23","31","0.00",,,,"72","29.92","FEW:02 250","29.91","10.00","28","220",,"6",,,,,,,,,,,,,,,,,,,,,,,,,,,,,,,,,,,,,"MET10001/20/18 02:51:02 METAR KJFK 200751Z 22005KT 10SM FEW250 M01/M05 A2993 RMK AO2 SLP133 T10061050 (DM)","FM-15","7",,,,,,,,,,,,,,,,,,,,,,,,,,,"2009-05-01"
"74486094789","2018-01-20T03:51:00","FM-15","7",,"ESE","1.5","mi","TEMP, PRECIP, SNOW",,,"PSY, SRG, SNOWBOARD",,,"FAA CWO",,,,,,,,,,,,,,,,,,,,,,,,,,,,"29.91","23","31","0.00",,"+0.04","8","72","29.91","FEW:02 250","29.88","10.00","28","230",,"9",,,,,,,,,,,,,,,,,,,,,,,,,,,,,,,,,,,,,"MET10601/20/18 03:51:02 METAR KJFK 200851Z 23008KT 10SM FEW250 M01/M05 A2991 RMK AO2 SLP128 T10061050 58012 (DM)","FM-15","7",,,,,,,,,,,,,,,,,,,,,,,,,,,"2009-05-01"
"74486094789","2018-01-20T04:00:00","FM-12","4",,"ESE","1.5","mi","TEMP, PRECIP, SNOW",,,"PSY, SRG, SNOWBOARD",,,"FAA CWO",,,,,,,,,,,,,,,,,,,,,,,,,,,,,"23","31",,,"+0.04","8","72","29.91",,"29.88","9.94","28","230",,"9",,,,,,,,,,,,,,,,,,,,,,,,,,,,,,,,,,,,,"SYN06474486 32966 22308 11006 21050 30117 40128 58012 90851 555 92009=","FM-12","4",,,,,,,,,,,,,,,,,,,,,,,,,,,"2009-05-01"
"74486094789","2018-01-20T04:51:00","FM-15","7",,"ESE","1.5","mi","TEMP, PRECIP, SNOW",,,"PSY, SRG, SNOWBOARD",,,"FAA CWO",,,,,,,,,,,,,,,,,,,,,,,,,,,,"29.90","24","33","0.00",,,,"70","29.90","FEW:02 250","29.88","10.00","30","240",,"14",,,,,,,,,,,,,,,,,,,,,,,,,,,,,,,,,,,,,"MET09901/20/18 04:51:02 METAR KJFK 200951Z 24012KT 10SM FEW250 01/M04 A2990 RMK AO2 SLP126 T00061044 (DM)","FM-15","7",,,,,,,,,,,,,,,,,,,,,,,,,,,"2009-05-01"
"74486094789","2018-01-20T05:51:00","FM-15","7",,"ESE","1.5","mi","TEMP, PRECIP, SNOW",,,"PSY, SRG, SNOWBOARD",,,"FAA CWO",,,,,,,,,,,,,,,,,,,,,,,,,,,,"29.91","25","33","0.00",,,,"72","29.90","SCT:04 250","29.88","10.00","30","230",,"11",,,,,,,,,,,,,,,,,,,,,,,,,,,,,,,,,,,,,"MET09901/20/18 05:51:02 METAR KJFK 201051Z 23010KT 10SM SCT250 01/M04 A2991 RMK AO2 SLP126 T00061039 (DM)","FM-15","7",,,,,,,,,,,,,,,,,,,,,,,,,,,"2009-05-01"
"74486094789","2018-01-20T06:51:00","FM-15","7",,"ESE","1.5","mi","TEMP, PRECIP, SNOW",,,"PSY, SRG, SNOWBOARD",,,"FAA CWO",,,,,,,,,,,,,,,,,,,,,,,,,,,,"29.89","25","35","0.00",,"+0.02","8","67","29.89","BKN:07 250","29.87","10.00","31","240",,"17",,,,,,,,,,,,,,,,,,,,,,,,,,,,,,,,,,,,,"MET11701/20/18 06:51:02 METAR KJFK 201151Z 24015KT 10SM BKN250 02/M04 A2989 RMK AO2 SLP122 T00171039 10017 21017 58006 (RG)","FM-15","7",,,,,,,,,,,,,,,,,,,,,,,,,,,"2009-05-01"
"74486094789","2018-01-20T07:00:00","FM-12","4",,"ESE","1.5","mi","TEMP, PRECIP, SNOW",,,"PSY, SRG, SNOWBOARD",,,"FAA CWO",,,,,,,,,,,,,,,,,,,,,,,,,,,,,"25","35",,,"+0.02","8","67","29.89",,"29.86","9.94","31","240",,"17",,,,,,,,,,,,,,,,,,,,,,,,,,,,,,,,,,,,,"SYN08074486 32966 62415 10017 21039 30111 40122 58006 91151 333 10033 21017 555 92012=","FM-12","4",,,,,,,,,,,,,,,,,,,,,,,,,,,"2009-05-01"
"74486094789","2018-01-20T07:51:00","FM-15","7",,"ESE","1.5","mi","TEMP, PRECIP, SNOW",,,"PSY, SRG, SNOWBOARD",,,"FAA CWO",,,,,,,,,,,,,,,,,,,,,,,,,,,,"29.89","24","37","0.00",,,,"59","29.89","BKN:07 250","29.87","10.00","32","240",,"17",,,,,,,,,,,,,,,,,,,,,,,,,,,,,,,,,,,,,"MET09901/20/18 07:51:02 METAR KJFK 201251Z 24015KT 10SM BKN250 03/M04 A2989 RMK AO2 SLP123 T00281044 (RG)","FM-15","7",,,,,,,,,,,,,,,,,,,,,,,,,,,"2009-05-01"
"74486094789","2018-01-20T08:51:00","FM-15","7",,"ESE","1.5","mi","TEMP, PRECIP, SNOW",,,"PSY, SRG, SNOWBOARD",,,"FAA CWO",,,,,,,,,,,,,,,,,,,,,,,,,,,,"29.91","26","40","0.00",,,,"58","29.91","BKN:07 250","29.88","10.00","35","240",,"15",,,,,,,,,,,,,,,,,,,,,,,,,,,,,,,,,,,,,"MET09901/20/18 08:51:02 METAR KJFK 201351Z 24013KT 10SM BKN250 04/M03 A2991 RMK AO2 SLP127 T00441033 (RG)","FM-15","7",,,,,,,,,,,,,,,,,,,,,,,,,,,"2009-05-01"
"74486094789","2018-01-20T09:51:00","FM-15","7",,"ESE","1.5","mi","TEMP, PRECIP, SNOW",,,"PSY, SRG, SNOWBOARD",,,"FAA CWO",,,,,,,,,,,,,,,,,,,,,,,,,,,,"29.93","27","43","0.00",,"-0.04","3","53","29.92","BKN:07 250","29.91","10.00","37","240",,"9",,,,,,,,,,,,,,,,,,,,,,,,,,,,,,,,,,,,,"MET10501/20/18 09:51:02 METAR KJFK 201451Z 24008KT 10SM BKN250 06/M03 A2993 RMK AO2 SLP133 T00611028 53012 (RG)","FM-15","7",,,,,,,,,,,,,,,,,,,,,,,,,,,"2009-05-01"
"74486094789","2018-01-20T10:00:00","FM-12","4",,"ESE","1.5","mi","TEMP, PRECIP, SNOW",,,"PSY, SRG, SNOWBOARD",,,"FAA CWO",,,,,,,,,,,,,,,,,,,,,,,,,,,,,"27","43",,,"-0.04","3","53","29.92",,"29.90","9.94","37","240",,"9",,,,,,,,,,,,,,,,,,,,,,,,,,,,,,,,,,,,,"SYN06474486 32966 62408 10061 21028 30124 40133 53012 91451 555 92015=","FM-12","4",,,,,,,,,,,,,,,,,,,,,,,,,,,"2009-05-01"
"74486094789","2018-01-20T10:51:00","FM-15","7",,"ESE","1.5","mi","TEMP, PRECIP, SNOW",,,"PSY, SRG, SNOWBOARD",,,"FAA CWO",,,,,,,,,,,,,,,,,,,,,,,,,,,,"29.92","26","47","0.00",,,,"44","29.91","BKN:07 250","29.90","10.00","39","240",,"18",,,,,,,,,,,,,,,,,,,,,,,,,,,,,,,,,,,,,"MET09901/20/18 10:51:02 METAR KJFK 201551Z 24016KT 10SM BKN250 08/M03 A2992 RMK AO2 SLP130 T00831033 (RG)","FM-15","7",,,,,,,,,,,,,,,,,,,,,,,,,,,"2009-05-01"
"74486094789","2018-01-20T11:51:00","FM-15","7",,"ESE","1.5","mi","TEMP, PRECIP, SNOW",,,"PSY, SRG, SNOWBOARD",,,"FAA CWO",,,,,,,,,,,,,,,,,,,,,,,,,,,,"29.88","26","50","0.00",,,,"39","29.88","BKN:07 250","29.85","10.00","40","250",,"18",,,,,,,,,,,,,,,,,,,,,,,,,,,,,,,,,,,,,"MET09901/20/18 11:51:02 METAR KJFK 201651Z 25016KT 10SM BKN250 10/M03 A2988 RMK AO2 SLP118 T01001033 (RG)","FM-15","7",,,,,,,,,,,,,,,,,,,,,,,,,,,"2009-05-01"
"74486094789","2018-01-20T12:51:00","FM-15","7",,"ESE","1.5","mi","TEMP, PRECIP, SNOW",,,"PSY, SRG, SNOWBOARD",,,"FAA CWO",,,,,,,,,,,,,,,,,,,,,,,,,,,,"29.85","27","52","0.00",,"+0.07","8","38","29.85","BKN:07 250","29.83","10.00","42","260",,"14",,,,,,,,,,,,,,,,,,,,,,,,,,,,,,,,,,,,,"MET11701/20/18 12:51:02 METAR KJFK 201751Z 26012KT 10SM BKN250 11/M03 A2985 RMK AO2 SLP109 T01111028 10111 20017 58024 (RG)","FM-15","7",,,,,,,,,,,,,,,,,,,,,,,,,,,"2009-05-01"
"74486094789","2018-01-20T13:00:00","FM-12","4",,"ESE","1.5","mi","TEMP, PRECIP, SNOW",,,"PSY, SRG, SNOWBOARD",,,"FAA CWO",,,,,,,,,,,,,,,,,,,,,,,,,,,,,"27","52",,,"+0.07","8","38","29.85",,"29.82","9.94","42","260",,"14",,,,,,,,,,,,,,,,,,,,,,,,,,,,,,,,,,,,,"SYN08074486 32966 62612 10111 21028 30097 40109 58024 91751 333 10111 20006 555 92018=","FM-12","4",,,,,,,,,,,,,,,,,,,,,,,,,,,"2009-05-01"
"74486094789","2018-01-20T13:51:00","FM-15","7",,"ESE","1.5","mi","TEMP, PRECIP, SNOW",,,"PSY, SRG, SNOWBOARD",,,"FAA CWO",,,,,,,,,,,,,,,,,,,,,,,,,,,,"29.86","27","52","0.00",,,,"38","29.85","BKN:07 250","29.83","10.00","42","250",,"17",,,,,,,,,,,,,,,,,,,,,,,,,,,,,,,,,,,,,"MET09901/20/18 13:51:02 METAR KJFK 201851Z 25015KT 10SM BKN250 11/M03 A2986 RMK AO2 SLP110 T01111028 (RG)","FM-15","7",,,,,,,,,,,,,,,,,,,,,,,,,,,"2009-05-01"
"74486094789","2018-01-20T14:51:00","FM-15","7",,"ESE","1.5","mi","TEMP, PRECIP, SNOW",,,"PSY, SRG, SNOWBOARD",,,"FAA CWO",,,,,,,,,,,,,,,,,,,,,,,,,,,,"29.88","26","52","0.00",,,,"37","29.88","FEW:02 190 BKN:07 250","29.85","10.00","41","270","31","21",,,,,,,,,,,,,,,,,,,,,,,,,,,,,,,,,,,,,"MET12701/20/18 14:51:02 METAR KJFK 201951Z 27018G27KT 10SM FEW190 BKN250 11/M03 A2988 RMK AO2 PK WND 27027/1943 SLP117 T01111033 (JT)","FM-15","7",,,,,,,,,,,,,,,,,,,,,,,,,,,"2009-05-01"
"74486094789","2018-01-20T15:51:00","FM-15","7",,"ESE","1.5","mi","TEMP, PRECIP, SNOW",,,"PSY, SRG, SNOWBOARD",,,"FAA CWO",,,,,,,,,,,,,,,,,,,,,,,,,,,,"29.90","26","51","0.00",,"-0.05","3","38","29.90","FEW:02 210 BKN:07 250","29.88","10.00","41","290","26","21",,,,,,,,,,,,,,,,,,,,,,,,,,,,,,,,,,,,,"MET13301/20/18 15:51:02 METAR KJFK 202051Z 29018G23KT 10SM FEW210 BKN250 11/M03 A2990 RMK AO2 PK WND 27027/2003 SLP126 T01061033 53017 (JT)","FM-15","7",,,,,,,,,,,,,,,,,,,,,,,,,,,"2009-05-01"
"74486094789","2018-01-20T16:00:00","FM-12","4",,"ESE","1.5","mi","TEMP, PRECIP, SNOW",,,"PSY, SRG, SNOWBOARD",,,"FAA CWO",,,,,,,,,,,,,,,,,,,,,,,,,,,,,"26","51",,,"-0.05","3","38","29.90",,"29.87","9.94","41","290",,"21",,,,,,,,,,,,,,,,,,,,,,,,,,,,,,,,,,,,,"SYN07474486 32966 62918 10106 21033 30114 40126 53017 92051 333 91023 555 92021=","FM-12","4",,,,,,,,,,,,,,,,,,,,,,,,,,,"2009-05-01"
"74486094789","2018-01-20T16:51:00","FM-15","7",,"ESE","1.5","mi","TEMP, PRECIP, SNOW",,,"PSY, SRG, SNOWBOARD",,,"FAA CWO",,,,,,,,,,,,,,,,,,,,,,,,,,,,"29.94","27","48","0.00",,,,"44","29.93","FEW:02 210 BKN:07 250","29.91","10.00","39","280","26","15",,,,,,,,,,,,,,,,,,,,,,,,,,,,,,,,,,,,,"MET12701/20/18 16:51:02 METAR KJFK 202151Z 28013G23KT 10SM FEW210 BKN250 09/M03 A2994 RMK AO2 PK WND 27027/2133 SLP137 T00891028 (JT)","FM-15","7",,,,,,,,,,,,,,,,,,,,,,,,,,,"2009-05-01"
"74486094789","2018-01-20T17:51:00","FM-15","7",,"ESE","1.5","mi","TEMP, PRECIP, SNOW",,,"PSY, SRG, SNOWBOARD",,,"FAA CWO",,,,,,,,,,,,,,,,,,,,,,,,,,,,"29.96","28","47","0.00",,,,"48","29.96","FEW:02 200 BKN:07 250","29.93","10.00","39","270",,"15",,,,,,,,,,,,,,,,,,,,,,,,,,,,,,,,,,,,,"MET10601/20/18 17:51:02 METAR KJFK 202251Z 27013KT 10SM FEW200 BKN250 08/M02 A2996 RMK AO2 SLP144 T00831022 (JT)","FM-15","7",,,,,,,,,,,,,,,,,,,,,,,,,,,"2009-05-01"
"74486094789","2018-01-20T18:51:00","FM-15","7",,"ESE","1.5","mi","TEMP, PRECIP, SNOW",,,"PSY, SRG, SNOWBOARD",,,"FAA CWO",,,,,,,,,,,,,,,,,,,,,,,,,,,,"29.99","29","47","0.00",,"-0.09","3","50","29.99","FEW:02 220 SCT:04 250","29.96","10.00","40","270",,"14",,,,,,,,,,,,,,,,,,,,,,,,,,,,,,,,,,,,,"MET12401/20/18 18:51:02 METAR KJFK 202351Z 27012KT 10SM FEW220 SCT250 08/M02 A2999 RMK AO2 SLP155 T00831017 10122 20078 53029 (JT)","FM-15","7",,,,,,,,,,,,,,,,,,,,,,,,,,,"2009-05-01"
"74486094789","2018-01-20T19:00:00","FM-12","4",,"ESE","1.5","mi","TEMP, PRECIP, SNOW",,,"PSY, SRG, SNOWBOARD",,,"FAA CWO",,,,,,,,,,,,,,,,,,,,,,,,,,,,,"29","47",,,"-0.09","3","50","29.99",,"29.96","9.94","40","270",,"14",,,,,,,,,,,,,,,,,,,,,,,,,,,,,,,,,,,,,"SYN08074486 32966 42712 10083 21017 30144 40155 53029 92351 333 10122 21016 555 92100=","FM-12","4",,,,,,,,,,,,,,,,,,,,,,,,,,,"2009-05-01"
"74486094789","2018-01-20T19:51:00","FM-15","7",,"ESE","1.5","mi","TEMP, PRECIP, SNOW",,,"PSY, SRG, SNOWBOARD",,,"FAA CWO",,,,,,,,,,,,,,,,,,,,,,,,,,,,"30.02","29","46","0.00",,,,"51","30.01","SCT:04 250","30.00","10.00","39","270",,"10",,,,,,,,,,,,,,,,,,,,,,,,,,,,,,,,,,,,,"MET09401/20/18 19:51:01 METAR KJFK 210051Z 27009KT 10SM SCT250 08/M02 A3002 RMK AO2 SLP164 T00781017","FM-15","7",,,,,,,,,,,,,,,,,,,,,,,,,,,"2009-05-01"
"74486094789","2018-01-20T20:51:00","FM-15","7",,"ESE","1.5","mi","TEMP, PRECIP, SNOW",,,"PSY, SRG, SNOWBOARD",,,"FAA CWO",,,,,,,,,,,,,,,,,,,,,,,,,,,,"30.03","29","44","0.00",,,,"55","30.03","SCT:04 250","30.01","10.00","38","250",,"9",,,,,,,,,,,,,,,,,,,,,,,,,,,,,,,,,,,,,"MET09401/20/18 20:51:01 METAR KJFK 210151Z 25008KT 10SM SCT250 07/M02 A3003 RMK AO2 SLP168 T00671017","FM-15","7",,,,,,,,,,,,,,,,,,,,,,,,,,,"2009-05-01"
"74486094789","2018-01-20T21:51:00","FM-15","7",,"ESE","1.5","mi","TEMP, PRECIP, SNOW",,,"PSY, SRG, SNOWBOARD",,,"FAA CWO",,,,,,,,,,,,,,,,,,,,,,,,,,,,"30.04","29","40","0.00",,"-0.05","1","65","30.03","FEW:02 250","30.01","10.00","36","250",,"9",,,,,,,,,,,,,,,,,,,,,,,,,,,,,,,,,,,,,"MET10001/20/18 21:51:02 METAR KJFK 210251Z 25008KT 10SM FEW250 04/M02 A3004 RMK AO2 SLP171 T00441017 51016","FM-15","7",,,,,,,,,,,,,,,,,,,,,,,,,,,"2009-05-01"
"74486094789","2018-01-20T22:00:00","FM-12","4",,"ESE","1.5","mi","TEMP, PRECIP, SNOW",,,"PSY, SRG, SNOWBOARD",,,"FAA CWO",,,,,,,,,,,,,,,,,,,,,,,,,,,,,"29","40",,,"-0.05","1","65","30.03",,"30.01","9.94","36","250",,"9",,,,,,,,,,,,,,,,,,,,,,,,,,,,,,,,,,,,,"SYN06474486 32966 22508 10044 21017 30161 40171 51016 90251 555 92103=","FM-12","4",,,,,,,,,,,,,,,,,,,,,,,,,,,"2009-05-01"
"74486094789","2018-01-20T22:51:00","FM-15","7",,"ESE","1.5","mi","TEMP, PRECIP, SNOW",,,"PSY, SRG, SNOWBOARD",,,"FAA CWO",,,,,,,,,,,,,,,,,,,,,,,,,,,,"30.05","29","36","0.00",,,,"76","30.05","FEW:02 250","30.03","10.00","33","240",,"11",,,,,,,,,,,,,,,,,,,,,,,,,,,,,,,,,,,,,"MET09401/20/18 22:51:02 METAR KJFK 210351Z 24010KT 10SM FEW250 02/M02 A3005 RMK AO2 SLP175 T00221017","FM-15","7",,,,,,,,,,,,,,,,,,,,,,,,,,,"2009-05-01"
"74486094789","2018-01-20T23:51:00","FM-15","7",,"ESE","1.5","mi","TEMP, PRECIP, SNOW",,,"PSY, SRG, SNOWBOARD",,,"FAA CWO",,,,,,,,,,,,,,,,,,,,,,,,,,,,"30.06","30","36","0.00",,,,"79","30.06","FEW:02 250","30.03","10.00","34","250",,"10",,,,,,,,,,,,,,,,,,,,,,,,,,,,,,,,,,,,,"MET10401/20/18 23:51:02 METAR KJFK 210451Z 25009KT 10SM FEW250 02/M01 A3006 RMK AO2 SLP179 T00221011 401221017","FM-15","7",,,,,,,,,,,,,,,,,,,,,,,,,,,"2009-05-01"
"74486094789","2018-01-20T23:59:00","SOD  ","6",,"ESE","1.5","mi","TEMP, PRECIP, SNOW",,,"PSY, SRG, SNOWBOARD",,,"FAA CWO",,,,,,"26","42","57","29.93","29.89","36","13.3","0","9.7","23","54","29","270","31","0.00","0","0.0","270","25",,,,,,,,,,,,,,,,,,,,,,,,,,,,,,,,,,,,,,,,,,,,,,,,,,,,,,,,"SOD73924 HR PRECIPITATION (IN): 0.00 SNOW DEPTH (IN):0     24 HR SNOWFALL (IN):0.0  24 HR MAX TEMP (F): 5424 HR MIN TEMP (F): 29AVERAGE STATION PRESSURE:29.890 MINIMUM SEA LEVEL PRESSURE:29.85 TIME OF OCCURRENCE:1351 PEAK WIND SPEED (MPH): 31 PEAK WIND DIR (DEG):270 PEAK WIND TIME (LST):      FASTEST 2MIN SPEED (MPH): 25FASTEST 2MIN DIR (DEG):270 FASTEST 2MIN TIME (LST):     AVERAGE WIND SPEED (MPH):13.3 24 HR AVG TEMP (F): 42DEPART FROM NORMAL: 10  HEATING DEGREE DAYS: 23 COOLING DEGREE DAYS:  0 LATEST DAY MAX TEMP (0700-1900 LST):54  LATEST NIGHT MIN TEMP(1900-0800 LST):29 HOURLY INCREMENTAL PRECIPITATION VALUES (IN):.00 0.00 0.00 0.00 0.00 0.00 0.00 0.00 0.00 0.00 0.00 0.00 0.00 0.00 0.00 0.00 0.00 0.00 0.00 0.00 0.00 0.00 0.00 0.00","SOD  ","6",,,,,,,,,,,,,,,,,,,,,,,,,"0715","1658","2009-05-01"
"74486094789","2018-01-21T00:51:00","FM-15","7",,"ESE","1.5","mi","TEMP, PRECIP, SNOW",,,"PSY, SRG, SNOWBOARD",,,"FAA CWO",,,,,,,,,,,,,,,,,,,,,,,,,,,,"30.06","28","33","0.00",,"-0.03","1","82","30.06","FEW:02 250","30.03","10.00","31","240",,"6",,,,,,,,,,,,,,,,,,,,,,,,,,,,,,,,,,,,,"MET11701/21/18 00:51:02 METAR KJFK 210551Z 24005KT 10SM FEW250 01/M02 A3006 RMK AO2 SLP180 T00061022 10083 20000 51009 (DM)","FM-15","7",,,,,,,,,,,,,,,,,,,,,,,,,,,"2009-05-01"
"74486094789","2018-01-21T01:00:00","FM-12","4",,"ESE","1.5","mi","TEMP, PRECIP, SNOW",,,"PSY, SRG, SNOWBOARD",,,"FAA CWO",,,,,,,,,,,,,,,,,,,,,,,,,,,,,"28","33",,,"-0.03","1","82","30.06",,"30.03","9.94","31","240",,"6",,,,,,,,,,,,,,,,,,,,,,,,,,,,,,,,,,,,,"SYN08074486 32966 22405 10006 21022 30168 40180 51009 90551 333 10083 21016 555 92106=","FM-12","4",,,,,,,,,,,,,,,,,,,,,,,,,,,"2009-05-01"
"74486094789","2018-01-21T01:51:00","FM-15","7",,"ESE","1.5","mi","TEMP, PRECIP, SNOW",,,"PSY, SRG, SNOWBOARD",,,"FAA CWO",,,,,,,,,,,,,,,,,,,,,,,,,,,,"30.08","28","32","0.00",,,,"85","30.07","FEW:02 250","30.06","10.00","31","240",,"7",,,,,,,,,,,,,,,,,,,,,,,,,,,,,,,,,,,,,"MET09901/21/18 01:51:02 METAR KJFK 210651Z 24006KT 10SM FEW250 00/M02 A3008 RMK AO2 SLP184 T00001022 (DM)","FM-15","7",,,,,,,,,,,,,,,,,,,,,,,,,,,"2009-05-01"
"74486094789","2018-01-21T02:51:00","FM-15","7",,"ESE","1.5","mi","TEMP, PRECIP, SNOW",,,"PSY, SRG, SNOWBOARD",,,"FAA CWO",,,,,,,,,,,,,,,,,,,,,,,,,,,,"30.09","29","35","0.00",,,,"78","30.09","FEW:02 250","30.06","10.00","33","260",,"7",,,,,,,,,,,,,,,,,,,,,,,,,,,,,,,,,,,,,"MET09901/21/18 02:51:02 METAR KJFK 210751Z 26006KT 10SM FEW250 02/M02 A3009 RMK AO2 SLP188 T00171017 (DM)","FM-15","7",,,,,,,,,,,,,,,,,,,,,,,,,,,"2009-05-01"
"74486094789","2018-01-21T03:51:00","FM-15","7",,"ESE","1.5","mi","TEMP, PRECIP, SNOW",,,"PSY, SRG, SNOWBOARD",,,"FAA CWO",,,,,,,,,,,,,,,,,,,,,,,,,,,,"30.09","28","32","0.00",,"-0.02","1","85","30.09","FEW:02 250","30.06","10.00","31","240",,"8",,,,,,,,,,,,,,,,,,,,,,,,,,,,,,,,,,,,,"MET10501/21/18 03:51:02 METAR KJFK 210851Z 24007KT 10SM FEW250 00/M02 A3009 RMK AO2 SLP188 T00001022 51008 (DM)","FM-15","7",,,,,,,,,,,,,,,,,,,,,,,,,,,"2009-05-01"
"74486094789","2018-01-21T04:00:00","FM-12","4",,"ESE","1.5","mi","TEMP, PRECIP, SNOW",,,"PSY, SRG, SNOWBOARD",,,"FAA CWO",,,,,,,,,,,,,,,,,,,,,,,,,,,,,"28","32",,,"-0.02","1","85","30.09",,"30.06","9.94","31","240",,"8",,,,,,,,,,,,,,,,,,,,,,,,,,,,,,,,,,,,,"SYN06474486 32966 22407 10000 21022 30178 40188 51008 90851 555 92109=","FM-12","4",,,,,,,,,,,,,,,,,,,,,,,,,,,"2009-05-01"
"74486094789","2018-01-21T04:51:00","FM-15","7",,"ESE","1.5","mi","TEMP, PRECIP, SNOW",,,"PSY, SRG, SNOWBOARD",,,"FAA CWO",,,,,,,,,,,,,,,,,,,,,,,,,,,,"30.10","29","37","0.00",,,,"73","30.10","CLR:00","30.08","10.00","34","260",,"8",,,,,,,,,,,,,,,,,,,,,,,,,,,,,,,,,,,,,"MET09601/21/18 04:51:02 METAR KJFK 210951Z 26007KT 10SM CLR 03/M02 A3010 RMK AO2 SLP194 T00281017 (DM)","FM-15","7",,,,,,,,,,,,,,,,,,,,,,,,,,,"2009-05-01"
"74486094789","2018-01-21T05:51:00","FM-15","7",,"ESE","1.5","mi","TEMP, PRECIP, SNOW",,,"PSY, SRG, SNOWBOARD",,,"FAA CWO",,,,,,,,,,,,,,,,,,,,,,,,,,,,"30.12","29","33","0.00",,,,"85","30.12","FEW:02 250","30.09","10.00","31","250",,"10",,,,,,,,,,,,,,,,,,,,,,,,,,,,,,,,,,,,,"MET09901/21/18 05:51:02 METAR KJFK 211051Z 25009KT 10SM FEW250 01/M02 A3012 RMK AO2 SLP200 T00061017 (DM)","FM-15","7",,,,,,,,,,,,,,,,,,,,,,,,,,,"2009-05-01"
"74486094789","2018-01-21T06:51:00","FM-15","7",,"ESE","1.5","mi","TEMP, PRECIP, SNOW",,,"PSY, SRG, SNOWBOARD",,,"FAA CWO",,,,,,,,,,,,,,,,,,,,,,,,,,,,"30.15","28","33","0.00",,"-0.06","3","82","30.15","FEW:02 250","30.12","10.00","31","250",,"8",,,,,,,,,,,,,,,,,,,,,,,,,,,,,,,,,,,,,"MET11701/21/18 06:51:02 METAR KJFK 211151Z 25007KT 10SM FEW250 01/M02 A3015 RMK AO2 SLP210 T00061022 10039 21011 53021 (ML)","FM-15","7",,,,,,,,,,,,,,,,,,,,,,,,,,,"2009-05-01"
"74486094789","2018-01-21T07:00:00","FM-12","4",,"ESE","1.5","mi","TEMP, PRECIP, SNOW",,,"PSY, SRG, SNOWBOARD",,,"FAA CWO",,,,,,,,,,,,,,,,,,,,,,,,,,,,,"28","33",,,"-0.06","3","82","30.15",,"30.12","9.94","31","250",,"8",,,,,,,,,,,,,,,,,,,,,,,,,,,,,,,,,,,,,"SYN08074486 32966 22507 10006 21022 30199 40210 53021 91151 333 10122 21011 555 92112=","FM-12","4",,,,,,,,,,,,,,,,,,,,,,,,,,,"2009-05-01"
"74486094789","2018-01-21T07:51:00","FM-15","7",,"ESE","1.5","mi","TEMP, PRECIP, SNOW",,,"PSY, SRG, SNOWBOARD",,,"FAA CWO",,,,,,,,,,,,,,,,,,,,,,,,,,,,"30.17","31","39","0.00",,,,"73","30.17","SCT:04 250","30.14","10.00","36","270",,"8",,,,,,,,,,,,,,,,,,,,,,,,,,,,,,,,,,,,,"MET09901/21/18 07:51:02 METAR KJFK 211251Z 27007KT 10SM SCT250 04/M01 A3017 RMK AO2 SLP216 T00391006 (ML)","FM-15","7",,,,,,,,,,,,,,,,,,,,,,,,,,,"2009-05-01"
"74486094789","2018-01-21T08:51:00","FM-15","7",,"ESE","1.5","mi","TEMP, PRECIP, SNOW",,,"PSY, SRG, SNOWBOARD",,,"FAA CWO",,,,,,,,,,,,,,,,,,,,,,,,,,,,"30.18","32","40","0.00",,,,"73","30.18","BKN:07 250","30.16","10.00","37","250",,"7",,,,,,,,,,,,,,,,,,,,,,,,,,,,,,,,,,,,,"MET09801/21/18 08:51:02 METAR KJFK 211351Z 25006KT 10SM BKN250 04/00 A3018 RMK AO2 SLP219 T00440000 (ML)","FM-15","7",,,,,,,,,,,,,,,,,,,,,,,,,,,"2009-05-01"
"74486094789","2018-01-21T09:51:00","FM-15","7",,"ESE","1.5","mi","TEMP, PRECIP, SNOW",,,"PSY, SRG, SNOWBOARD",,,"FAA CWO",,,,,,,,,,,,,,,,,,,,,,,,,,,,"30.19","31","47","0.00",,"-0.04","1","54","30.19","BKN:07 250","30.16","10.00","40","320",,"10",,,,,,,,,,,,,,,,,,,,,,,,,,,,,,,,,,,,,"MET10501/21/18 09:51:02 METAR KJFK 211451Z 32009KT 10SM BKN250 08/M01 A3019 RMK AO2 SLP224 T00831006 51014 (ML)","FM-15","7",,,,,,,,,,,,,,,,,,,,,,,,,,,"2009-05-01"
"74486094789","2018-01-21T10:00:00","FM-12","4",,"ESE","1.5","mi","TEMP, PRECIP, SNOW",,,"PSY, SRG, SNOWBOARD",,,"FAA CWO",,,,,,,,,,,,,,,,,,,,,,,,,,,,,"31","47",,,"-0.04","1","54","30.19",,"30.16","9.94","40","320",,"10",,,,,,,,,,,,,,,,,,,,,,,,,,,,,,,,,,,,,"SYN06474486 32966 63209 10083 21006 30212 40224 51014 91451 555 92115=","FM-12","4",,,,,,,,,,,,,,,,,,,,,,,,,,,"2009-05-01"
"74486094789","2018-01-21T10:51:00","FM-15","7",,"ESE","1.5","mi","TEMP, PRECIP, SNOW",,,"PSY, SRG, SNOWBOARD",,,"FAA CWO",,,,,,,,,,,,,,,,,,,,,,,,,,,,"30.19","29","48","0.00",,,,"48","30.19","BKN:07 250","30.16","10.00","40","340",,"9",,,,,,,,,,,,,,,,,,,,,,,,,,,,,,,,,,,,,"MET09901/21/18 10:51:02 METAR KJFK 211551Z 34008KT 10SM BKN250 09/M02 A3019 RMK AO2 SLP224 T00891017 (ML)","FM-15","7",,,,,,,,,,,,,,,,,,,,,,,,,,,"2009-05-01"
"74486094789","2018-01-21T11:51:00","FM-15","7",,"ESE","1.5","mi","TEMP, PRECIP, SNOW",,,"PSY, SRG, SNOWBOARD",,,"FAA CWO",,,,,,,,,,,,,,,,,,,,,,,,,,,,"30.18","29","48","0.00",,,,"48","30.18","FEW:02 200 BKN:07 250","30.16","10.00","40","310",,"7",,,,,,,,,,,,,,,,,,,,,,,,,,,,,,,,,,,,,"MET10601/21/18 11:51:02 METAR KJFK 211651Z 31006KT 10SM FEW200 BKN250 09/M02 A3018 RMK AO2 SLP220 T00891017 (ML)","FM-15","7",,,,,,,,,,,,,,,,,,,,,,,,,,,"2009-05-01"
"74486094789","2018-01-21T12:51:00","FM-15","7",,"ESE","1.5","mi","TEMP, PRECIP, SNOW",,,"PSY, SRG, SNOWBOARD",,,"FAA CWO",,,,,,,,,,,,,,,,,,,,,,,,,,,,"30.16","29","49","0.00",,"+0.04","8","46","30.16","FEW:02 200 BKN:07 250","30.14","10.00","41","300",,"6",,,,,,,,,,,,,,,,,,,,,,,,,,,,,,,,,,,,,"MET12401/21/18 12:51:02 METAR KJFK 211751Z 30005KT 10SM FEW200 BKN250 09/M02 A3016 RMK AO2 SLP212 T00941017 10100 20006 58012 (ML)","FM-15","7",,,,,,,,,,,,,,,,,,,,,,,,,,,"2009-05-01"
"74486094789","2018-01-21T13:00:00","FM-12","4",,"ESE","1.5","mi","TEMP, PRECIP, SNOW",,,"PSY, SRG, SNOWBOARD",,,"FAA CWO",,,,,,,,,,,,,,,,,,,,,,,,,,,,,"29","49",,,"+0.04","8","46","30.16",,"30.13","9.94","41","300",,"6",,,,,,,,,,,,,,,,,,,,,,,,,,,,,,,,,,,,,"SYN08074486 32966 63005 10094 21017 30202 40212 58012 91751 333 10100 20006 555 92118=","FM-12","4",,,,,,,,,,,,,,,,,,,,,,,,,,,"2009-05-01"
"74486094789","2018-01-21T13:51:00","FM-15","7",,"ESE","1.5","mi","TEMP, PRECIP, SNOW",,,"PSY, SRG, SNOWBOARD",,,"FAA CWO",,,,,,,,,,,,,,,,,,,,,,,,,,,,"30.15","30","50","0.00",,,,"46","30.14","FEW:02 200 BKN:07 250","30.12","10.00","41","260",,"8",,,,,,,,,,,,,,,,,,,,,,,,,,,,,,,,,,,,,"MET10601/21/18 13:51:02 METAR KJFK 211851Z 26007KT 10SM FEW200 BKN250 10/M01 A3015 RMK AO2 SLP208 T01001011 (ML)","FM-15","7",,,,,,,,,,,,,,,,,,,,,,,,,,,"2009-05-01"
"74486094789","2018-01-21T14:51:00","FM-15","7",,"ESE","1.5","mi","TEMP, PRECIP, SNOW",,,"PSY, SRG, SNOWBOARD",,,"FAA CWO",,,,,,,,,,,,,,,,,,,,,,,,,,,,"30.15","31","50","0.00",,,,"48","30.14","BKN:07 250","30.12","10.00","42","220",,"8",,,,,,,,,,,,,,,,,,,,,,,,,,,,,,,,,,,,,"MET11701/21/18 14:51:02 METAR KJFK 211951Z 22007KT 10SM R04R/5000VP6000FT BKN250 10/M01 A3015 RMK AO2 SLP208 T01001006 (RG)","FM-15","7",,,,,,,,,,,,,,,,,,,,,,,,,,,"2009-05-01"
"74486094789","2018-01-21T15:51:00","FM-15","7",,"ESE","1.5","mi","TEMP, PRECIP, SNOW",,,"PSY, SRG, SNOWBOARD",,,"FAA CWO",,,,,,,,,,,,,,,,,,,,,,,,,,,,"30.15","31","49","0.00",,"+0.01","5","50","30.15","SCT:04 65 BKN:07 250","30.12","10.00","41","210",,"7",,,,,,,,,,,,,,,,,,,,,,,,,,,,,,,,,,,,,"MET11201/21/18 15:51:02 METAR KJFK 212051Z 21006KT 10SM SCT065 BKN250 09/M01 A3015 RMK AO2 SLP209 T00941006 55002 (RG)","FM-15","7",,,,,,,,,,,,,,,,,,,,,,,,,,,"2009-05-01"
"74486094789","2018-01-21T16:00:00","FM-12","4",,"ESE","1.5","mi","TEMP, PRECIP, SNOW",,,"PSY, SRG, SNOWBOARD",,,"FAA CWO",,,,,,,,,,,,,,,,,,,,,,,,,,,,,"31","49",,,"+0.01","5","50","30.15","57","30.12","9.94","41","210",,"7",,,,,,,,,,,,,,,,,,,,,,,,,,,,,,,,,,,,,"SYN06474486 32766 62106 10094 21006 30199 40209 55002 92051 555 92121=","FM-12","4",,,,,,,,,,,,,,,,,,,,,,,,,,,"2009-05-01"
"74486094789","2018-01-21T16:51:00","FM-15","7",,"ESE","1.5","mi","TEMP, PRECIP, SNOW",,,"PSY, SRG, SNOWBOARD",,,"FAA CWO",,,,,,,,,,,,,,,,,,,,,,,,,,,,"30.16","32","45","0.00",,,,"61","30.16","FEW:02 65 BKN:07 250","30.14","10.00","40","200",,"5",,,,,,,,,,,,,,,,,,,,,,,,,,,,,,,,,,,,,"MET10501/21/18 16:51:02 METAR KJFK 212151Z 20004KT 10SM FEW065 BKN250 07/00 A3016 RMK AO2 SLP212 T00720000 (RG)","FM-15","7",,,,,,,,,,,,,,,,,,,,,,,,,,,"2009-05-01"
"74486094789","2018-01-21T17:51:00","FM-15","7",,"ESE","1.5","mi","TEMP, PRECIP, SNOW",,,"PSY, SRG, SNOWBOARD",,,"FAA CWO",,,,,,,,,,,,,,,,,,,,,,,,,,,,"30.18","33","41","0.00",,,,"73","30.18","BKN:07 42 BKN:07 250","30.16","10.00","38","180",,"7",,,,,,,,,,,,,,,,,,,,,,,,,,,,,,,,,,,,,"MET10501/21/18 17:51:02 METAR KJFK 212251Z 18006KT 10SM BKN042 BKN250 05/01 A3018 RMK AO2 SLP220 T00500006 (RG)","FM-15","7",,,,,,,,,,,,,,,,,,,,,,,,,,,"2009-05-01"
"74486094789","2018-01-21T18:51:00","FM-15","7",,"ESE","1.5","mi","TEMP, PRECIP, SNOW",,,"PSY, SRG, SNOWBOARD",,,"FAA CWO",,,,,,,,,,,,,,,,,,,,,,,,,,,,"30.18","34","42","0.00",,"-0.03","1","73","30.18","BKN:07 42 OVC:08 55","30.16","10.00","39","190",,"10",,,,,,,,,,,,,,,,,,,,,,,,,,,,,,,,,,,,,"MET12301/21/18 18:51:02 METAR KJFK 212351Z 19009KT 10SM BKN042 OVC055 06/01 A3018 RMK AO2 SLP220 T00560011 10106 20050 51011 (RG)","FM-15","7",,,,,,,,,,,,,,,,,,,,,,,,,,,"2009-05-01"
"74486094789","2018-01-21T19:00:00","FM-12","4",,"ESE","1.5","mi","TEMP, PRECIP, SNOW",,,"PSY, SRG, SNOWBOARD",,,"FAA CWO",,,,,,,,,,,,,,,,,,,,,,,,,,,,,"34","42",,,"-0.03","1","73","30.18","41","30.15","9.94","39","190",,"10",,,,,,,,,,,,,,,,,,,,,,,,,,,,,,,,,,,,,"SYN08074486 32666 81909 10056 20011 30209 40220 51011 92351 333 10106 21010 555 92200=","FM-12","4",,,,,,,,,,,,,,,,,,,,,,,,,,,"2009-05-01"
"74486094789","2018-01-21T19:51:00","FM-15","7",,"ESE","1.5","mi","TEMP, PRECIP, SNOW",,,"PSY, SRG, SNOWBOARD",,,"FAA CWO",,,,,,,,,,,,,,,,,,,,,,,,,,,,"30.20","35","42","0.00",,,,"76","30.19","OVC:08 33","30.17","10.00","39","210",,"3",,,,,,,,,,,,,,,,,,,,,,,,,,,,,,,,,,,,,"MET09301/21/18 19:51:01 METAR KJFK 220051Z 21003KT 10SM OVC033 06/02 A3020 RMK AO2 SLP225 T00560017","FM-15","7",,,,,,,,,,,,,,,,,,,,,,,,,,,"2009-05-01"
"74486094789","2018-01-21T20:51:00","FM-15","7",,"ESE","1.5","mi","TEMP, PRECIP, SNOW",,,"PSY, SRG, SNOWBOARD",,,"FAA CWO",,,,,,,,,,,,,,,,,,,,,,,,,,,,"30.20","34","42","0.00",,,,"73","30.20","OVC:08 35","30.17","10.00","39","200",,"5",,,,,,,,,,,,,,,,,,,,,,,,,,,,,,,,,,,,,"MET09301/21/18 20:51:01 METAR KJFK 220151Z 20004KT 10SM OVC035 06/01 A3020 RMK AO2 SLP227 T00560011","FM-15","7",,,,,,,,,,,,,,,,,,,,,,,,,,,"2009-05-01"
"74486094789","2018-01-21T21:51:00","FM-15","7",,"ESE","1.5","mi","TEMP, PRECIP, SNOW",,,"PSY, SRG, SNOWBOARD",,,"FAA CWO",,,,,,,,,,,,,,,,,,,,,,,,,,,,"30.20","37","42","0.00",,"-0.01","0","82","30.19","OVC:08 38","30.17","10.00","40","190",,"5",,,,,,,,,,,,,,,,,,,,,,,,,,,,,,,,,,,,,"MET09901/21/18 21:51:01 METAR KJFK 220251Z 19004KT 10SM OVC038 06/03 A3020 RMK AO2 SLP225 T00560028 50004","FM-15","7",,,,,,,,,,,,,,,,,,,,,,,,,,,"2009-05-01"
"74486094789","2018-01-21T22:00:00","FM-12","4",,"ESE","1.5","mi","TEMP, PRECIP, SNOW",,,"PSY, SRG, SNOWBOARD",,,"FAA CWO",,,,,,,,,,,,,,,,,,,,,,,,,,,,,"37","42",,,"0.01","9","82","30.19","41","30.16","9.94","40","190",,"5",,,,,,,,,,,,,,,,,,,,,,,,,,,,,,,,,,,,,"SYN06474486 32666 81904 10056 20028 30215 40225 50004 90251 555 92203=","FM-12","4",,,,,,,,,,,,,,,,,,,,,,,,,,,"2009-05-01"
"74486094789","2018-01-21T22:51:00","FM-15","7",,"ESE","1.5","mi","TEMP, PRECIP, SNOW",,,"PSY, SRG, SNOWBOARD",,,"FAA CWO",,,,,,,,,,,,,,,,,,,,,,,,,,,,"30.19","38","42","0.00",,,,"85","30.18","OVC:08 40","30.16","10.00","40","190",,"5",,,,,,,,,,,,,,,,,,,,,,,,,,,,,,,,,,,,,"MET09301/21/18 22:51:02 METAR KJFK 220351Z 19004KT 10SM OVC040 06/03 A3019 RMK AO2 SLP221 T00560033","FM-15","7",,,,,,,,,,,,,,,,,,,,,,,,,,,"2009-05-01"
"74486094789","2018-01-21T23:51:00","FM-15","7",,"ESE","1.5","mi","TEMP, PRECIP, SNOW",,,"PSY, SRG, SNOWBOARD",,,"FAA CWO",,,,,,,,,,,,,,,,,,,,,,,,,,,,"30.17","38","43","T",,,,"82","30.17","OVC:08 44","30.14","10.00","41","000",,"0",,,,,,,,,,,,,,,,,,,,,,,,,,,,,,,,,,,,,"MET10301/21/18 23:51:02 METAR KJFK 220451Z 00000KT 10SM OVC044 06/03 A3017 RMK AO2 SLP217 T00610033 401061011","FM-15","7",,,,,,,,,,,,,,,,,,,,,,,,,,,"2009-05-01"
"74486094789","2018-01-21T23:59:00","SOD  ","6",,"ESE","1.5","mi","TEMP, PRECIP, SNOW",,,"PSY, SRG, SNOWBOARD",,,"FAA CWO",,,,,,"31","41","69","30.15","30.11","37","6.8","0","8.7","24","51","30","330","17","0.00","0","0.0","340","14",,,,,,,,,,,,,,,,,,,,,,,,,,,,,,,,,,,,,,,,,,,,,,,,,,,,,,,,"SOD73624 HR PRECIPITATION (IN):    T SNOW DEPTH (IN):0     24 HR SNOWFALL (IN):0.0  24 HR MAX TEMP (F): 5124 HR MIN TEMP (F): 30AVERAGE STATION PRESSURE:30.110 MINIMUM SEA LEVEL PRESSURE:30.06 TIME OF OCCURRENCE:0126 PEAK WIND SPEED (MPH): 17 PEAK WIND DIR (DEG):330 PEAK WIND TIME (LST):      FASTEST 2MIN SPEED (MPH): 14FASTEST 2MIN DIR (DEG):340 FASTEST 2MIN TIME (LST):     AVERAGE WIND SPEED (MPH): 6.8 24 HR AVG TEMP (F): 41DEPART FROM NORMAL:  9  HEATING DEGREE DAYS: 24 COOLING DEGREE DAYS:  0 LATEST DAY MAX TEMP (0700-1900 LST):51  LATEST NIGHT MIN TEMP(1900-0800 LST):30 HOURLY INCREMENTAL PRECIPITATION VALUES (IN):.00 0.00 0.00 0.00 0.00 0.00 0.00 0.00 0.00 0.00 0.00 0.00 0.00 0.00 0.00 0.00 0.00 0.00 0.00 0.00 0.00 0.00 0.00 T","SOD  ","6",,,,,,,,,,,,,,,,,,,,,,,,,"0714","1659","2009-05-01"
"74486094789","2018-01-22T00:51:00","FM-15","7",,"ESE","1.5","mi","TEMP, PRECIP, SNOW",,,"PSY, SRG, SNOWBOARD",,,"FAA CWO",,,,,,,,,,,,,,,,,,,,,,,,,,,,"30.16","38","44","T",,"+0.03","7","79","30.16","OVC:08 50","30.14","10.00","41","090",,"6",,,,,,,,,,,,,,,,,,,,,,,,,,,,,,,,,,,,,"MET13901/22/18 00:51:02 METAR KJFK 220551Z 09005KT 10SM OVC050 07/03 A3016 RMK AO2 RAB0457E07 SLP214 P0000 60000 T00670033 10067 20050 57011 (JC)","FM-15","7",,,,,,,,,,,,,,,,,,,,,,,,,,,"2009-05-01"
"74486094789","2018-01-22T01:00:00","FM-12","4",,"ESE","1.5","mi","TEMP, PRECIP, SNOW",,,"PSY, SRG, SNOWBOARD",,,"FAA CWO",,,,,,,,,,,,,,,,,,,,,,,,,,,,,"38","44",,,"+0.03","7","79","30.16","57","30.13","9.94","41","090",,"6",,,,,,,,,,,,,,,,,,,,,,,,,,,,,,,,,,,,,"SYN08674486 12766 80905 10067 20033 30202 40214 57011 69901 90551 333 10067 21010 555 92206=","FM-12","4",,,,,,,,,,,,,,,,,,,,,,,,,,,"2009-05-01"
"74486094789","2018-01-22T01:51:00","FM-15","7",,"ESE","1.5","mi","TEMP, PRECIP, SNOW",,,"PSY, SRG, SNOWBOARD",,,"FAA CWO",,,,,,,,,,,,,,,,,,,,,,,,,,,,"30.16","40","42","T","-RA:02 |RA |",,,"92","30.16","OVC:08 50","30.14","9.00","41","100",,"6",,,,,,,,,,,,,,,,,,,,,,,,,,,,,,,,,,,,,"MET11501/22/18 01:51:02 METAR KJFK 220651Z 10005KT 9SM -RA OVC050 06/04 A3016 RMK AO2 RAB0554 SLP212 P0000 T00560044 (JC)","FM-15","7",,,,,,,,,,,,,,,,,,,,,,,,,,,"2009-05-01"
"74486094789","2018-01-22T02:51:00","FM-15","7",,"ESE","1.5","mi","TEMP, PRECIP, SNOW",,,"PSY, SRG, SNOWBOARD",,,"FAA CWO",,,,,,,,,,,,,,,,,,,,,,,,,,,,"30.16","40","42","T",,,,"92","30.16","OVC:08 55","30.14","10.00","41","110",,"3",,,,,,,,,,,,,,,,,,,,,,,,,,,,,,,,,,,,,"MET11601/22/18 02:51:02 METAR KJFK 220751Z 11003KT 10SM OVC055 06/04 A3016 RMK AO2 RAE00B18E37 SLP213 P0000 T00560044 (JC)","FM-15","7",,,,,,,,,,,,,,,,,,,,,,,,,,,"2009-05-01"
"74486094789","2018-01-22T03:51:00","FM-15","7",,"ESE","1.5","mi","TEMP, PRECIP, SNOW",,,"PSY, SRG, SNOWBOARD",,,"FAA CWO",,,,,,,,,,,,,,,,,,,,,,,,,,,,"30.15","39","41","T",,"+0.01","8","93","30.15","OVC:08 55","30.12","10.00","40","110",,"5",,,,,,,,,,,,,,,,,,,,,,,,,,,,,,,,,,,,,"MET12501/22/18 03:51:02 METAR KJFK 220851Z 11004KT 10SM OVC055 05/04 A3015 RMK AO2 RAB10E45 SLP209 P0000 60000 T00500039 58005 (JC)","FM-15","7",,,,,,,,,,,,,,,,,,,,,,,,,,,"2009-05-01"
"74486094789","2018-01-22T04:00:00","FM-12","4",,"ESE","1.5","mi","TEMP, PRECIP, SNOW",,,"PSY, SRG, SNOWBOARD",,,"FAA CWO",,,,,,,,,,,,,,,,,,,,,,,,,,,,,"39","41",,,"+0.01","8","93","30.15","57","30.12","9.94","40","110",,"5",,,,,,,,,,,,,,,,,,,,,,,,,,,,,,,,,,,,,"SYN07074486 12766 81104 10050 20039 30199 40209 58005 69907 90851 555 92209=","FM-12","4",,,,,,,,,,,,,,,,,,,,,,,,,,,"2009-05-01"
"74486094789","2018-01-22T04:51:00","FM-15","7",,"ESE","1.5","mi","TEMP, PRECIP, SNOW",,,"PSY, SRG, SNOWBOARD",,,"FAA CWO",,,,,,,,,,,,,,,,,,,,,,,,,,,,"30.15","40","41","T",,,,"96","30.15","OVC:08 60","30.12","10.00","41","000",,"0",,,,,,,,,,,,,,,,,,,,,,,,,,,,,,,,,,,,,"MET11301/22/18 04:51:02 METAR KJFK 220951Z 00000KT 10SM OVC060 05/04 A3015 RMK AO2 RAB04E22 SLP209 P0000 T00500044 (JC)","FM-15","7",,,,,,,,,,,,,,,,,,,,,,,,,,,"2009-05-01"
"74486094789","2018-01-22T05:51:00","FM-15","7",,"ESE","1.5","mi","TEMP, PRECIP, SNOW",,,"PSY, SRG, SNOWBOARD",,,"FAA CWO",,,,,,,,,,,,,,,,,,,,,,,,,,,,"30.16","39","40","0.00",,,,"97","30.16","SCT:04 50 OVC:08 100","30.14","10.00","40","200",,"3",,,,,,,,,,,,,,,,,,,,,,,,,,,,,,,,,,,,,"MET10501/22/18 05:51:02 METAR KJFK 221051Z 20003KT 10SM SCT050 OVC100 04/04 A3016 RMK AO2 SLP212 T00440039 (JC)","FM-15","7",,,,,,,,,,,,,,,,,,,,,,,,,,,"2009-05-01"
"74486094789","2018-01-22T06:51:00","FM-15","7",,"ESE","1.5","mi","TEMP, PRECIP, SNOW",,,"PSY, SRG, SNOWBOARD",,,"FAA CWO",,,,,,,,,,,,,,,,,,,,,,,,,,,,"30.16","39","40","T",,"-0.01","3","97","30.16","SCT:04 55 OVC:08 95","30.14","10.00","40","190",,"3",,,,,,,,,,,,,,,,,,,,,,,,,,,,,,,,,,,,,"MET14401/22/18 06:51:02 METAR KJFK 221151Z 19003KT 10SM SCT055 OVC095 04/04 A3016 RMK AO2 RAB08E19 SLP214 P0000 60000 T00440039 10067 20044 53005 (BH)","FM-15","7",,,,,,,,,,,,,,,,,,,,,,,,,,,"2009-05-01"
"74486094789","2018-01-22T07:00:00","FM-12","4",,"ESE","1.5","mi","TEMP, PRECIP, SNOW",,,"PSY, SRG, SNOWBOARD",,,"FAA CWO",,,,,,,,,,,,,,,,,,,,,,,,,,,,,"39","40",,,"-0.01","3","97","30.16","57","30.13","9.94","40","190",,"3",,,,,,,,,,,,,,,,,,,,,,,,,,,,,,,,,,,,,"SYN08674486 12766 81903 10044 20039 30202 40214 53005 69901 91151 333 10106 20044 555 92212=","FM-12","4",,,,,,,,,,,,,,,,,,,,,,,,,,,"2009-05-01"
"74486094789","2018-01-22T07:51:00","FM-15","7",,"ESE","1.5","mi","TEMP, PRECIP, SNOW",,,"PSY, SRG, SNOWBOARD",,,"FAA CWO",,,,,,,,,,,,,,,,,,,,,,,,,,,,"30.19","39","41","0.00",,,,"93","30.19","FEW:02 55 SCT:04 80 OVC:08 100","30.16","10.00","40","270",,"3",,,,,,,,,,,,,,,,,,,,,,,,,,,,,,,,,,,,,"MET11201/22/18 07:51:02 METAR KJFK 221251Z 27003KT 10SM FEW055 SCT080 OVC100 05/04 A3019 RMK AO2 SLP222 T00500039 (BH)","FM-15","7",,,,,,,,,,,,,,,,,,,,,,,,,,,"2009-05-01"
"74486094789","2018-01-22T08:51:00","FM-15","7",,"ESE","1.5","mi","TEMP, PRECIP, SNOW",,,"PSY, SRG, SNOWBOARD",,,"FAA CWO",,,,,,,,,,,,,,,,,,,,,,,,,,,,"30.20","39","43","0.00",,,,"86","30.19","FEW:02 75 OVC:08 100","30.17","10.00","41","000",,"0",,,,,,,,,,,,,,,,,,,,,,,,,,,,,,,,,,,,,"MET10501/22/18 08:51:02 METAR KJFK 221351Z 00000KT 10SM FEW075 OVC100 06/04 A3020 RMK AO2 SLP225 T00610039 (BH)","FM-15","7",,,,,,,,,,,,,,,,,,,,,,,,,,,"2009-05-01"
"74486094789","2018-01-22T09:51:00","FM-15","7",,"ESE","1.5","mi","TEMP, PRECIP, SNOW",,,"PSY, SRG, SNOWBOARD",,,"FAA CWO",,,,,,,,,,,,,,,,,,,,,,,,,,,,"30.21","40","45","0.00",,"-0.05","1","83","30.21","FEW:02 70 BKN:07 100","30.19","10.00","43","000",,"0",,,,,,,,,,,,,,,,,,,,,,,,,,,,,,,,,,,,,"MET11101/22/18 09:51:02 METAR KJFK 221451Z 00000KT 10SM FEW070 BKN100 07/04 A3021 RMK AO2 SLP230 T00720044 51016 (BH)","FM-15","7",,,,,,,,,,,,,,,,,,,,,,,,,,,"2009-05-01"
"74486094789","2018-01-22T10:00:00","FM-12","4",,"ESE","1.5","mi","TEMP, PRECIP, SNOW",,,"PSY, SRG, SNOWBOARD",,,"FAA CWO",,,,,,,,,,,,,,,,,,,,,,,,,,,,,"40","45",,,"-0.05","1","83","30.21","74","30.18","9.94","43","000",,"0",,,,,,,,,,,,,,,,,,,,,,,,,,,,,,,,,,,,,"SYN06474486 32866 60000 10072 20044 30219 40230 51016 91451 555 92215=","FM-12","4",,,,,,,,,,,,,,,,,,,,,,,,,,,"2009-05-01"
"74486094789","2018-01-22T10:51:00","FM-15","7",,"ESE","1.5","mi","TEMP, PRECIP, SNOW",,,"PSY, SRG, SNOWBOARD",,,"FAA CWO",,,,,,,,,,,,,,,,,,,,,,,,,,,,"30.21","41","47","0.00",,,,"80","30.21","OVC:08 100","30.19","9.00","44","030",,"3",,,,,,,,,,,,,,,,,,,,,,,,,,,,,,,,,,,,,"MET09701/22/18 10:51:02 METAR KJFK 221551Z 03003KT 9SM OVC100 08/05 A3021 RMK AO2 SLP229 T00830050 (BH)","FM-15","7",,,,,,,,,,,,,,,,,,,,,,,,,,,"2009-05-01"
"74486094789","2018-01-22T11:51:00","FM-15","7",,"ESE","1.5","mi","TEMP, PRECIP, SNOW",,,"PSY, SRG, SNOWBOARD",,,"FAA CWO",,,,,,,,,,,,,,,,,,,,,,,,,,,,"30.18","41","49","0.00",,,,"74","30.18","SCT:04 100 BKN:07 280","30.16","8.00","45","020",,"3",,,,,,,,,,,,,,,,,,,,,,,,,,,,,,,,,,,,,"MET10401/22/18 11:51:02 METAR KJFK 221651Z 02003KT 8SM SCT100 BKN280 09/05 A3018 RMK AO2 SLP221 T00940050 (BH)","FM-15","7",,,,,,,,,,,,,,,,,,,,,,,,,,,"2009-05-01"
"74486094789","2018-01-22T12:51:00","FM-15","7",,"ESE","1.5","mi","TEMP, PRECIP, SNOW",,,"PSY, SRG, SNOWBOARD",,,"FAA CWO",,,,,,,,,,,,,,,,,,,,,,,,,,,,"30.17","41","51","0.00",,"+0.04","8","69","30.16","SCT:04 49 BKN:07 120 OVC:08 280","30.14","9.00","46","140",,"3",,,,,,,,,,,,,,,,,,,,,,,,,,,,,,,,,,,,,"MET12901/22/18 12:51:02 METAR KJFK 221751Z 14003KT 9SM SCT049 BKN120 OVC280 11/05 A3017 RMK AO2 SLP215 T01060050 10106 20044 58015 (BH)","FM-15","7",,,,,,,,,,,,,,,,,,,,,,,,,,,"2009-05-01"
"74486094789","2018-01-22T13:00:00","FM-12","4",,"ESE","1.5","mi","TEMP, PRECIP, SNOW",,,"PSY, SRG, SNOWBOARD",,,"FAA CWO",,,,,,,,,,,,,,,,,,,,,,,,,,,,,"41","51",,,"+0.04","8","69","30.16","41","30.14","8.70","46","140",,"3",,,,,,,,,,,,,,,,,,,,,,,,,,,,,,,,,,,,,"SYN08074486 32664 81403 10106 20050 30205 40215 58015 91751 333 10106 20044 555 92218=","FM-12","4",,,,,,,,,,,,,,,,,,,,,,,,,,,"2009-05-01"
"74486094789","2018-01-22T13:51:00","FM-15","7",,"ESE","1.5","mi","TEMP, PRECIP, SNOW",,,"PSY, SRG, SNOWBOARD",,,"FAA CWO",,,,,,,,,,,,,,,,,,,,,,,,,,,,"30.14","41","51","0.00",,,,"69","30.14","BKN:07 48 BKN:07 120 OVC:08 260","30.11","10.00","46","060",,"6",,,,,,,,,,,,,,,,,,,,,,,,,,,,,,,,,,,,,"MET11201/22/18 13:51:02 METAR KJFK 221851Z 06005KT 10SM BKN048 BKN120 OVC260 11/05 A3014 RMK AO2 SLP207 T01060050 (BH)","FM-15","7",,,,,,,,,,,,,,,,,,,,,,,,,,,"2009-05-01"
"74486094789","2018-01-22T14:51:00","FM-15","7",,"ESE","1.5","mi","TEMP, PRECIP, SNOW",,,"PSY, SRG, SNOWBOARD",,,"FAA CWO",,,,,,,,,,,,,,,,,,,,,,,,,,,,"30.13","42","51","0.00",,,,"71","30.13","FEW:02 55 SCT:04 70 BKN:07 100","30.11","9.00","47","080",,"7",,,,,,,,,,,,,,,,,,,,,,,,,,,,,,,,,,,,,"MET11101/22/18 14:51:02 METAR KJFK 221951Z 08006KT 9SM FEW055 SCT070 BKN100 11/06 A3013 RMK AO2 SLP202 T01060056 (RR)","FM-15","7",,,,,,,,,,,,,,,,,,,,,,,,,,,"2009-05-01"
"74486094789","2018-01-22T15:51:00","FM-15","7",,"ESE","1.5","mi","TEMP, PRECIP, SNOW",,,"PSY, SRG, SNOWBOARD",,,"FAA CWO",,,,,,,,,,,,,,,,,,,,,,,,,,,,"30.14","42","48","0.00",,"+0.03","5","80","30.14","FEW:02 55 BKN:07 100 OVC:08 250","30.11","9.00","45","110",,"8",,,,,,,,,,,,,,,,,,,,,,,,,,,,,,,,,,,,,"MET11701/22/18 15:51:02 METAR KJFK 222051Z 11007KT 9SM FEW055 BKN100 OVC250 09/06 A3014 RMK AO2 SLP206 T00890056 55009 (RR)","FM-15","7",,,,,,,,,,,,,,,,,,,,,,,,,,,"2009-05-01"
"74486094789","2018-01-22T16:00:00","FM-12","4",,"ESE","1.5","mi","TEMP, PRECIP, SNOW",,,"PSY, SRG, SNOWBOARD",,,"FAA CWO",,,,,,,,,,,,,,,,,,,,,,,,,,,,,"42","48",,,"+0.03","5","80","30.14","57","30.11","8.70","45","110",,"8",,,,,,,,,,,,,,,,,,,,,,,,,,,,,,,,,,,,,"SYN06474486 32764 81107 10089 20056 30195 40206 55009 92051 555 92221=","FM-12","4",,,,,,,,,,,,,,,,,,,,,,,,,,,"2009-05-01"
"74486094789","2018-01-22T16:51:00","FM-15","7",,"ESE","1.5","mi","TEMP, PRECIP, SNOW",,,"PSY, SRG, SNOWBOARD",,,"FAA CWO",,,,,,,,,,,,,,,,,,,,,,,,,,,,"30.15","40","45","0.00",,,,"83","30.15","FEW:02 55 BKN:07 100 BKN:07 120","30.12","9.00","43","100",,"9",,,,,,,,,,,,,,,,,,,,,,,,,,,,,,,,,,,,,"MET11101/22/18 16:51:02 METAR KJFK 222151Z 10008KT 9SM FEW055 BKN100 BKN120 07/04 A3015 RMK AO2 SLP210 T00720044 (RR)","FM-15","7",,,,,,,,,,,,,,,,,,,,,,,,,,,"2009-05-01"
"74486094789","2018-01-22T17:51:00","FM-15","7",,"ESE","1.5","mi","TEMP, PRECIP, SNOW",,,"PSY, SRG, SNOWBOARD",,,"FAA CWO",,,,,,,,,,,,,,,,,,,,,,,,,,,,"30.15","41","45","0.00",,,,"86","30.15","FEW:02 50 BKN:07 90 OVC:08 110","30.12","10.00","43","090",,"11",,,,,,,,,,,,,,,,,,,,,,,,,,,,,,,,,,,,,"MET11201/22/18 17:51:02 METAR KJFK 222251Z 09010KT 10SM FEW050 BKN090 OVC110 07/05 A3015 RMK AO2 SLP210 T00720050 (RR)","FM-15","7",,,,,,,,,,,,,,,,,,,,,,,,,,,"2009-05-01"
"74486094789","2018-01-22T18:51:00","FM-15","7",,"ESE","1.5","mi","TEMP, PRECIP, SNOW",,,"PSY, SRG, SNOWBOARD",,,"FAA CWO",,,,,,,,,,,,,,,,,,,,,,,,,,,,"30.15","42","43","0.00",,"-0.01","0","97","30.14","FEW:02 10 FEW:02 37 BKN:07 110","30.12","9.00","43","060",,"9",,,,,,,,,,,,,,,,,,,,,,,,,,,,,,,,,,,,,"MET12901/22/18 18:51:02 METAR KJFK 222351Z 06008KT 9SM FEW010 FEW037 BKN110 06/06 A3015 RMK AO2 SLP208 T00610056 10111 20061 50003 (RR)","FM-15","7",,,,,,,,,,,,,,,,,,,,,,,,,,,"2009-05-01"
"74486094789","2018-01-22T19:00:00","FM-12","4",,"ESE","1.5","mi","TEMP, PRECIP, SNOW",,,"PSY, SRG, SNOWBOARD",,,"FAA CWO",,,,,,,,,,,,,,,,,,,,,,,,,,,,,"42","43",,,"0.01","9","97","30.14","15","30.12","8.70","43","060",,"9",,,,,,,,,,,,,,,,,,,,,,,,,,,,,,,,,,,,,"SYN08074486 32464 80608 10061 20056 30199 40208 50003 92351 333 10111 20044 555 92300=","FM-12","4",,,,,,,,,,,,,,,,,,,,,,,,,,,"2009-05-01"
"74486094789","2018-01-22T19:16:00","FM-16","7",,"ESE","1.5","mi","TEMP, PRECIP, SNOW",,,"PSY, SRG, SNOWBOARD",,,"FAA CWO",,,,,,,,,,,,,,,,,,,,,,,,,,,,"30.15","41","42",,,,,"96",,"FEW:02 6 FEW:02 37 OVC:08 100","30.12","9.00","42","060",,"10",,,,,,,,,,,,,,,,,,,,,,,,,,,,,,,,,,,,,"MET09901/22/18 19:16:01 SPECI KJFK 230016Z 06009KT 9SM FEW006 FEW037 OVC100 06/05 A3015 RMK AO2 T00560050","FM-16","7",,,,,,,,,,,,,,,,,,,,,,,,,,,"2009-05-01"
"74486094789","2018-01-22T19:45:00","FM-16","7",,"ESE","1.5","mi","TEMP, PRECIP, SNOW",,,"PSY, SRG, SNOWBOARD",,,"FAA CWO",,,,,,,,,,,,,,,,,,,,,,,,,,,,"30.14","43","43",,,,,"100",,"BKN:07 6 BKN:07 100 OVC:08 240","30.11","8.00","43","070",,"8",,,,,,,,,,,,,,,,,,,,,,,,,,,,,,,,,,,,,"MET10201/22/18 19:45:01 SPECI KJFK 230045Z 07007KT 8SM BKN006 BKN100 OVC240 06/06 A3014 RMK AO2 BKN006 V SCT","FM-16","7",,,,,,,,,,,,,,,,,,,,,,,,,,,"2009-05-01"
"74486094789","2018-01-22T19:51:00","FM-15","7",,"ESE","1.5","mi","TEMP, PRECIP, SNOW",,,"PSY, SRG, SNOWBOARD",,,"FAA CWO",,,,,,,,,,,,,,,,,,,,,,,,,,,,"30.14","42","42","0.00",,,,"100","30.14","SCT:04 6 BKN:07 100 OVC:08 240","30.11","8.00","42","060",,"8",,,,,,,,,,,,,,,,,,,,,,,,,,,,,,,,,,,,,"MET10601/22/18 19:51:01 METAR KJFK 230051Z 06007KT 8SM SCT006 BKN100 OVC240 06/06 A3014 RMK AO2 SLP207 T00560056","FM-15","7",,,,,,,,,,,,,,,,,,,,,,,,,,,"2009-05-01"
"74486094789","2018-01-22T20:34:00","FM-16","7",,"ESE","1.5","mi","TEMP, PRECIP, SNOW",,,"PSY, SRG, SNOWBOARD",,,"FAA CWO",,,,,,,,,,,,,,,,,,,,,,,,,,,,"30.14","42","42",,,,,"100",,"BKN:07 7 BKN:07 100 OVC:08 240","30.11","8.00","42","050",,"8",,,,,,,,,,,,,,,,,,,,,,,,,,,,,,,,,,,,,"MET09901/22/18 20:34:01 SPECI KJFK 230134Z 05007KT 8SM BKN007 BKN100 OVC240 06/06 A3014 RMK AO2 T00560056","FM-16","7",,,,,,,,,,,,,,,,,,,,,,,,,,,"2009-05-01"
"74486094789","2018-01-22T20:51:00","FM-15","7",,"ESE","1.5","mi","TEMP, PRECIP, SNOW",,,"PSY, SRG, SNOWBOARD",,,"FAA CWO",,,,,,,,,,,,,,,,,,,,,,,,,,,,"30.13","39","42","0.00",,,,"89","30.13","BKN:07 7 BKN:07 100 OVC:08 240","30.11","7.00","41","020",,"8",,,,,,,,,,,,,,,,,,,,,,,,,,,,,,,,,,,,,"MET10601/22/18 20:51:01 METAR KJFK 230151Z 02007KT 7SM BKN007 BKN100 OVC240 06/04 A3013 RMK AO2 SLP203 T00560039","FM-15","7",,,,,,,,,,,,,,,,,,,,,,,,,,,"2009-05-01"
"74486094789","2018-01-22T21:51:00","FM-15","7",,"ESE","1.5","mi","TEMP, PRECIP, SNOW",,,"PSY, SRG, SNOWBOARD",,,"FAA CWO",,,,,,,,,,,,,,,,,,,,,,,,,,,,"30.11","40","42","0.00",,"+0.04","8","92","30.10","OVC:08 5","30.09","7.00","41","060",,"6",,,,,,,,,,,,,,,,,,,,,,,,,,,,,,,,,,,,,"MET09801/22/18 21:51:01 METAR KJFK 230251Z 06005KT 7SM OVC005 06/04 A3011 RMK AO2 SLP194 T00560044 58013","FM-15","7",,,,,,,,,,,,,,,,,,,,,,,,,,,"2009-05-01"
"74486094789","2018-01-22T22:00:00","FM-12","4",,"ESE","1.5","mi","TEMP, PRECIP, SNOW",,,"PSY, SRG, SNOWBOARD",,,"FAA CWO",,,,,,,,,,,,,,,,,,,,,,,,,,,,,"40","42",,,"+0.04","8","92","30.10","5","30.08","6.84","41","060",,"6",,,,,,,,,,,,,,,,,,,,,,,,,,,,,,,,,,,,,"SYN06474486 32261 80605 10056 20044 30185 40194 58013 90251 555 92303=","FM-12","4",,,,,,,,,,,,,,,,,,,,,,,,,,,"2009-05-01"
"74486094789","2018-01-22T22:30:00","FM-16","7",,"ESE","1.5","mi","TEMP, PRECIP, SNOW",,,"PSY, SRG, SNOWBOARD",,,"FAA CWO",,,,,,,,,,,,,,,,,,,,,,,,,,,,"30.09","42","43",,"BR:1 ||",,,"97",,"OVC:08 4","30.06","5.00","43","060",,"6",,,,,,,,,,,,,,,,,,,,,,,,,,,,,,,,,,,,,"MET08801/22/18 22:30:02 SPECI KJFK 230330Z 06005KT 5SM BR OVC004 06/06 A3009 RMK AO2 T00610056","FM-16","7",,,,,,,,,,,,,,,,,,,,,,,,,,,"2009-05-01"
"74486094789","2018-01-22T22:51:00","FM-15","7",,"ESE","1.5","mi","TEMP, PRECIP, SNOW",,,"PSY, SRG, SNOWBOARD",,,"FAA CWO",,,,,,,,,,,,,,,,,,,,,,,,,,,,"30.08","42","43","0.00","BR:1 ||",,,"97","30.08","OVC:08 4","30.06","5.00","43","060",,"6",,,,,,,,,,,,,,,,,,,,,,,,,,,,,,,,,,,,,"MET09501/22/18 22:51:02 METAR KJFK 230351Z 06005KT 5SM BR OVC004 06/06 A3008 RMK AO2 SLP186 T00610056","FM-15","7",,,,,,,,,,,,,,,,,,,,,,,,,,,"2009-05-01"
"74486094789","2018-01-22T23:38:00","FM-16","7",,"ESE","1.5","mi","TEMP, PRECIP, SNOW",,,"PSY, SRG, SNOWBOARD",,,"FAA CWO",,,,,,,,,,,,,,,,,,,,,,,,,,,,"30.09","41","42",,"BR:1 ||",,,"96",,"OVC:08 4","30.06","2.00","42","340",,"8",,,,,,,,,,,,,,,,,,,,,,,,,,,,,,,,,,,,,"MET09801/22/18 23:38:02 SPECI KJFK 230438Z 34007KT 2SM BR OVC004 06/05 A3009 RMK AO2 SFC VIS 3 T00560050","FM-16","7",,,,,,,,,,,,,,,,,,,,,,,,,,,"2009-05-01"
"74486094789","2018-01-22T23:51:00","FM-15","7",,"ESE","1.5","mi","TEMP, PRECIP, SNOW",,,"PSY, SRG, SNOWBOARD",,,"FAA CWO",,,,,,,,,,,,,,,,,,,,,,,,,,,,"30.08","41","41","0.00","BR:1 ||",,,"100","30.08","OVC:08 3","30.06","2.00","41","010",,"8",,,,,,,,,,,,,,,,,,,,,,,,,,,,,,,,,,,,,"MET11901/22/18 23:51:02 METAR KJFK 230451Z 01007KT 2SM BR OVC003 05/05 A3008 RMK AO2 SFC VIS 2 1/2 SLP185 T00500050 401110044","FM-15","7",,,,,,,,,,,,,,,,,,,,,,,,,,,"2009-05-01"
"74486094789","2018-01-22T23:59:00","SOD  ","6",,"ESE","1.5","mi","TEMP, PRECIP, SNOW",,,"PSY, SRG, SNOWBOARD",,,"FAA CWO",,,,,,"40","46","88","30.15","30.13","42","5.3","0","13.6","19","52","40","090","20","T","0","0.0","080","16","RA BR",,,,,,,,,,,,,,,,,,,,,,,,,,,,,,,,,,,,,,,,,,,,,,,,,,,,,,,"SOD78424 HR PRECIPITATION (IN):    T SNOW DEPTH (IN):0     24 HR SNOWFALL (IN):0.0  WEATHER(CODE):12  24 HR MAX TEMP (F): 5224 HR MIN TEMP (F): 40AVERAGE STATION PRESSURE:30.130 MINIMUM SEA LEVEL PRESSURE:30.07 TIME OF OCCURRENCE:2359 PEAK WIND SPEED (MPH): 20 PEAK WIND DIR (DEG): 90 PEAK WIND TIME (LST):      FASTEST 2MIN SPEED (MPH): 16FASTEST 2MIN DIR (DEG): 80 FASTEST 2MIN TIME (LST):     AVERAGE WIND SPEED (MPH): 5.3 24 HR AVG TEMP (F): 46DEPART FROM NORMAL: 14  SKY COVER SR-SS (TENTHS): 1HEATING DEGREE DAYS: 19 COOLING DEGREE DAYS:  0 LATEST DAY MAX TEMP (0700-1900 LST):52  LATEST NIGHT MIN TEMP(1900-0800 LST):40 HOURLY INCREMENTAL PRECIPITATION VALUES (IN):    T    T    T    T    0.00 T    0.00 0.00 0.00 0.00 0.00 0.00 0.00 0.00 0.00 0.00 0.00 0.00 0.00 0.00 0.00 0.00 0.00","SOD  ","6",,,,,,,,,,,,,,,,,,,,,,,,,"0713","1701","2009-05-01"
"74486094789","2018-01-23T00:14:00","FM-16","7",,"ESE","1.5","mi","TEMP, PRECIP, SNOW",,,"PSY, SRG, SNOWBOARD",,,"FAA CWO",,,,,,,,,,,,,,,,,,,,,,,,,,,,"30.06","41","41",,"FG:2 |FG |",,,"100",,"VV:09 2","30.03","0.25","41","050",,"8",,,,,,,,,,,,,,,,,,,,,,,,,,,,,,,,,,,,,"MET12301/23/18 00:14:02 SPECI KJFK 230514Z 05007KT 1/4SM R04R/1200V1800FT FG VV002 05/05 A3006 RMK AO2 SFC VIS 1/2 T00500050 (JC)","FM-16","7",,,,,,,,,,,,,,,,,,,,,,,,,,,"2009-05-01"
"74486094789","2018-01-23T00:51:00","FM-15","7",,"ESE","1.5","mi","TEMP, PRECIP, SNOW",,,"PSY, SRG, SNOWBOARD",,,"FAA CWO",,,,,,,,,,,,,,,,,,,,,,,,,,,,"30.03","40","40","0.00","FG:2 |FG |","+0.07","8","100","30.03","VV:09 2","30.01","0.25","40","050",,"7",,,,,,,,,,,,,,,,,,,,,,,,,,,,,,,,,,,,,"MET13101/23/18 00:51:02 METAR KJFK 230551Z 05006KT 1/4SM R04R/0800FT FG VV002 04/04 A3003 RMK AO2 SLP170 T00440044 10061 20044 58025 (JC)","FM-15","7",,,,,,,,,,,,,,,,,,,,,,,,,,,"2009-05-01"
"74486094789","2018-01-23T01:00:00","FM-12","4",,"ESE","1.5","mi","TEMP, PRECIP, SNOW",,,"PSY, SRG, SNOWBOARD",,,"FAA CWO",,,,,,,,,,,,,,,,,,,,,,,,,,,,,"40","40",,"||FG","+0.07","8","100","30.03","2","30.00","0.25","40","050",,"7",,,,,,,,,,,,,,,,,,,,,,,,,,,,,,,,,,,,,"SYN08674486 31104 90506 10044 20044 30158 40170 58025 741// 90551 333 10067 20044 555 92306=","FM-12","4",,,,,,,,,,,,,,,,,,,,,,,,,,,"2009-05-01"
"74486094789","2018-01-23T01:51:00","FM-15","7",,"ESE","1.5","mi","TEMP, PRECIP, SNOW",,,"PSY, SRG, SNOWBOARD",,,"FAA CWO",,,,,,,,,,,,,,,,,,,,,,,,,,,,"30.00","41","41","0.00","BR:1 |s |",,,"100","30.00","VV:09 3","29.98","0.50","41","050",,"6",,,,,,,,,,,,,,,,,,,,,,,,,,,,,,,,,,,,,"MET13001/23/18 01:51:02 METAR KJFK 230651Z 05005KT 1/2SM R04R/1400V1800FT BR VV003 05/05 A3000 RMK AO2 SFC VIS 3/4 SLP160 T00500050 (JC)","FM-15","7",,,,,,,,,,,,,,,,,,,,,,,,,,,"2009-05-01"
"74486094789","2018-01-23T01:59:00","FM-16","7",,"ESE","1.5","mi","TEMP, PRECIP, SNOW",,,"PSY, SRG, SNOWBOARD",,,"FAA CWO",,,,,,,,,,,,,,,,,,,,,,,,,,,,"30.00","41","41",,"BR:1 |s |",,,"100",,"OVC:08 3","29.98","0.25","41","040",,"6",,,,,,,,,,,,,,,,,,,,,,,,,,,,,,,,,,,,,"MET12201/23/18 01:59:02 SPECI KJFK 230659Z 04005KT 1/4SM R04R/1800V3500FT BR OVC003 05/05 A3000 RMK AO2 SFC VIS 1 T00500050 (JC)","FM-16","7",,,,,,,,,,,,,,,,,,,,,,,,,,,"2009-05-01"
"74486094789","2018-01-23T02:51:00","FM-15","7",,"ESE","1.5","mi","TEMP, PRECIP, SNOW",,,"PSY, SRG, SNOWBOARD",,,"FAA CWO",,,,,,,,,,,,,,,,,,,,,,,,,,,,"29.97","41","41","0.00","BR:1 |s |",,,"100","29.96","BKN:07 3 BKN:07 32 OVC:08 110","29.95","0.50","41","070",,"5",,,,,,,,,,,,,,,,,,,,,,,,,,,,,,,,,,,,,"MET13901/23/18 02:51:02 METAR KJFK 230751Z 07004KT 1/2SM R04R/P6000FT BR BKN003 BKN032 OVC110 05/05 A2997 RMK AO2 SFC VIS 3 SLP146 T00500050 (JC)","FM-15","7",,,,,,,,,,,,,,,,,,,,,,,,,,,"2009-05-01"
"74486094789","2018-01-23T03:35:00","FM-16","7",,"ESE","1.5","mi","TEMP, PRECIP, SNOW",,,"PSY, SRG, SNOWBOARD",,,"FAA CWO",,,,,,,,,,,,,,,,,,,,,,,,,,,,"29.93","42","42",,"BR:1 |s |",,,"100",,"OVC:08 3","29.91","0.50","42","080",,"5",,,,,,,,,,,,,,,,,,,,,,,,,,,,,,,,,,,,,"MET12401/23/18 03:35:02 SPECI KJFK 230835Z 08004KT 1/2SM R04R/1600V1800FT BR OVC003 06/06 A2993 RMK AO2 SFC VIS 3/4 T00560056 (JC)","FM-16","7",,,,,,,,,,,,,,,,,,,,,,,,,,,"2009-05-01"
"74486094789","2018-01-23T03:51:00","FM-15","7",,"ESE","1.5","mi","TEMP, PRECIP, SNOW",,,"PSY, SRG, SNOWBOARD",,,"FAA CWO",,,,,,,,,,,,,,,,,,,,,,,,,,,,"29.92","43","43","0.00","BR:1 |s |","+0.11","8","100","29.92","OVC:08 3","29.90","0.50","43","100",,"7",,,,,,,,,,,,,,,,,,,,,,,,,,,,,,,,,,,,,"MET13701/23/18 03:51:02 METAR KJFK 230851Z 10006KT 1/2SM R04R/1200V1400FT BR OVC003 06/06 A2992 RMK AO2 SFC VIS 3/4 SLP132 T00610061 58038 (JC)","FM-15","7",,,,,,,,,,,,,,,,,,,,,,,,,,,"2009-05-01"
"74486094789","2018-01-23T04:00:00","FM-12","4",,"ESE","1.5","mi","TEMP, PRECIP, SNOW",,,"PSY, SRG, SNOWBOARD",,,"FAA CWO",,,,,,,,,,,,,,,,,,,,,,,,,,,,,"43","43",,,"+0.11","8","100","29.92","2","29.89","0.50","43","100",,"7",,,,,,,,,,,,,,,,,,,,,,,,,,,,,,,,,,,,,"SYN07074486 31108 81006 10061 20061 30121 40132 58038 710// 90851 555 92309=","FM-12","4",,,,,,,,,,,,,,,,,,,,,,,,,,,"2009-05-01"
"74486094789","2018-01-23T04:51:00","FM-15","7",,"ESE","1.5","mi","TEMP, PRECIP, SNOW",,,"PSY, SRG, SNOWBOARD",,,"FAA CWO",,,,,,,,,,,,,,,,,,,,,,,,,,,,"29.89","46","46","0.00","FG:2 |FG |",,,"100","29.89","VV:09 2","29.87","0.50","46","000",,"0",,,,,,,,,,,,,,,,,,,,,,,,,,,,,,,,,,,,,"MET11801/23/18 04:51:02 METAR KJFK 230951Z 00000KT 1/2SM R04R/1400V2000FT FG VV002 08/08 A2989 RMK AO2 SLP122 T00780078 (JC)","FM-15","7",,,,,,,,,,,,,,,,,,,,,,,,,,,"2009-05-01"
"74486094789","2018-01-23T05:41:00","FM-16","7",,"ESE","1.5","mi","TEMP, PRECIP, SNOW",,,"PSY, SRG, SNOWBOARD",,,"FAA CWO",,,,,,,,,,,,,,,,,,,,,,,,,,,,"29.86","45","45",,"FG:2 |FG |",,,"100",,"VV:09 2","29.83","0.50","45","100",,"6",,,,,,,,,,,,,,,,,,,,,,,,,,,,,,,,,,,,,"MET11201/23/18 05:41:02 SPECI KJFK 231041Z 10005KT 1/2SM R04R/1600VP6000FT FG VV002 07/07 A2986 RMK AO2 T00720072 (JC)","FM-16","7",,,,,,,,,,,,,,,,,,,,,,,,,,,"2009-05-01"
"74486094789","2018-01-23T05:44:00","FM-16","7",,"ESE","1.5","mi","TEMP, PRECIP, SNOW",,,"PSY, SRG, SNOWBOARD",,,"FAA CWO",,,,,,,,,,,,,,,,,,,,,,,,,,,,"29.86","45","45",,"BR:1 ||",,,"100",,"OVC:08 4","29.83","1.50","45","110",,"6",,,,,,,,,,,,,,,,,,,,,,,,,,,,,,,,,,,,,"MET12901/23/18 05:44:02 SPECI KJFK 231044Z 11005KT 1 1/2SM R04R/2200VP6000FT BR OVC004 07/07 A2986 RMK AO2 SFC VIS 2 1/2 T00720072 (JC)","FM-16","7",,,,,,,,,,,,,,,,,,,,,,,,,,,"2009-05-01"
"74486094789","2018-01-23T05:51:00","FM-15","7",,"ESE","1.5","mi","TEMP, PRECIP, SNOW",,,"PSY, SRG, SNOWBOARD",,,"FAA CWO",,,,,,,,,,,,,,,,,,,,,,,,,,,,"29.85","45","45","0.00","BR:1 ||",,,"100","29.85","OVC:08 4","29.83","1.50","45","120",,"7",,,,,,,,,,,,,,,,,,,,,,,,,,,,,,,,,,,,,"MET13001/23/18 05:51:02 METAR KJFK 231051Z 12006KT 1 1/2SM BR OVC004 07/07 A2985 RMK AO2 SFC VIS 2 1/2 LTG DSNT NW SLP109 T00720072 (JC)","FM-15","7",,,,,,,,,,,,,,,,,,,,,,,,,,,"2009-05-01"
"74486094789","2018-01-23T06:11:00","FM-16","7",,"ESE","1.5","mi","TEMP, PRECIP, SNOW",,,"PSY, SRG, SNOWBOARD",,,"FAA CWO",,,,,,,,,,,,,,,,,,,,,,,,,,,,"29.84","45","45","T",,,,"100",,"OVC:08 5","29.82","7.00","45","150",,"9",,,,,,,,,,,,,,,,,,,,,,,,,,,,,,,,,,,,,"MET10501/23/18 06:11:02 SPECI KJFK 231111Z 15008KT 7SM OVC005 07/07 A2984 RMK AO2 RAB01E11 P0000 T00720072 (BH)","FM-16","7",,,,,,,,,,,,,,,,,,,,,,,,,,,"2009-05-01"
"74486094789","2018-01-23T06:49:00","FM-16","6",,"ESE","1.5","mi","TEMP, PRECIP, SNOW",,,"PSY, SRG, SNOWBOARD",,,"FAA CWO",,,,,,,,,,,,,,,,,,,,,,,,,,,,"29.81","46","46",,"-RA:02 BR:1 |RA |",,,"100",,"OVC:08 4","29.78","1.50","46","160",,"16",,,,,,,,,,,,,,,,,,,,,,,,,,,,,,,,,,,,,"MET13601/23/18 06:49:02 SPECI KJFK 231149Z 16014KT 1 1/2SM -RA BR OVC004 08/08 A2981 RMK AO2 SFC VIS 5 RAB01E11B14 CIG 002V005 P0001 FIBI (BH)","FM-16","6",,,,,,,,,,,,,,,,,,,,,,,,,,,"2009-05-01"
"74486094789","2018-01-23T06:51:00","FM-15","7",,"ESE","1.5","mi","TEMP, PRECIP, SNOW",,,"PSY, SRG, SNOWBOARD",,,"FAA CWO",,,,,,,,,,,,,,,,,,,,,,,,,,,,"29.81","47","47","0.01","-RA:02 BR:1 |RA |","+0.12","8","100","29.80","OVC:08 4","29.78","1.50","47","160",,"18",,,,,,,,,,,,,,,,,,,,,,,,,,,,,,,,,,,,,"MET17801/23/18 06:51:02 METAR KJFK 231151Z 16016KT 1 1/2SM -RA BR OVC004 08/08 A2981 RMK AO2 SFC VIS 5 RAB01E11B14 SLP092 CIG 002V005 P0001 60001 70001 T00830083 10083 20044 58040 (BH)","FM-15","7",,,,,,,,,,,,,,,,,,,,,,,,,,,"2009-05-01"
"74486094789","2018-01-23T07:00:00","FM-12","4",,"ESE","1.5","mi","TEMP, PRECIP, SNOW",,,"PSY, SRG, SNOWBOARD",,,"FAA CWO",,,,,,,,,,,,,,,,,,,,,,,,,,,,,"47","47",,"||RA","+0.12","8","100","29.80","5","29.78","1.49","47","160",,"18",,,,,,,,,,,,,,,,,,,,,,,,,,,,,,,,,,,,,"SYN10474486 11224 81616 10083 20083 30084 40092 58040 69931 761// 91151 333 10111 20044 70003 96010 555 92312=","FM-12","4",,,,,,,,,,,,,,,,,,,,,,,,,,,"2009-05-01"
"74486094789","2018-01-23T07:19:00","FM-16","7",,"ESE","1.5","mi","TEMP, PRECIP, SNOW",,,"PSY, SRG, SNOWBOARD",,,"FAA CWO",,,,,,,,,,,,,,,,,,,,,,,,,,,,"29.79","47","47","0.01","-RA:02 BR:1 |RA |",,,"100",,"SCT:04 4 BKN:07 7 OVC:08 19","29.77","2.00","47","170",,"20",,,,,,,,,,,,,,,,,,,,,,,,,,,,,,,,,,,,,"MET12901/23/18 07:19:02 SPECI KJFK 231219Z 17017KT 2SM -RA BR SCT004 BKN007 OVC019 08/08 A2979 RMK AO2 SFC VIS 6 P0001 T00830083 $ (BH)","FM-16","7",,,,,,,,,,,,,,,,,,,,,,,,,,,"2009-05-01"
"74486094789","2018-01-23T07:49:00","FM-16","6",,"ESE","1.5","mi","TEMP, PRECIP, SNOW",,,"PSY, SRG, SNOWBOARD",,,"FAA CWO",,,,,,,,,,,,,,,,,,,,,,,,,,,,"29.79","46","46",,"-RA:02 BR:1 |s RA s |",,,"100",,"BKN:07 3 OVC:08 19","29.77","0.50","46","180",,"21",,,,,,,,,,,,,,,,,,,,,,,,,,,,,,,,,,,,,"MET15301/23/18 07:49:02 SPECI KJFK 231249Z 18018KT 1/2SM R04R/P6000FT -RA BR BKN003 OVC019 08/08 A2979 RMK AO2 SFC VIS 5 RAE25B41 CIG 002V004 P0002 $ FIBI (BH)","FM-16","6",,,,,,,,,,,,,,,,,,,,,,,,,,,"2009-05-01"
"74486094789","2018-01-23T07:51:00","FM-15","7",,"ESE","1.5","mi","TEMP, PRECIP, SNOW",,,"PSY, SRG, SNOWBOARD",,,"FAA CWO",,,,,,,,,,,,,,,,,,,,,,,,,,,,"29.78","47","47","0.02","BR:1 |s |",,,"100","29.78","BKN:07 3 OVC:08 19","29.75","0.50","47","180",,"20",,,,,,,,,,,,,,,,,,,,,,,,,,,,,,,,,,,,,"MET16401/23/18 07:51:02 METAR KJFK 231251Z 18017KT 1/2SM R04R/P6000FT BR BKN003 OVC019 08/08 A2978 RMK AO2 SFC VIS 5 RAE25B41E50 SLP086 CIG 002V004 P0002 T00830083 $ (BH)","FM-15","7",,,,,,,,,,,,,,,,,,,,,,,,,,,"2009-05-01"
"74486094789","2018-01-23T08:08:00","FM-16","7",,"ESE","1.5","mi","TEMP, PRECIP, SNOW",,,"PSY, SRG, SNOWBOARD",,,"FAA CWO",,,,,,,,,,,,,,,,,,,,,,,,,,,,"29.78","46","46","T","-RA:02 BR:1 |RA |",,,"100",,"VV:09 2","29.75","0.12","46","180",,"15",,,,,,,,,,,,,,,,,,,,,,,,,,,,,,,,,,,,,"MET14201/23/18 08:08:02 SPECI KJFK 231308Z 18013KT 1/8SM R04R/3500VP6000FT -RA BR VV002 08/08 A2978 RMK AO2 SFC VIS 3/4 RAB08 P0000 T00780078 $ (BH)","FM-16","7",,,,,,,,,,,,,,,,,,,,,,,,,,,"2009-05-01"
"74486094789","2018-01-23T08:26:00","FM-16","7",,"ESE","1.5","mi","TEMP, PRECIP, SNOW",,,"PSY, SRG, SNOWBOARD",,,"FAA CWO",,,,,,,,,,,,,,,,,,,,,,,,,,,,"29.77","45","45","T","-RA:02 FG:2 |FG s RA s |",,,"100",,"VV:09 2","29.75","0.12","45","180",,"14",,,,,,,,,,,,,,,,,,,,,,,,,,,,,,,,,,,,,"MET14101/23/18 08:26:02 SPECI KJFK 231326Z 18012KT 1/8SM R04R/1400V2200FT -RA FG VV002 07/07 A2977 RMK AO2 SFC VIS 1/4 RAB08 P0000 T00720072 $ (BH)","FM-16","7",,,,,,,,,,,,,,,,,,,,,,,,,,,"2009-05-01"
"74486094789","2018-01-23T08:49:00","FM-16","6",,"ESE","1.5","mi","TEMP, PRECIP, SNOW",,,"PSY, SRG, SNOWBOARD",,,"FAA CWO",,,,,,,,,,,,,,,,,,,,,,,,,,,,"29.76","45","45",,"-RA:02 FG:2 |FG s RA s |",,,"100",,"VV:09 2","29.74","0.12","45","190",,"14",,,,,,,,,,,,,,,,,,,,,,,,,,,,,,,,,,,,,"MET13601/23/18 08:49:02 SPECI KJFK 231349Z 19012KT 1/8SM R04R/1400V2200FT -RA FG VV002 07/07 A2976 RMK AO2 SFC VIS 1/4 RAB08 P0001 $ FIBI (BH)","FM-16","6",,,,,,,,,,,,,,,,,,,,,,,,,,,"2009-05-01"
"74486094789","2018-01-23T08:51:00","FM-15","7",,"ESE","1.5","mi","TEMP, PRECIP, SNOW",,,"PSY, SRG, SNOWBOARD",,,"FAA CWO",,,,,,,,,,,,,,,,,,,,,,,,,,,,"29.76","45","45","0.01","-RA:02 FG:2 |FG s RA s |",,,"100","29.75","VV:09 2","29.74","0.12","45","180",,"14",,,,,,,,,,,,,,,,,,,,,,,,,,,,,,,,,,,,,"MET14801/23/18 08:51:02 METAR KJFK 231351Z 18012KT 1/8SM R04R/1400V2200FT -RA FG VV002 07/07 A2976 RMK AO2 SFC VIS 1/4 RAB08 SLP076 P0001 T00720072 $ (BH)","FM-15","7",,,,,,,,,,,,,,,,,,,,,,,,,,,"2009-05-01"
"74486094789","2018-01-23T09:00:00","FM-16","7",,"ESE","1.5","mi","TEMP, PRECIP, SNOW",,,"PSY, SRG, SNOWBOARD",,,"FAA CWO",,,,,,,,,,,,,,,,,,,,,,,,,,,,"29.75","46","46","T","-RA:02 FG:2 |FG s RA s |",,,"100",,"VV:09 2","29.72","0.12","46","180",,"16",,,,,,,,,,,,,,,,,,,,,,,,,,,,,,,,,,,,,"MET13501/23/18 09:00:02 SPECI KJFK 231400Z 18014KT 1/8SM R04R/1600V2400FT -RA FG VV002 08/08 A2975 RMK AO2 SFC VIS 1/2 P0000 T00780078 $ (BH)","FM-16","7",,,,,,,,,,,,,,,,,,,,,,,,,,,"2009-05-01"
"74486094789","2018-01-23T09:15:00","FM-16","7",,"ESE","1.5","mi","TEMP, PRECIP, SNOW",,,"PSY, SRG, SNOWBOARD",,,"FAA CWO",,,,,,,,,,,,,,,,,,,,,,,,,,,,"29.75","47","47","0.01","-RA:02 FG:2 |FG s RA s |",,,"100",,"VV:09 2","29.72","0.12","47","180",,"16",,,,,,,,,,,,,,,,,,,,,,,,,,,,,,,,,,,,,"MET13501/23/18 09:15:02 SPECI KJFK 231415Z 18014KT 1/8SM R04R/1800V2200FT -RA FG VV002 08/08 A2975 RMK AO2 SFC VIS 1/2 P0001 T00830083 $ (BH)","FM-16","7",,,,,,,,,,,,,,,,,,,,,,,,,,,"2009-05-01"
"74486094789","2018-01-23T09:20:00","FM-16","7",,"ESE","1.5","mi","TEMP, PRECIP, SNOW",,,"PSY, SRG, SNOWBOARD",,,"FAA CWO",,,,,,,,,,,,,,,,,,,,,,,,,,,,"29.75","47","47","0.02","-RA:02 FG:2 |FG s RA s |",,,"100",,"VV:09 2","29.72","0.12","47","180",,"17",,,,,,,,,,,,,,,,,,,,,,,,,,,,,,,,,,,,,"MET13501/23/18 09:20:02 SPECI KJFK 231420Z 18015KT 1/8SM R04R/1800V2400FT -RA FG VV002 08/08 A2975 RMK AO2 SFC VIS 1/2 P0002 T00830083 $ (BH)","FM-16","7",,,,,,,,,,,,,,,,,,,,,,,,,,,"2009-05-01"
"74486094789","2018-01-23T09:51:00","FM-15","7",,"ESE","1.5","mi","TEMP, PRECIP, SNOW",,,"PSY, SRG, SNOWBOARD",,,"FAA CWO",,,,,,,,,,,,,,,,,,,,,,,,,,,,"29.74","47","47","0.05","-RA:02 BR:1 |RA |","+0.07","6","100","29.74","X:10 0 OVC:08 2","29.72","0.12","47","190",,"20",,,,,,,,,,,,,,,,,,,,,,,,,,,,,,,,,,,,,"MET17401/23/18 09:51:02 METAR KJFK 231451Z 19017KT 1/8SM R04R/2200V3000FT -RA BR SCT000 OVC002 08/08 A2974 RMK AO2 SFC VIS 1 1/4 SLP070 BR SCT000 P0005 60008 T00830083 56023 $ (BH)","FM-15","7",,,,,,,,,,,,,,,,,,,,,,,,,,,"2009-05-01"
"74486094789","2018-01-23T10:00:00","FM-12","4",,"ESE","1.5","mi","TEMP, PRECIP, SNOW",,,"PSY, SRG, SNOWBOARD",,,"FAA CWO",,,,,,,,,,,,,,,,,,,,,,,,,,,,,"47","47",,"||RA","+0.07","6","100","29.74","2","29.71","0.12","47","190",,"20",,,,,,,,,,,,,,,,,,,,,,,,,,,,,,,,,,,,,"SYN08674486 11102 81917 10083 20083 30060 40070 56023 60027 761// 91451 333 96010 555 92315=","FM-12","4",,,,,,,,,,,,,,,,,,,,,,,,,,,"2009-05-01"
"74486094789","2018-01-23T10:26:00","FM-16","7",,"ESE","1.5","mi","TEMP, PRECIP, SNOW",,,"PSY, SRG, SNOWBOARD",,,"FAA CWO",,,,,,,,,,,,,,,,,,,,,,,,,,,,"29.69","49","49","0.06","RA:02 BR:1 |RA |",,,"100",,"BKN:07 4 BKN:07 12 OVC:08 95","29.67","2.00","49","180","32","25",,,,,,,,,,,,,,,,,,,,,,,,,,,,,,,,,,,,,"MET17801/23/18 10:26:02 SPECI KJFK 231526Z 18022G28KT 2SM R04R/1800VP6000FT RA BR BKN004 BKN012 OVC095 09/09 A2969 RMK AO2 PK WND 18028/1525 SFC VIS 2 1/2 PRESFR P0006 T00940094 $ (BH)","FM-16","7",,,,,,,,,,,,,,,,,,,,,,,,,,,"2009-05-01"
"74486094789","2018-01-23T10:33:00","FM-16","7",,"ESE","1.5","mi","TEMP, PRECIP, SNOW",,,"PSY, SRG, SNOWBOARD",,,"FAA CWO",,,,,,,,,,,,,,,,,,,,,,,,,,,,"29.68","49","49","0.09","|TS |",,,"100",,"SCT:04 4 BKN:07 15 BKN:07 40","29.65","2.00","49","170","32","22",,,,,,,,,,,,,,,,,,,,,,,,,,,,,,,,,,,,,"MET21301/23/18 10:33:02 SPECI KJFK 231533Z 17019G28KT 2SM R04R/3500VP6000FT TSRA BR SCT004 BKN015CB BKN1 09/09 A2968 RMK AO2 PK WND 18028/1525 SFC VIS 3 TSB33 PRESFR OCNL LTGIC SE-S TS SE-S MOV NE P0009 T00940094 $ (BH)","FM-16","7",,,,,,,,,,,,,,,,,,,,,,,,,,,"2009-05-01"
"74486094789","2018-01-23T10:51:00","FM-15","7",,"ESE","1.5","mi","TEMP, PRECIP, SNOW",,,"PSY, SRG, SNOWBOARD",,,"FAA CWO",,,,,,,,,,,,,,,,,,,,,,,,,,,,"29.66","51","51","0.10","|RA |",,,"100","29.66","SCT:04 5 BKN:07 28 BKN:07 90","29.64","3.00","51","170","36","30",,,,,,,,,,,,,,,,,,,,,,,,,,,,,,,,,,,,,"MET19601/23/18 10:51:02 METAR KJFK 231551Z 17026G31KT 3SM R04R/4500VP6000FT -RA BR SCT005 BKN028 BKN090 11/11 A2966 RMK AO2 PK WND 17031/1550 SFC VIS 6 LTG DSNT SE TSB33E50 SLP043 P0010 T01060106 $ (BH)","FM-15","7",,,,,,,,,,,,,,,,,,,,,,,,,,,"2009-05-01"
"74486094789","2018-01-23T11:05:00","FM-16","7",,"ESE","1.5","mi","TEMP, PRECIP, SNOW",,,"PSY, SRG, SNOWBOARD",,,"FAA CWO",,,,,,,,,,,,,,,,,,,,,,,,,,,,"29.65","52","52","T",,,,"100",,"FEW:02 4 BKN:07 31 OVC:08 85","29.62","8.00","52","170","37","30",,,,,,,,,,,,,,,,,,,,,,,,,,,,,,,,,,,,,"MET14101/23/18 11:05:02 SPECI KJFK 231605Z 17026G32KT 8SM FEW004 BKN031 OVC085 11/11 A2965 RMK AO2 PK WND 18032/1602 RAE1559 P0000 T01110111 $ (BH)","FM-16","7",,,,,,,,,,,,,,,,,,,,,,,,,,,"2009-05-01"
"74486094789","2018-01-23T11:18:00","FM-16","7",,"ESE","1.5","mi","TEMP, PRECIP, SNOW",,,"PSY, SRG, SNOWBOARD",,,"FAA CWO",,,,,,,,,,,,,,,,,,,,,,,,,,,,"29.64","51","51","T",,,,"100",,"FEW:02 4 BKN:07 25 OVC:08 80","29.62","8.00","51","170",,"26",,,,,,,,,,,,,,,,,,,,,,,,,,,,,,,,,,,,,"MET13801/23/18 11:18:02 SPECI KJFK 231618Z 17023KT 8SM FEW004 BKN025 OVC080 11/11 A2964 RMK AO2 PK WND 18032/1602 RAE1559 P0000 T01060106 $ (BH)","FM-16","7",,,,,,,,,,,,,,,,,,,,,,,,,,,"2009-05-01"
"74486094789","2018-01-23T11:31:00","FM-16","7",,"ESE","1.5","mi","TEMP, PRECIP, SNOW",,,"PSY, SRG, SNOWBOARD",,,"FAA CWO",,,,,,,,,,,,,,,,,,,,,,,,,,,,"29.62","51","51","0.01","-RA:02 BR:1 |RA |",,,"100",,"FEW:02 4 BKN:07 19 OVC:08 80","29.59","2.50","51","170","32","26",,,,,,,,,,,,,,,,,,,,,,,,,,,,,,,,,,,,,"MET16501/23/18 11:31:02 SPECI KJFK 231631Z 17023G28KT 2 1/2SM -RA BR FEW004 BKN019 OVC080 11/11 A2962 RMK AO2 PK WND 18032/1602 SFC VIS 5 RAE1559B26 P0001 T01060106 $ (BH)","FM-16","7",,,,,,,,,,,,,,,,,,,,,,,,,,,"2009-05-01"
"74486094789","2018-01-23T11:51:00","FM-15","7",,"ESE","1.5","mi","TEMP, PRECIP, SNOW",,,"PSY, SRG, SNOWBOARD",,,"FAA CWO",,,,,,,,,,,,,,,,,,,,,,,,,,,,"29.60","51","51","0.01","-RA:02 BR:1 |RA |",,,"100","29.60","FEW:02 5 BKN:07 19 OVC:08 85","29.57","2.50","51","170","33","25",,,,,,,,,,,,,,,,,,,,,,,,,,,,,,,,,,,,,"MET17201/23/18 11:51:02 METAR KJFK 231651Z 17022G29KT 2 1/2SM -RA BR FEW005 BKN019 OVC085 11/11 A2960 RMK AO2 PK WND 18032/1602 SFC VIS 6 RAE1559B26 SLP023 P0001 T01060106 $ (BH)","FM-15","7",,,,,,,,,,,,,,,,,,,,,,,,,,,"2009-05-01"
"74486094789","2018-01-23T12:14:00","FM-16","7",,"ESE","1.5","mi","TEMP, PRECIP, SNOW",,,"PSY, SRG, SNOWBOARD",,,"FAA CWO",,,,,,,,,,,,,,,,,,,,,,,,,,,,"29.57","50","50","0.01","BR:1 |s |",,,"100",,"BKN:07 3 BKN:07 19 OVC:08 50","29.54","0.50","50","180",,"23",,,,,,,,,,,,,,,,,,,,,,,,,,,,,,,,,,,,,"MET16401/23/18 12:14:02 SPECI KJFK 231714Z 18020KT 1/2SM R04R/P6000FT BR BKN003 BKN019 OVC050 10/10 A2957 RMK AO2 PK WND 17028/1702 SFC VIS 5 RAE08 P0001 T01000100 $ (BH)","FM-16","7",,,,,,,,,,,,,,,,,,,,,,,,,,,"2009-05-01"
"74486094789","2018-01-23T12:51:00","FM-15","7",,"ESE","1.5","mi","TEMP, PRECIP, SNOW",,,"PSY, SRG, SNOWBOARD",,,"FAA CWO",,,,,,,,,,,,,,,,,,,,,,,,,,,,"29.54","51","51","0.01","BR:1 |s |","+0.20","6","100","29.54","X:10 0 BKN:07 3 OVC:08 22","29.52","0.50","51","180","32","22",,,,,,,,,,,,,,,,,,,,,,,,,,,,,,,,,,,,,"MET21401/23/18 12:51:02 METAR KJFK 231751Z 18019G28KT 1/2SM R04R/P6000FT BR FEW000 BKN003 OVC022 11/11 A2954 RMK AO2 PK WND 18028/1737 SFC VIS 2 RAE08B24E34 SLP003 BR FEW000 P0001 60020 T01060106 10111 20072 56067 $ (BH)","FM-15","7",,,,,,,,,,,,,,,,,,,,,,,,,,,"2009-05-01"
"74486094789","2018-01-23T13:00:00","FM-12","4",,"ESE","1.5","mi","TEMP, PRECIP, SNOW",,,"PSY, SRG, SNOWBOARD",,,"FAA CWO",,,,,,,,,,,,,,,,,,,,,,,,,,,,,"51","51",,,"+0.20","6","100","29.54","2","29.51","0.50","51","180",,"22",,,,,,,,,,,,,,,,,,,,,,,,,,,,,,,,,,,,,"SYN09874486 11108 81819 10106 20106 39992 40003 56067 60051 710// 91751 333 10111 20061 91028 555 92318=","FM-12","4",,,,,,,,,,,,,,,,,,,,,,,,,,,"2009-05-01"
"74486094789","2018-01-23T13:11:00","FM-16","7",,"ESE","1.5","mi","TEMP, PRECIP, SNOW",,,"PSY, SRG, SNOWBOARD",,,"FAA CWO",,,,,,,,,,,,,,,,,,,,,,,,,,,,"29.56","50","50","T","-RA:02 BR:1 |RA |",,,"100",,"SCT:04 3 BKN:07 19 OVC:08 75","29.54","6.00","50","210","37","23",,,,,,,,,,,,,,,,,,,,,,,,,,,,,,,,,,,,,"MET18201/23/18 13:11:02 SPECI KJFK 231811Z 21020G32KT 6SM R04R/6000VP6000FT -RA BR SCT003 BKN019 OVC075 10/10 A2956 RMK AO2 PK WND 21032/1807 RAB1758 VIS NE-SE 2 1/2 P0000 T01000100 $ (BH)","FM-16","7",,,,,,,,,,,,,,,,,,,,,,,,,,,"2009-05-01"
"74486094789","2018-01-23T13:29:00","FM-16","7",,"ESE","1.5","mi","TEMP, PRECIP, SNOW",,,"PSY, SRG, SNOWBOARD",,,"FAA CWO",,,,,,,,,,,,,,,,,,,,,,,,,,,,"29.55","51","51","T","|RA |",,,"100",,"SCT:04 18 BKN:07 55 BKN:07 95","29.52","10.00","51","230",,"15",,,,,,,,,,,,,,,,,,,,,,,,,,,,,,,,,,,,,"MET14301/23/18 13:29:02 SPECI KJFK 231829Z 23013KT 10SM -RA SCT018 BKN055 BKN095 11/11 A2955 RMK AO2 PK WND 21032/1807 RAB1758 P0000 T01060106 $ (BH)","FM-16","7",,,,,,,,,,,,,,,,,,,,,,,,,,,"2009-05-01"
"74486094789","2018-01-23T13:51:00","FM-15","7",,"ESE","1.5","mi","TEMP, PRECIP, SNOW",,,"PSY, SRG, SNOWBOARD",,,"FAA CWO",,,,,,,,,,,,,,,,,,,,,,,,,,,,"29.54","52","53","0.01",,,,"96","29.54","FEW:02 17 BKN:07 60 BKN:07 85","29.52","10.00","52","230",,"6",,,,,,,,,,,,,,,,,,,,,,,,,,,,,,,,,,,,,"MET14901/23/18 13:51:02 METAR KJFK 231851Z 23005KT 10SM FEW017 BKN060 BKN085 12/11 A2954 RMK AO2 PK WND 21032/1807 RAB1758E43 SLP002 P0001 T01170111 $ (BH)","FM-15","7",,,,,,,,,,,,,,,,,,,,,,,,,,,"2009-05-01"
"74486094789","2018-01-23T14:51:00","FM-15","7",,"ESE","1.5","mi","TEMP, PRECIP, SNOW",,,"PSY, SRG, SNOWBOARD",,,"FAA CWO",,,,,,,,,,,,,,,,,,,,,,,,,,,,"29.53","51","52","0.00",,,,"97","29.53","FEW:02 25 FEW:02 80 SCT:04 100","29.51","10.00","51","200",,"9",,,,,,,,,,,,,,,,,,,,,,,,,,,,,,,,,,,,,"MET11401/23/18 14:51:02 METAR KJFK 231951Z 20008KT 10SM FEW025 FEW080 SCT100 11/11 A2953 RMK AO2 SLP001 T01110106 $ (RR)","FM-15","7",,,,,,,,,,,,,,,,,,,,,,,,,,,"2009-05-01"
"74486094789","2018-01-23T15:51:00","FM-15","7",,"ESE","1.5","mi","TEMP, PRECIP, SNOW",,,"PSY, SRG, SNOWBOARD",,,"FAA CWO",,,,,,,,,,,,,,,,,,,,,,,,,,,,"29.56","48","49","0.00",,"-0.01","3","97","29.55","FEW:02 25 SCT:04 75 BKN:07 100","29.54","10.00","48","200",,"13",,,,,,,,,,,,,,,,,,,,,,,,,,,,,,,,,,,,,"MET13301/23/18 15:51:02 METAR KJFK 232051Z 20011KT 10SM FEW025 SCT075 BKN100 09/09 A2956 RMK AO2 SLP008 VCSH S 60001 T00940089 53005 $ (RR)","FM-15","7",,,,,,,,,,,,,,,,,,,,,,,,,,,"2009-05-01"
"74486094789","2018-01-23T16:00:00","FM-12","4",,"ESE","1.5","mi","TEMP, PRECIP, SNOW",,,"PSY, SRG, SNOWBOARD",,,"FAA CWO",,,,,,,,,,,,,,,,,,,,,,,,,,,,,"48","49",,,"-0.01","3","97","29.55","26","29.53","9.94","48","200",,"13",,,,,,,,,,,,,,,,,,,,,,,,,,,,,,,,,,,,,"SYN07074486 12566 62011 10094 20089 39999 40008 53005 69937 92051 555 92321=","FM-12","4",,,,,,,,,,,,,,,,,,,,,,,,,,,"2009-05-01"
"74486094789","2018-01-23T16:51:00","FM-15","7",,"ESE","1.5","mi","TEMP, PRECIP, SNOW",,,"PSY, SRG, SNOWBOARD",,,"FAA CWO",,,,,,,,,,,,,,,,,,,,,,,,,,,,"29.58","48","49","T",,,,"97","29.58","SCT:04 75 BKN:07 95 BKN:07 160","29.56","10.00","48","230",,"6",,,,,,,,,,,,,,,,,,,,,,,,,,,,,,,,,,,,,"MET13701/23/18 16:51:02 METAR KJFK 232151Z 23005KT 10SM SCT075 BKN095 BKN160 09/09 A2958 RMK AO2 RAB02E15 SLP016 VCSH NW P0000 T00940089 $ (RR)","FM-15","7",,,,,,,,,,,,,,,,,,,,,,,,,,,"2009-05-01"
"74486094789","2018-01-23T17:33:00","FM-16","7",,"ESE","1.5","mi","TEMP, PRECIP, SNOW",,,"PSY, SRG, SNOWBOARD",,,"FAA CWO",,,,,,,,,,,,,,,,,,,,,,,,,,,,"29.63","43","53","T","-RA:02 |RA |",,,"69",,"BKN:07 37 BKN:07 65","29.61","10.00","48","300","29","23",,,,,,,,,,,,,,,,,,,,,,,,,,,,,,,,,,,,,"MET14801/23/18 17:33:02 SPECI KJFK 232233Z 30020G25KT 10SM -RA BKN037 BKN065 12/06 A2963 RMK AO2 PK WND 30030/2217 WSHFT 2214 RAB23 P0000 T01170061 $ (RR)","FM-16","7",,,,,,,,,,,,,,,,,,,,,,,,,,,"2009-05-01"
"74486094789","2018-01-23T17:51:00","FM-15","7",,"ESE","1.5","mi","TEMP, PRECIP, SNOW",,,"PSY, SRG, SNOWBOARD",,,"FAA CWO",,,,,,,,,,,,,,,,,,,,,,,,,,,,"29.63","41","53","T",,,,"64","29.63","BKN:07 41 BKN:07 70","29.61","10.00","47","290",,"18",,,,,,,,,,,,,,,,,,,,,,,,,,,,,,,,,,,,,"MET15101/23/18 17:51:02 METAR KJFK 232251Z 29016KT 10SM BKN041 BKN070 12/05 A2963 RMK AO2 PK WND 30030/2217 WSHFT 2214 RAB23E38 SLP033 P0000 T01170050 $ (RR)","FM-15","7",,,,,,,,,,,,,,,,,,,,,,,,,,,"2009-05-01"
"74486094789","2018-01-23T18:51:00","FM-15","7",,"ESE","1.5","mi","TEMP, PRECIP, SNOW",,,"PSY, SRG, SNOWBOARD",,,"FAA CWO",,,,,,,,,,,,,,,,,,,,,,,,,,,,"29.65","37","51","0.00",,"-0.09","1","59","29.65","SCT:04 70 BKN:07 85","29.62","10.00","45","280",,"14",,,,,,,,,,,,,,,,,,,,,,,,,,,,,,,,,,,,,"MET13101/23/18 18:51:02 METAR KJFK 232351Z 28012KT 10SM SCT070 BKN085 11/03 A2965 RMK AO2 SLP040 60001 T01060028 10122 20083 51032 $ (RR)","FM-15","7",,,,,,,,,,,,,,,,,,,,,,,,,,,"2009-05-01"
"74486094789","2018-01-23T19:00:00","FM-12","4",,"ESE","1.5","mi","TEMP, PRECIP, SNOW",,,"PSY, SRG, SNOWBOARD",,,"FAA CWO",,,,,,,,,,,,,,,,,,,,,,,,,,,,,"37","51",,,"-0.09","1","59","29.65","74","29.62","9.94","45","280",,"14",,,,,,,,,,,,,,,,,,,,,,,,,,,,,,,,,,,,,"SYN08674486 12866 62812 10106 20028 30029 40040 51032 69931 92351 333 10122 20044 555 92400=","FM-12","4",,,,,,,,,,,,,,,,,,,,,,,,,,,"2009-05-01"
"74486094789","2018-01-23T19:51:00","FM-15","7",,"ESE","1.5","mi","TEMP, PRECIP, SNOW",,,"PSY, SRG, SNOWBOARD",,,"FAA CWO",,,,,,,,,,,,,,,,,,,,,,,,,,,,"29.68","37","50","0.00",,,,"61","29.68","FEW:02 45 FEW:02 70","29.65","10.00","44","280","28","20",,,,,,,,,,,,,,,,,,,,,,,,,,,,,,,,,,,,,"MET12301/23/18 19:51:01 METAR KJFK 240051Z 28017G24KT 10SM FEW045 FEW070 10/03 A2968 RMK AO2 PK WND 26026/0039 SLP050 T01000028 $","FM-15","7",,,,,,,,,,,,,,,,,,,,,,,,,,,"2009-05-01"
"74486094789","2018-01-23T20:51:00","FM-15","7",,"ESE","1.5","mi","TEMP, PRECIP, SNOW",,,"PSY, SRG, SNOWBOARD",,,"FAA CWO",,,,,,,,,,,,,,,,,,,,,,,,,,,,"29.71","29","47","0.00",,,,"50","29.71","FEW:02 70","29.69","10.00","40","280","28","16",,,,,,,,,,,,,,,,,,,,,,,,,,,,,,,,,,,,,"MET11701/23/18 20:51:01 METAR KJFK 240151Z 28014G24KT 10SM FEW070 08/M02 A2971 RMK AO2 PK WND 27031/0100 SLP061 T00831017 $","FM-15","7",,,,,,,,,,,,,,,,,,,,,,,,,,,"2009-05-01"
"74486094789","2018-01-23T21:51:00","FM-15","7",,"ESE","1.5","mi","TEMP, PRECIP, SNOW",,,"PSY, SRG, SNOWBOARD",,,"FAA CWO",,,,,,,,,,,,,,,,,,,,,,,,,,,,"29.73","29","46","0.00",,"-0.08","1","51","29.73","CLR:00","29.70","10.00","39","280","23","18",,,,,,,,,,,,,,,,,,,,,,,,,,,,,,,,,,,,,"MET12001/23/18 21:51:01 METAR KJFK 240251Z 28016G20KT 10SM CLR 08/M02 A2973 RMK AO2 PK WND 29030/0159 SLP069 T00781017 51028 $","FM-15","7",,,,,,,,,,,,,,,,,,,,,,,,,,,"2009-05-01"
"74486094789","2018-01-23T22:00:00","FM-12","4",,"ESE","1.5","mi","TEMP, PRECIP, SNOW",,,"PSY, SRG, SNOWBOARD",,,"FAA CWO",,,,,,,,,,,,,,,,,,,,,,,,,,,,,"29","46",,,"-0.08","1","51","29.73",,"29.70","9.94","39","280",,"18",,,,,,,,,,,,,,,,,,,,,,,,,,,,,,,,,,,,,"SYN07474486 32966 02816 10078 21017 30056 40069 51028 90251 333 91020 555 92403=","FM-12","4",,,,,,,,,,,,,,,,,,,,,,,,,,,"2009-05-01"
"74486094789","2018-01-23T22:51:00","FM-15","7",,"ESE","1.5","mi","TEMP, PRECIP, SNOW",,,"PSY, SRG, SNOWBOARD",,,"FAA CWO",,,,,,,,,,,,,,,,,,,,,,,,,,,,"29.75","30","44","0.00",,,,"58","29.75","FEW:02 55","29.72","10.00","38","270","24","18",,,,,,,,,,,,,,,,,,,,,,,,,,,,,,,,,,,,,"MET09901/23/18 22:51:02 METAR KJFK 240351Z 27016G21KT 10SM FEW055 07/M01 A2975 RMK AO2 SLP074 T00671011 $","FM-15","7",,,,,,,,,,,,,,,,,,,,,,,,,,,"2009-05-01"
"74486094789","2018-01-23T23:51:00","FM-15","7",,"ESE","1.5","mi","TEMP, PRECIP, SNOW",,,"PSY, SRG, SNOWBOARD",,,"FAA CWO",,,,,,,,,,,,,,,,,,,,,,,,,,,,"29.75","28","44","0.00",,,,"53","29.75","FEW:02 60","29.72","10.00","38","270",,"18",,,,,,,,,,,,,,,,,,,,,,,,,,,,,,,,,,,,,"MET12401/23/18 23:51:02 METAR KJFK 240451Z 27016KT 10SM FEW060 07/M02 A2975 RMK AO2 PK WND 27026/0416 SLP074 T00671022 401220044 $","FM-15","7",,,,,,,,,,,,,,,,,,,,,,,,,,,"2009-05-01"
"74486094789","2018-01-23T23:59:00","SOD  ","6",,"ESE","1.5","mi","TEMP, PRECIP, SNOW",,,"PSY, SRG, SNOWBOARD",,,"FAA CWO",,,,,,"43","47","86","29.73","29.73","45","14.0","0","14.6","18","54","40","210","37","0.22","0","0.0","210","30","RA FG BR TS",,,,,,,,,,,,,,,,,,,,,,,,,,,,,,,,,,,,,,,,,,,,,,,,,,,,,,,"SOD75824 HR PRECIPITATION (IN): 0.22 SNOW DEPTH (IN):0     24 HR SNOWFALL (IN):0.0  WEATHER(CODE):123  24 HR MAX TEMP (F): 5424 HR MIN TEMP (F): 40AVERAGE STATION PRESSURE:29.730 MINIMUM SEA LEVEL PRESSURE:29.52 TIME OF OCCURRENCE:1425 PEAK WIND SPEED (MPH): 37 PEAK WIND DIR (DEG):210 PEAK WIND TIME (LST):      FASTEST 2MIN SPEED (MPH): 30FASTEST 2MIN DIR (DEG):210 FASTEST 2MIN TIME (LST):     AVERAGE WIND SPEED (MPH):14.0 24 HR AVG TEMP (F): 47DEPART FROM NORMAL: 15  HEATING DEGREE DAYS: 18 COOLING DEGREE DAYS:  0 LATEST DAY MAX TEMP (0700-1900 LST):54  LATEST NIGHT MIN TEMP(1900-0800 LST):40 HOURLY INCREMENTAL PRECIPITATION VALUES (IN):.00 0.00 0.00 0.00 0.00 0.00 0.01 0.02 0.01 0.05 0.10 0.01 0.01 0.01 0.00 0.00 T    T    0.00 0.00 0.00 0.00 0.00 0.00","SOD  ","6",,,,,,,,,,,,,,,,,,,,,,,,,"0713","1702","2009-05-01"
"74486094789","2018-01-24T00:51:00","FM-15","7",,"ESE","1.5","mi","TEMP, PRECIP, SNOW",,,"PSY, SRG, SNOWBOARD",,,"FAA CWO",,,,,,,,,,,,,,,,,,,,,,,,,,,,"29.75","28","43","0.00",,"-0.01","0","56","29.75","FEW:02 55","29.72","10.00","37","270",,"14",,,,,,,,,,,,,,,,,,,,,,,,,,,,,,,,,,,,,"MET11901/24/18 00:51:02 METAR KJFK 240551Z 27012KT 10SM FEW055 06/M02 A2975 RMK AO2 SLP073 T00611022 10106 20061 50004 $ (JC)","FM-15","7",,,,,,,,,,,,,,,,,,,,,,,,,,,"2009-05-01"
"74486094789","2018-01-24T01:00:00","FM-12","4",,"ESE","1.5","mi","TEMP, PRECIP, SNOW",,,"PSY, SRG, SNOWBOARD",,,"FAA CWO",,,,,,,,,,,,,,,,,,,,,,,,,,,,,"28","43",,,"0.01","9","56","29.75","57","29.72","9.94","37","270",,"14",,,,,,,,,,,,,,,,,,,,,,,,,,,,,,,,,,,,,"SYN08074486 32766 22712 10061 21022 30063 40073 50004 90551 333 10106 20044 555 92406=","FM-12","4",,,,,,,,,,,,,,,,,,,,,,,,,,,"2009-05-01"
"74486094789","2018-01-24T01:51:00","FM-15","7",,"ESE","1.5","mi","TEMP, PRECIP, SNOW",,,"PSY, SRG, SNOWBOARD",,,"FAA CWO",,,,,,,,,,,,,,,,,,,,,,,,,,,,"29.77","30","38","0.00",,,,"73","29.76","FEW:02 55","29.75","10.00","35","220",,"9",,,,,,,,,,,,,,,,,,,,,,,,,,,,,,,,,,,,,"MET10101/24/18 01:51:02 METAR KJFK 240651Z 22008KT 10SM FEW055 03/M01 A2977 RMK AO2 SLP079 T00331011 $ (JC)","FM-15","7",,,,,,,,,,,,,,,,,,,,,,,,,,,"2009-05-01"
"74486094789","2018-01-24T02:51:00","FM-15","7",,"ESE","1.5","mi","TEMP, PRECIP, SNOW",,,"PSY, SRG, SNOWBOARD",,,"FAA CWO",,,,,,,,,,,,,,,,,,,,,,,,,,,,"29.78","31","39","0.00",,,,"73","29.77","FEW:02 50","29.75","10.00","36","250",,"11",,,,,,,,,,,,,,,,,,,,,,,,,,,,,,,,,,,,,"MET10101/24/18 02:51:02 METAR KJFK 240751Z 25010KT 10SM FEW050 04/M01 A2978 RMK AO2 SLP082 T00391006 $ (JC)","FM-15","7",,,,,,,,,,,,,,,,,,,,,,,,,,,"2009-05-01"
"74486094789","2018-01-24T03:51:00","FM-15","7",,"ESE","1.5","mi","TEMP, PRECIP, SNOW",,,"PSY, SRG, SNOWBOARD",,,"FAA CWO",,,,,,,,,,,,,,,,,,,,,,,,,,,,"29.78","31","40","0.00",,"-0.03","1","70","29.78","FEW:02 50","29.75","10.00","36","250",,"14",,,,,,,,,,,,,,,,,,,,,,,,,,,,,,,,,,,,,"MET10701/24/18 03:51:02 METAR KJFK 240851Z 25012KT 10SM FEW050 04/M01 A2978 RMK AO2 SLP084 T00441006 51011 $ (JC)","FM-15","7",,,,,,,,,,,,,,,,,,,,,,,,,,,"2009-05-01"
"74486094789","2018-01-24T04:00:00","FM-12","4",,"ESE","1.5","mi","TEMP, PRECIP, SNOW",,,"PSY, SRG, SNOWBOARD",,,"FAA CWO",,,,,,,,,,,,,,,,,,,,,,,,,,,,,"31","40",,,"-0.03","1","70","29.78","57","29.75","9.94","36","250",,"14",,,,,,,,,,,,,,,,,,,,,,,,,,,,,,,,,,,,,"SYN06474486 32766 22512 10044 21006 30073 40084 51011 90851 555 92409=","FM-12","4",,,,,,,,,,,,,,,,,,,,,,,,,,,"2009-05-01"
"74486094789","2018-01-24T04:51:00","FM-15","7",,"ESE","1.5","mi","TEMP, PRECIP, SNOW",,,"PSY, SRG, SNOWBOARD",,,"FAA CWO",,,,,,,,,,,,,,,,,,,,,,,,,,,,"29.80","32","41","0.00",,,,"70","29.80","BKN:07 47","29.78","10.00","37","250",,"15",,,,,,,,,,,,,,,,,,,,,,,,,,,,,,,,,,,,,"MET10001/24/18 04:51:02 METAR KJFK 240951Z 25013KT 10SM BKN047 05/00 A2980 RMK AO2 SLP091 T00500000 $ (JC)","FM-15","7",,,,,,,,,,,,,,,,,,,,,,,,,,,"2009-05-01"
"74486094789","2018-01-24T05:51:00","FM-15","7",,"ESE","1.5","mi","TEMP, PRECIP, SNOW",,,"PSY, SRG, SNOWBOARD",,,"FAA CWO",,,,,,,,,,,,,,,,,,,,,,,,,,,,"29.83","31","42","0.00",,,,"65","29.83","OVC:08 45","29.80","10.00","37","260","26","16",,,,,,,,,,,,,,,,,,,,,,,,,,,,,,,,,,,,,"MET10401/24/18 05:51:02 METAR KJFK 241051Z 26014G23KT 10SM OVC045 06/M01 A2983 RMK AO2 SLP100 T00561006 $ (JC)","FM-15","7",,,,,,,,,,,,,,,,,,,,,,,,,,,"2009-05-01"
"74486094789","2018-01-24T06:51:00","FM-15","7",,"ESE","1.5","mi","TEMP, PRECIP, SNOW",,,"PSY, SRG, SNOWBOARD",,,"FAA CWO",,,,,,,,,,,,,,,,,,,,,,,,,,,,"29.86","30","42","0.00",,"-0.08","3","62","29.86","BKN:07 50","29.83","10.00","37","260",,"15",,,,,,,,,,,,,,,,,,,,,,,,,,,,,,,,,,,,,"MET12501/24/18 06:51:02 METAR KJFK 241151Z 26013KT 10SM BKN050 06/M01 A2986 RMK AO2 SLP111 70021 T00561011 10061 20022 53027 $ (BH)","FM-15","7",,,,,,,,,,,,,,,,,,,,,,,,,,,"2009-05-01"
"74486094789","2018-01-24T07:00:00","FM-12","4",,"ESE","1.5","mi","TEMP, PRECIP, SNOW",,,"PSY, SRG, SNOWBOARD",,,"FAA CWO",,,,,,,,,,,,,,,,,,,,,,,,,,,,,"30","42",,,"-0.08","3","62","29.86","57","29.83","9.94","37","260",,"15",,,,,,,,,,,,,,,,,,,,,,,,,,,,,,,,,,,,,"SYN08674486 32766 62613 10056 21011 30100 40111 53027 91151 333 10122 20022 70053 555 92412=","FM-12","4",,,,,,,,,,,,,,,,,,,,,,,,,,,"2009-05-01"
"74486094789","2018-01-24T07:51:00","FM-15","7",,"ESE","1.5","mi","TEMP, PRECIP, SNOW",,,"PSY, SRG, SNOWBOARD",,,"FAA CWO",,,,,,,,,,,,,,,,,,,,,,,,,,,,"29.89","29","42","0.00",,,,"60","29.88","BKN:07 47","29.87","10.00","37","270",,"17",,,,,,,,,,,,,,,,,,,,,,,,,,,,,,,,,,,,,"MET10101/24/18 07:51:02 METAR KJFK 241251Z 27015KT 10SM BKN047 06/M02 A2989 RMK AO2 SLP119 T00561017 $ (BH)","FM-15","7",,,,,,,,,,,,,,,,,,,,,,,,,,,"2009-05-01"
"74486094789","2018-01-24T08:51:00","FM-15","7",,"ESE","1.5","mi","TEMP, PRECIP, SNOW",,,"PSY, SRG, SNOWBOARD",,,"FAA CWO",,,,,,,,,,,,,,,,,,,,,,,,,,,,"29.92","26","42","0.00",,,,"53","29.92","FEW:02 45 BKN:07 60","29.90","10.00","36","300","29","20",,,,,,,,,,,,,,,,,,,,,,,,,,,,,,,,,,,,,"MET12901/24/18 08:51:02 METAR KJFK 241351Z 30017G25KT 10SM FEW045 BKN060 06/M03 A2992 RMK AO2 PK WND 29028/1326 SLP132 T00561033 $ (BH)","FM-15","7",,,,,,,,,,,,,,,,,,,,,,,,,,,"2009-05-01"
"74486094789","2018-01-24T09:51:00","FM-15","7",,"ESE","1.5","mi","TEMP, PRECIP, SNOW",,,"PSY, SRG, SNOWBOARD",,,"FAA CWO",,,,,,,,,,,,,,,,,,,,,,,,,,,,"29.96","25","42","0.00",,"-0.10","3","51","29.95","SCT:04 43 BKN:07 55","29.93","10.00","35","320",,"18",,,,,,,,,,,,,,,,,,,,,,,,,,,,,,,,,,,,,"MET12201/24/18 09:51:02 METAR KJFK 241451Z 32016KT 10SM SCT043 BKN055 06/M04 A2996 RMK AO2 SLP143 SCT V BKN T00561039 53033 (BH)","FM-15","7",,,,,,,,,,,,,,,,,,,,,,,,,,,"2009-05-01"
"74486094789","2018-01-24T10:00:00","FM-12","4",,"ESE","1.5","mi","TEMP, PRECIP, SNOW",,,"PSY, SRG, SNOWBOARD",,,"FAA CWO",,,,,,,,,,,,,,,,,,,,,,,,,,,,,"25","42",,,"-0.10","3","51","29.95","41","29.93","9.94","35","320",,"18",,,,,,,,,,,,,,,,,,,,,,,,,,,,,,,,,,,,,"SYN06474486 32666 63216 10056 21039 30134 40143 53033 91451 555 92415=","FM-12","4",,,,,,,,,,,,,,,,,,,,,,,,,,,"2009-05-01"
"74486094789","2018-01-24T10:51:00","FM-15","7",,"ESE","1.5","mi","TEMP, PRECIP, SNOW",,,"PSY, SRG, SNOWBOARD",,,"FAA CWO",,,,,,,,,,,,,,,,,,,,,,,,,,,,"29.96","24","42","0.00",,,,"49","29.96","SCT:04 42 SCT:04 50","29.93","10.00","35","290","28","20",,,,,,,,,,,,,,,,,,,,,,,,,,,,,,,,,,,,,"MET10901/24/18 10:51:02 METAR KJFK 241551Z 29017G24KT 10SM SCT042 SCT050 06/M04 A2996 RMK AO2 SLP144 T00561044 (BH)","FM-15","7",,,,,,,,,,,,,,,,,,,,,,,,,,,"2009-05-01"
"74486094789","2018-01-24T11:51:00","FM-15","7",,"ESE","1.5","mi","TEMP, PRECIP, SNOW",,,"PSY, SRG, SNOWBOARD",,,"FAA CWO",,,,,,,,,,,,,,,,,,,,,,,,,,,,"29.97","24","43","0.00",,,,"47","29.96","SCT:04 43 SCT:04 180","29.95","10.00","36","320",,"21",,,,,,,,,,,,,,,,,,,,,,,,,,,,,,,,,,,,,"MET10601/24/18 11:51:02 METAR KJFK 241651Z 32018KT 10SM SCT043 SCT180 06/M04 A2997 RMK AO2 SLP147 T00611044 (BH)","FM-15","7",,,,,,,,,,,,,,,,,,,,,,,,,,,"2009-05-01"
"74486094789","2018-01-24T12:51:00","SY-MT","7",,"ESE","1.5","mi","TEMP, PRECIP, SNOW",,,"PSY, SRG, SNOWBOARD",,,"FAA CWO",,,,,,,,,,,,,,,,,,,,,,,,,,,,"29.96","23","43","0.00",,"-0.00","0","45","29.96","SCT:04 43 SCT:04 180","29.93","10.00","35","310","28","17",,,,,,,,,,,,,,,,,,,,,,,,,,,,,,,,,,,,,"SYN08674486 32666 43115 10061 21050 30134 40144 50000 91751 333 10061 20050 91024 555 92418=MET12701/24/18 12:51:02 METAR KJFK 241751Z 31015G24KT 10SM SCT043 SCT180 06/M05 A2996 RMK AO2 SLP144 T00611050 10061 20050 50000 (BH)","SY-MT","7",,,,,,,,,,,,,,,,,,,,,,,,,,,"2009-05-01"
"74486094789","2018-01-24T13:51:00","FM-15","7",,"ESE","1.5","mi","TEMP, PRECIP, SNOW",,,"PSY, SRG, SNOWBOARD",,,"FAA CWO",,,,,,,,,,,,,,,,,,,,,,,,,,,,"29.96","22","42","0.00",,,,"45","29.96","SCT:04 47 SCT:04 180","29.93","10.00","35","300","28","20",,,,,,,,,,,,,,,,,,,,,,,,,,,,,,,,,,,,,"MET10901/24/18 13:51:02 METAR KJFK 241851Z 30017G24KT 10SM SCT047 SCT180 06/M06 A2996 RMK AO2 SLP144 T00561056 (BH)","FM-15","7",,,,,,,,,,,,,,,,,,,,,,,,,,,"2009-05-01"
"74486094789","2018-01-24T14:51:00","FM-15","7",,"ESE","1.5","mi","TEMP, PRECIP, SNOW",,,"PSY, SRG, SNOWBOARD",,,"FAA CWO",,,,,,,,,,,,,,,,,,,,,,,,,,,,"29.98","20","41","0.00",,,,"43","29.98","SCT:04 47","29.96","10.00","33","290","26","20",,,,,,,,,,,,,,,,,,,,,,,,,,,,,,,,,,,,,"MET10201/24/18 14:51:02 METAR KJFK 241951Z 29017G23KT 10SM SCT047 05/M07 A2998 RMK AO2 SLP152 T00501067 (RR)","FM-15","7",,,,,,,,,,,,,,,,,,,,,,,,,,,"2009-05-01"
"74486094789","2018-01-24T15:51:00","FM-15","7",,"ESE","1.5","mi","TEMP, PRECIP, SNOW",,,"PSY, SRG, SNOWBOARD",,,"FAA CWO",,,,,,,,,,,,,,,,,,,,,,,,,,,,"30.02","20","38","0.00",,"-0.06","3","48","30.01","SCT:04 44","30.00","10.00","32","310","24","18",,,,,,,,,,,,,,,,,,,,,,,,,,,,,,,,,,,,,"MET12601/24/18 15:51:02 METAR KJFK 242051Z 31016G21KT 10SM SCT044 03/M07 A3002 RMK AO2 PK WND 28026/1956 SLP164 T00331067 53020 (RR)","FM-15","7",,,,,,,,,,,,,,,,,,,,,,,,,,,"2009-05-01"
"74486094789","2018-01-24T16:00:00","FM-12","4",,"ESE","1.5","mi","TEMP, PRECIP, SNOW",,,"PSY, SRG, SNOWBOARD",,,"FAA CWO",,,,,,,,,,,,,,,,,,,,,,,,,,,,,"20","38",,,"-0.06","3","48","30.01","41","29.99","9.94","32","310",,"18",,,,,,,,,,,,,,,,,,,,,,,,,,,,,,,,,,,,,"SYN07474486 32666 43116 10033 21067 30155 40164 53020 92051 333 91021 555 92421=","FM-12","4",,,,,,,,,,,,,,,,,,,,,,,,,,,"2009-05-01"
"74486094789","2018-01-24T16:51:00","FM-15","7",,"ESE","1.5","mi","TEMP, PRECIP, SNOW",,,"PSY, SRG, SNOWBOARD",,,"FAA CWO",,,,,,,,,,,,,,,,,,,,,,,,,,,,"30.05","19","36","0.00",,,,"50","30.05","FEW:02 44 FEW:02 250","30.03","10.00","30","300","26","22",,,,,,,,,,,,,,,,,,,,,,,,,,,,,,,,,,,,,"MET10901/24/18 16:51:02 METAR KJFK 242151Z 30019G23KT 10SM FEW044 FEW250 02/M07 A3005 RMK AO2 SLP175 T00221072 (RR)","FM-15","7",,,,,,,,,,,,,,,,,,,,,,,,,,,"2009-05-01"
"74486094789","2018-01-24T17:51:00","FM-15","7",,"ESE","1.5","mi","TEMP, PRECIP, SNOW",,,"PSY, SRG, SNOWBOARD",,,"FAA CWO",,,,,,,,,,,,,,,,,,,,,,,,,,,,"30.07","18","34","0.00",,,,"52","30.07","FEW:02 44","30.04","10.00","29","290","29","18",,,,,,,,,,,,,,,,,,,,,,,,,,,,,,,,,,,,,"MET12001/24/18 17:51:02 METAR KJFK 242251Z 29016G25KT 10SM FEW044 01/M08 A3007 RMK AO2 PK WND 30026/2229 SLP183 T00111078 (RR)","FM-15","7",,,,,,,,,,,,,,,,,,,,,,,,,,,"2009-05-01"
"74486094789","2018-01-24T18:51:00","FM-15","7",,"ESE","1.5","mi","TEMP, PRECIP, SNOW",,,"PSY, SRG, SNOWBOARD",,,"FAA CWO",,,,,,,,,,,,,,,,,,,,,,,,,,,,"30.08","18","34","0.00",,"-0.07","1","52","30.08","FEW:02 44","30.06","10.00","29","300","26","20",,,,,,,,,,,,,,,,,,,,,,,,,,,,,,,,,,,,,"MET13801/24/18 18:51:02 METAR KJFK 242351Z 30017G23KT 10SM FEW044 01/M08 A3008 RMK AO2 PK WND 29026/2325 SLP187 T00111078 10061 20011 51023 (RR)","FM-15","7",,,,,,,,,,,,,,,,,,,,,,,,,,,"2009-05-01"
"74486094789","2018-01-24T19:00:00","FM-12","4",,"ESE","1.5","mi","TEMP, PRECIP, SNOW",,,"PSY, SRG, SNOWBOARD",,,"FAA CWO",,,,,,,,,,,,,,,,,,,,,,,,,,,,,"18","34",,,"-0.07","1","52","30.08","41","30.05","9.94","29","300",,"20",,,,,,,,,,,,,,,,,,,,,,,,,,,,,,,,,,,,,"SYN08674486 32666 23017 10011 21078 30175 40187 51023 92351 333 10061 20011 91023 555 92500=","FM-12","4",,,,,,,,,,,,,,,,,,,,,,,,,,,"2009-05-01"
"74486094789","2018-01-24T19:51:00","FM-15","7",,"ESE","1.5","mi","TEMP, PRECIP, SNOW",,,"PSY, SRG, SNOWBOARD",,,"FAA CWO",,,,,,,,,,,,,,,,,,,,,,,,,,,,"30.10","17","32","0.00",,,,"54","30.10","FEW:02 44","30.08","10.00","27","300",,"17",,,,,,,,,,,,,,,,,,,,,,,,,,,,,,,,,,,,,"MET09401/24/18 19:51:01 METAR KJFK 250051Z 30015KT 10SM FEW044 00/M08 A3010 RMK AO2 SLP194 T00001083","FM-15","7",,,,,,,,,,,,,,,,,,,,,,,,,,,"2009-05-01"
"74486094789","2018-01-24T20:51:00","FM-15","7",,"ESE","1.5","mi","TEMP, PRECIP, SNOW",,,"PSY, SRG, SNOWBOARD",,,"FAA CWO",,,,,,,,,,,,,,,,,,,,,,,,,,,,"30.13","14","31","0.00",,,,"49","30.12","FEW:02 44","30.11","10.00","26","310","28","21",,,,,,,,,,,,,,,,,,,,,,,,,,,,,,,,,,,,,"MET11601/24/18 20:51:01 METAR KJFK 250151Z 31018G24KT 10SM FEW044 M01/M10 A3013 RMK AO2 PK WND 32026/0132 SLP201 T10061100","FM-15","7",,,,,,,,,,,,,,,,,,,,,,,,,,,"2009-05-01"
"74486094789","2018-01-24T21:51:00","FM-15","7",,"ESE","1.5","mi","TEMP, PRECIP, SNOW",,,"PSY, SRG, SNOWBOARD",,,"FAA CWO",,,,,,,,,,,,,,,,,,,,,,,,,,,,"30.14","13","30","0.00",,"-0.06","1","49","30.14","FEW:02 44","30.11","10.00","25","310",,"18",,,,,,,,,,,,,,,,,,,,,,,,,,,,,,,,,,,,,"MET10101/24/18 21:51:01 METAR KJFK 250251Z 31016KT 10SM FEW044 M01/M11 A3014 RMK AO2 SLP207 T10111106 51020","FM-15","7",,,,,,,,,,,,,,,,,,,,,,,,,,,"2009-05-01"
"74486094789","2018-01-24T22:00:00","FM-12","4",,"ESE","1.5","mi","TEMP, PRECIP, SNOW",,,"PSY, SRG, SNOWBOARD",,,"FAA CWO",,,,,,,,,,,,,,,,,,,,,,,,,,,,,"13","30",,,"-0.06","1","49","30.14","41","30.11","9.94","25","310",,"18",,,,,,,,,,,,,,,,,,,,,,,,,,,,,,,,,,,,,"SYN06474486 32666 23116 11011 21106 30195 40207 51020 90251 555 92503=","FM-12","4",,,,,,,,,,,,,,,,,,,,,,,,,,,"2009-05-01"
"74486094789","2018-01-24T22:51:00","FM-15","7",,"ESE","1.5","mi","TEMP, PRECIP, SNOW",,,"PSY, SRG, SNOWBOARD",,,"FAA CWO",,,,,,,,,,,,,,,,,,,,,,,,,,,,"30.16","12","28","0.00",,,,"51","30.16","FEW:02 44","30.14","10.00","23","320",,"21",,,,,,,,,,,,,,,,,,,,,,,,,,,,,,,,,,,,,"MET09501/24/18 22:51:02 METAR KJFK 250351Z 32018KT 10SM FEW044 M02/M11 A3016 RMK AO2 SLP213 T10221111","FM-15","7",,,,,,,,,,,,,,,,,,,,,,,,,,,"2009-05-01"
"74486094789","2018-01-24T23:51:00","FM-15","7",,"ESE","1.5","mi","TEMP, PRECIP, SNOW",,,"PSY, SRG, SNOWBOARD",,,"FAA CWO",,,,,,,,,,,,,,,,,,,,,,,,,,,,"30.17","12","27","0.00",,,,"53","30.16","FEW:02 45","30.14","10.00","23","330",,"14",,,,,,,,,,,,,,,,,,,,,,,,,,,,,,,,,,,,,"MET10501/24/18 23:51:02 METAR KJFK 250451Z 33012KT 10SM FEW045 M03/M11 A3017 RMK AO2 SLP214 T10281111 400671028","FM-15","7",,,,,,,,,,,,,,,,,,,,,,,,,,,"2009-05-01"
"74486094789","2018-01-24T23:59:00","SOD  ","6",,"ESE","1.5","mi","TEMP, PRECIP, SNOW",,,"PSY, SRG, SNOWBOARD",,,"FAA CWO",,,,,,"23","36","55","29.96","29.88","33","17.3","0","3.6","29","44","27","290","32","0.00","0","0.0","310","25",,,,,,,,,,,,,,,,,,,,,,,,,,,,,,,,,,,,,,,,,,,,,,,,,,,,,,,,"SOD73924 HR PRECIPITATION (IN): 0.00 SNOW DEPTH (IN):0     24 HR SNOWFALL (IN):0.0  24 HR MAX TEMP (F): 4424 HR MIN TEMP (F): 27AVERAGE STATION PRESSURE:29.885 MINIMUM SEA LEVEL PRESSURE:29.74 TIME OF OCCURRENCE:0103 PEAK WIND SPEED (MPH): 32 PEAK WIND DIR (DEG):290 PEAK WIND TIME (LST):      FASTEST 2MIN SPEED (MPH): 25FASTEST 2MIN DIR (DEG):310 FASTEST 2MIN TIME (LST):     AVERAGE WIND SPEED (MPH):17.3 24 HR AVG TEMP (F): 36DEPART FROM NORMAL:  4  HEATING DEGREE DAYS: 29 COOLING DEGREE DAYS:  0 LATEST DAY MAX TEMP (0700-1900 LST):43  LATEST NIGHT MIN TEMP(1900-0800 LST):36 HOURLY INCREMENTAL PRECIPITATION VALUES (IN):.00 0.00 0.00 0.00 0.00 0.00 0.00 0.00 0.00 0.00 0.00 0.00 0.00 0.00 0.00 0.00 0.00 0.00 0.00 0.00 0.00 0.00 0.00 0.00","SOD  ","6",,,,,,,,,,,,,,,,,,,,,,,,,"0712","1703","2009-05-01"
"74486094789","2018-01-25T00:51:00","FM-15","7",,"ESE","1.5","mi","TEMP, PRECIP, SNOW",,,"PSY, SRG, SNOWBOARD",,,"FAA CWO",,,,,,,,,,,,,,,,,,,,,,,,,,,,"30.15","12","26","0.00",,"-0.01","0","55","30.15","FEW:02 150","30.12","10.00","22","330",,"18",,,,,,,,,,,,,,,,,,,,,,,,,,,,,,,,,,,,,"MET11801/25/18 00:51:02 METAR KJFK 250551Z 33016KT 10SM FEW150 M03/M11 A3015 RMK AO2 SLP210 T10331111 10011 21033 50003 (JC)","FM-15","7",,,,,,,,,,,,,,,,,,,,,,,,,,,"2009-05-01"
"74486094789","2018-01-25T01:00:00","FM-12","4",,"ESE","1.5","mi","TEMP, PRECIP, SNOW",,,"PSY, SRG, SNOWBOARD",,,"FAA CWO",,,,,,,,,,,,,,,,,,,,,,,,,,,,,"12","26",,,"0.01","9","55","30.15",,"30.12","9.94","22","330",,"18",,,,,,,,,,,,,,,,,,,,,,,,,,,,,,,,,,,,,"SYN08074486 32966 23316 11033 21111 30199 40210 50003 90551 333 10061 21033 555 92506=","FM-12","4",,,,,,,,,,,,,,,,,,,,,,,,,,,"2009-05-01"
"74486094789","2018-01-25T01:51:00","FM-15","7",,"ESE","1.5","mi","TEMP, PRECIP, SNOW",,,"PSY, SRG, SNOWBOARD",,,"FAA CWO",,,,,,,,,,,,,,,,,,,,,,,,,,,,"30.18","11","25","0.00",,,,"55","30.18","BKN:07 180","30.16","10.00","21","330",,"21",,,,,,,,,,,,,,,,,,,,,,,,,,,,,,,,,,,,,"MET10001/25/18 01:51:02 METAR KJFK 250651Z 33018KT 10SM BKN180 M04/M12 A3018 RMK AO2 SLP219 T10391117 (JC)","FM-15","7",,,,,,,,,,,,,,,,,,,,,,,,,,,"2009-05-01"
"74486094789","2018-01-25T02:51:00","FM-15","7",,"ESE","1.5","mi","TEMP, PRECIP, SNOW",,,"PSY, SRG, SNOWBOARD",,,"FAA CWO",,,,,,,,,,,,,,,,,,,,,,,,,,,,"30.21","11","24","0.00",,,,"57","30.21","BKN:07 190","30.19","10.00","20","330",,"16",,,,,,,,,,,,,,,,,,,,,,,,,,,,,,,,,,,,,"MET10001/25/18 02:51:02 METAR KJFK 250751Z 33014KT 10SM BKN190 M04/M12 A3021 RMK AO2 SLP230 T10441117 (JC)","FM-15","7",,,,,,,,,,,,,,,,,,,,,,,,,,,"2009-05-01"
"74486094789","2018-01-25T03:51:00","FM-15","7",,"ESE","1.5","mi","TEMP, PRECIP, SNOW",,,"PSY, SRG, SNOWBOARD",,,"FAA CWO",,,,,,,,,,,,,,,,,,,,,,,,,,,,"30.24","10","23","0.00",,"-0.08","1","57","30.23","BKN:07 150","30.22","10.00","19","330",,"14",,,,,,,,,,,,,,,,,,,,,,,,,,,,,,,,,,,,,"MET10601/25/18 03:51:02 METAR KJFK 250851Z 33012KT 10SM BKN150 M05/M12 A3024 RMK AO2 SLP238 T10501122 51027 (JC)","FM-15","7",,,,,,,,,,,,,,,,,,,,,,,,,,,"2009-05-01"
"74486094789","2018-01-25T04:00:00","FM-12","4",,"ESE","1.5","mi","TEMP, PRECIP, SNOW",,,"PSY, SRG, SNOWBOARD",,,"FAA CWO",,,,,,,,,,,,,,,,,,,,,,,,,,,,,"10","23",,,"-0.08","1","57","30.23",,"30.21","9.94","19","330",,"14",,,,,,,,,,,,,,,,,,,,,,,,,,,,,,,,,,,,,"SYN06474486 32966 63312 11050 21122 30229 40238 51027 90851 555 92509=","FM-12","4",,,,,,,,,,,,,,,,,,,,,,,,,,,"2009-05-01"
"74486094789","2018-01-25T04:51:00","FM-15","7",,"ESE","1.5","mi","TEMP, PRECIP, SNOW",,,"PSY, SRG, SNOWBOARD",,,"FAA CWO",,,,,,,,,,,,,,,,,,,,,,,,,,,,"30.27","9","23","0.00",,,,"55","30.27","SCT:04 150","30.24","10.00","19","310","23","17",,,,,,,,,,,,,,,,,,,,,,,,,,,,,,,,,,,,,"MET10301/25/18 04:51:02 METAR KJFK 250951Z 31015G20KT 10SM SCT150 M05/M13 A3027 RMK AO2 SLP249 T10501128 (JC)","FM-15","7",,,,,,,,,,,,,,,,,,,,,,,,,,,"2009-05-01"
"74486094789","2018-01-25T05:51:00","FM-15","7",,"ESE","1.5","mi","TEMP, PRECIP, SNOW",,,"PSY, SRG, SNOWBOARD",,,"FAA CWO",,,,,,,,,,,,,,,,,,,,,,,,,,,,"30.29","10","23","0.00",,,,"57","30.28","SCT:04 150 BKN:07 250","30.27","10.00","19","320",,"14",,,,,,,,,,,,,,,,,,,,,,,,,,,,,,,,,,,,,"MET10701/25/18 05:51:02 METAR KJFK 251051Z 32012KT 10SM SCT150 BKN250 M05/M12 A3029 RMK AO2 SLP255 T10501122 (JC)","FM-15","7",,,,,,,,,,,,,,,,,,,,,,,,,,,"2009-05-01"
"74486094789","2018-01-25T06:51:00","FM-15","7",,"ESE","1.5","mi","TEMP, PRECIP, SNOW",,,"PSY, SRG, SNOWBOARD",,,"FAA CWO",,,,,,,,,,,,,,,,,,,,,,,,,,,,"30.31","11","24","0.00",,"-0.08","1","57","30.31","FEW:02 35 FEW:02 150 SCT:04 200","30.29","10.00","20","310","23","17",,,,,,,,,,,,,,,,,,,,,,,,,,,,,,,,,,,,,"MET13501/25/18 06:51:02 METAR KJFK 251151Z 31015G20KT 10SM FEW035 FEW150 SCT200 M04/M12 A3031 RMK AO2 SLP264 T10441117 11033 21050 51027 (BH)","FM-15","7",,,,,,,,,,,,,,,,,,,,,,,,,,,"2009-05-01"
"74486094789","2018-01-25T07:00:00","FM-12","4",,"ESE","1.5","mi","TEMP, PRECIP, SNOW",,,"PSY, SRG, SNOWBOARD",,,"FAA CWO",,,,,,,,,,,,,,,,,,,,,,,,,,,,,"11","24",,,"-0.08","1","57","30.31","41","30.28","9.94","20","310",,"17",,,,,,,,,,,,,,,,,,,,,,,,,,,,,,,,,,,,,"SYN08674486 32666 43115 11044 21117 30253 40264 51027 91151 333 10067 21050 91020 555 92512=","FM-12","4",,,,,,,,,,,,,,,,,,,,,,,,,,,"2009-05-01"
"74486094789","2018-01-25T07:51:00","FM-15","7",,"ESE","1.5","mi","TEMP, PRECIP, SNOW",,,"PSY, SRG, SNOWBOARD",,,"FAA CWO",,,,,,,,,,,,,,,,,,,,,,,,,,,,"30.34","11","25","0.00",,,,"55","30.33","FEW:02 35 SCT:04 200","30.32","10.00","21","310",,"17",,,,,,,,,,,,,,,,,,,,,,,,,,,,,,,,,,,,,"MET10701/25/18 07:51:02 METAR KJFK 251251Z 31015KT 10SM FEW035 SCT200 M04/M12 A3034 RMK AO2 SLP272 T10391117 (BH)","FM-15","7",,,,,,,,,,,,,,,,,,,,,,,,,,,"2009-05-01"
"74486094789","2018-01-25T08:51:00","FM-15","7",,"ESE","1.5","mi","TEMP, PRECIP, SNOW",,,"PSY, SRG, SNOWBOARD",,,"FAA CWO",,,,,,,,,,,,,,,,,,,,,,,,,,,,"30.36","10","27","0.00",,,,"49","30.35","FEW:02 38 FEW:02 150 SCT:04 220","30.34","10.00","22","310",,"22",,,,,,,,,,,,,,,,,,,,,,,,,,,,,,,,,,,,,"MET11401/25/18 08:51:02 METAR KJFK 251351Z 31019KT 10SM FEW038 FEW150 SCT220 M03/M12 A3036 RMK AO2 SLP278 T10281122 (BH)","FM-15","7",,,,,,,,,,,,,,,,,,,,,,,,,,,"2009-05-01"
"74486094789","2018-01-25T09:51:00","FM-15","7",,"ESE","1.5","mi","TEMP, PRECIP, SNOW",,,"PSY, SRG, SNOWBOARD",,,"FAA CWO",,,,,,,,,,,,,,,,,,,,,,,,,,,,"30.38","9","30","0.00",,"-0.06","1","41","30.37","FEW:02 43 SCT:04 220","30.35","10.00","24","320","25","20",,,,,,,,,,,,,,,,,,,,,,,,,,,,,,,,,,,,,"MET11601/25/18 09:51:02 METAR KJFK 251451Z 32017G22KT 10SM FEW043 SCT220 M01/M13 A3038 RMK AO2 SLP286 T10111128 51022 (BH)","FM-15","7",,,,,,,,,,,,,,,,,,,,,,,,,,,"2009-05-01"
"74486094789","2018-01-25T10:00:00","FM-12","4",,"ESE","1.5","mi","TEMP, PRECIP, SNOW",,,"PSY, SRG, SNOWBOARD",,,"FAA CWO",,,,,,,,,,,,,,,,,,,,,,,,,,,,,"9","30",,,"-0.06","1","41","30.37","41","30.35","9.94","24","320",,"20",,,,,,,,,,,,,,,,,,,,,,,,,,,,,,,,,,,,,"SYN07474486 32666 43217 11011 21128 30276 40286 51022 91451 333 91022 555 92515=","FM-12","4",,,,,,,,,,,,,,,,,,,,,,,,,,,"2009-05-01"
"74486094789","2018-01-25T10:51:00","FM-15","7",,"ESE","1.5","mi","TEMP, PRECIP, SNOW",,,"PSY, SRG, SNOWBOARD",,,"FAA CWO",,,,,,,,,,,,,,,,,,,,,,,,,,,,"30.39","6","31","0.00",,,,"35","30.39","FEW:02 50 FEW:02 250","30.37","10.00","24","310",,"18",,,,,,,,,,,,,,,,,,,,,,,,,,,,,,,,,,,,,"MET10701/25/18 10:51:02 METAR KJFK 251551Z 31016KT 10SM FEW050 FEW250 M01/M14 A3039 RMK AO2 SLP291 T10061144 (BH)","FM-15","7",,,,,,,,,,,,,,,,,,,,,,,,,,,"2009-05-01"
"74486094789","2018-01-25T11:51:00","FM-15","7",,"ESE","1.5","mi","TEMP, PRECIP, SNOW",,,"PSY, SRG, SNOWBOARD",,,"FAA CWO",,,,,,,,,,,,,,,,,,,,,,,,,,,,"30.39","3","32","0.00",,,,"29","30.39","FEW:02 60 FEW:02 250","30.37","10.00","24","320","31","21",,,,,,,,,,,,,,,,,,,,,,,,,,,,,,,,,,,,,"MET12701/25/18 11:51:02 METAR KJFK 251651Z 32018G27KT 10SM FEW060 FEW250 00/M16 A3039 RMK AO2 PK WND 31027/1649 SLP291 T00001161 (BH)","FM-15","7",,,,,,,,,,,,,,,,,,,,,,,,,,,"2009-05-01"
"74486094789","2018-01-25T12:51:00","FM-15","7",,"ESE","1.5","mi","TEMP, PRECIP, SNOW",,,"PSY, SRG, SNOWBOARD",,,"FAA CWO",,,,,,,,,,,,,,,,,,,,,,,,,,,,"30.38","1","33","0.00",,"-0.00","0","25","30.37","FEW:02 250","30.35","10.00","25","330",,"16",,,,,,,,,,,,,,,,,,,,,,,,,,,,,,,,,,,,,"MET13501/25/18 12:51:02 METAR KJFK 251751Z 33014KT 10SM FEW250 01/M17 A3038 RMK AO2 PK WND 33027/1739 SLP286 T00061172 10006 21044 50000 (BH)","FM-15","7",,,,,,,,,,,,,,,,,,,,,,,,,,,"2009-05-01"
"74486094789","2018-01-25T13:00:00","FM-12","4",,"ESE","1.5","mi","TEMP, PRECIP, SNOW",,,"PSY, SRG, SNOWBOARD",,,"FAA CWO",,,,,,,,,,,,,,,,,,,,,,,,,,,,,"1","33",,,"0.00","9","25","30.37",,"30.35","9.94","25","330",,"16",,,,,,,,,,,,,,,,,,,,,,,,,,,,,,,,,,,,,"SYN08074486 32966 23314 10006 21172 30276 40286 50000 91751 333 10006 21044 555 92518=","FM-12","4",,,,,,,,,,,,,,,,,,,,,,,,,,,"2009-05-01"
"74486094789","2018-01-25T13:51:00","FM-15","7",,"ESE","1.5","mi","TEMP, PRECIP, SNOW",,,"PSY, SRG, SNOWBOARD",,,"FAA CWO",,,,,,,,,,,,,,,,,,,,,,,,,,,,"30.40","0","34","0.00",,,,"23","30.40","CLR:00","30.37","10.00","25","320","23","13",,,,,,,,,,,,,,,,,,,,,,,,,,,,,,,,,,,,,"MET09901/25/18 13:51:02 METAR KJFK 251851Z 32011G20KT 10SM CLR 01/M18 A3040 RMK AO2 SLP293 T00111178 (BH)","FM-15","7",,,,,,,,,,,,,,,,,,,,,,,,,,,"2009-05-01"
"74486094789","2018-01-25T14:51:00","FM-15","7",,"ESE","1.5","mi","TEMP, PRECIP, SNOW",,,"PSY, SRG, SNOWBOARD",,,"FAA CWO",,,,,,,,,,,,,,,,,,,,,,,,,,,,"30.41","-2","35","0.00",,,,"20","30.40","CLR:00","30.38","10.00","25","350",,"14",,,,,,,,,,,,,,,,,,,,,,,,,,,,,,,,,,,,,"MET09601/25/18 14:51:02 METAR KJFK 251951Z 35012KT 10SM CLR 02/M19 A3041 RMK AO2 SLP295 T00171189 (RR)","FM-15","7",,,,,,,,,,,,,,,,,,,,,,,,,,,"2009-05-01"
"74486094789","2018-01-25T15:51:00","FM-15","7",,"ESE","1.5","mi","TEMP, PRECIP, SNOW",,,"PSY, SRG, SNOWBOARD",,,"FAA CWO",,,,,,,,,,,,,,,,,,,,,,,,,,,,"30.44","0","34","0.00",,"-0.06","3","23","30.43","CLR:00","30.42","10.00","25","310","25","20",,,,,,,,,,,,,,,,,,,,,,,,,,,,,,,,,,,,,"MET10501/25/18 15:51:02 METAR KJFK 252051Z 31017G22KT 10SM CLR 01/M18 A3044 RMK AO2 SLP306 T00111178 53019 (RR)","FM-15","7",,,,,,,,,,,,,,,,,,,,,,,,,,,"2009-05-01"
"74486094789","2018-01-25T16:00:00","FM-12","4",,"ESE","1.5","mi","TEMP, PRECIP, SNOW",,,"PSY, SRG, SNOWBOARD",,,"FAA CWO",,,,,,,,,,,,,,,,,,,,,,,,,,,,,"0","34",,,"-0.06","3","23","30.43",,"30.41","9.94","25","310",,"20",,,,,,,,,,,,,,,,,,,,,,,,,,,,,,,,,,,,,"SYN07474486 32966 03117 10011 21178 30297 40306 53019 92051 333 91022 555 92521=","FM-12","4",,,,,,,,,,,,,,,,,,,,,,,,,,,"2009-05-01"
"74486094789","2018-01-25T16:51:00","FM-15","7",,"ESE","1.5","mi","TEMP, PRECIP, SNOW",,,"PSY, SRG, SNOWBOARD",,,"FAA CWO",,,,,,,,,,,,,,,,,,,,,,,,,,,,"30.46","-2","32","0.00",,,,"23","30.45","CLR:00","30.43","10.00","24","310",,"17",,,,,,,,,,,,,,,,,,,,,,,,,,,,,,,,,,,,,"MET09601/25/18 16:51:02 METAR KJFK 252151Z 31015KT 10SM CLR 00/M19 A3046 RMK AO2 SLP312 T00001189 (RR)","FM-15","7",,,,,,,,,,,,,,,,,,,,,,,,,,,"2009-05-01"
"74486094789","2018-01-25T17:51:00","FM-15","7",,"ESE","1.5","mi","TEMP, PRECIP, SNOW",,,"PSY, SRG, SNOWBOARD",,,"FAA CWO",,,,,,,,,,,,,,,,,,,,,,,,,,,,"30.48","0","31","0.00",,,,"26","30.48","CLR:00","30.45","10.00","23","320",,"13",,,,,,,,,,,,,,,,,,,,,,,,,,,,,,,,,,,,,"MET09701/25/18 17:51:02 METAR KJFK 252251Z 32011KT 10SM CLR M01/M18 A3048 RMK AO2 SLP321 T10061178 (RR)","FM-15","7",,,,,,,,,,,,,,,,,,,,,,,,,,,"2009-05-01"
"74486094789","2018-01-25T18:51:00","FM-15","7",,"ESE","1.5","mi","TEMP, PRECIP, SNOW",,,"PSY, SRG, SNOWBOARD",,,"FAA CWO",,,,,,,,,,,,,,,,,,,,,,,,,,,,"30.52","0","32","0.00",,"-0.08","3","25","30.51","CLR:00","30.50","10.00","24","330",,"16",,,,,,,,,,,,,,,,,,,,,,,,,,,,,,,,,,,,,"MET11401/25/18 18:51:02 METAR KJFK 252351Z 33014KT 10SM CLR 00/M18 A3052 RMK AO2 SLP333 T00001178 10017 21006 53028 (RR)","FM-15","7",,,,,,,,,,,,,,,,,,,,,,,,,,,"2009-05-01"
"74486094789","2018-01-25T19:00:00","FM-12","4",,"ESE","1.5","mi","TEMP, PRECIP, SNOW",,,"PSY, SRG, SNOWBOARD",,,"FAA CWO",,,,,,,,,,,,,,,,,,,,,,,,,,,,,"0","32",,,"-0.08","3","25","30.51",,"30.49","9.94","24","330",,"16",,,,,,,,,,,,,,,,,,,,,,,,,,,,,,,,,,,,,"SYN08074486 32966 03314 10000 21178 30324 40333 53028 92351 333 10017 21050 555 92600=","FM-12","4",,,,,,,,,,,,,,,,,,,,,,,,,,,"2009-05-01"
"74486094789","2018-01-25T19:51:00","FM-15","7",,"ESE","1.5","mi","TEMP, PRECIP, SNOW",,,"PSY, SRG, SNOWBOARD",,,"FAA CWO",,,,,,,,,,,,,,,,,,,,,,,,,,,,"30.54","0","30","0.00",,,,"27","30.54","CLR:00","30.51","10.00","22","340",,"11",,,,,,,,,,,,,,,,,,,,,,,,,,,,,,,,,,,,,"MET09201/25/18 19:51:01 METAR KJFK 260051Z 34010KT 10SM CLR M01/M18 A3054 RMK AO2 SLP341 T10111178","FM-15","7",,,,,,,,,,,,,,,,,,,,,,,,,,,"2009-05-01"
"74486094789","2018-01-25T20:51:00","FM-15","7",,"ESE","1.5","mi","TEMP, PRECIP, SNOW",,,"PSY, SRG, SNOWBOARD",,,"FAA CWO",,,,,,,,,,,,,,,,,,,,,,,,,,,,"30.55","0","29","0.00",,,,"28","30.55","FEW:02 90","30.53","10.00","22","340",,"10",,,,,,,,,,,,,,,,,,,,,,,,,,,,,,,,,,,,,"MET09501/25/18 20:51:01 METAR KJFK 260151Z 34009KT 10SM FEW090 M02/M18 A3055 RMK AO2 SLP346 T10171178","FM-15","7",,,,,,,,,,,,,,,,,,,,,,,,,,,"2009-05-01"
"74486094789","2018-01-25T21:51:00","FM-15","7",,"ESE","1.5","mi","TEMP, PRECIP, SNOW",,,"PSY, SRG, SNOWBOARD",,,"FAA CWO",,,,,,,,,,,,,,,,,,,,,,,,,,,,"30.57","0","29","0.00",,"-0.06","1","28","30.57","SCT:04 110","30.55","10.00","22","340",,"10",,,,,,,,,,,,,,,,,,,,,,,,,,,,,,,,,,,,,"MET10101/25/18 21:51:01 METAR KJFK 260251Z 34009KT 10SM SCT110 M02/M18 A3057 RMK AO2 SLP352 T10171178 51019","FM-15","7",,,,,,,,,,,,,,,,,,,,,,,,,,,"2009-05-01"
"74486094789","2018-01-25T22:00:00","FM-12","4",,"ESE","1.5","mi","TEMP, PRECIP, SNOW",,,"PSY, SRG, SNOWBOARD",,,"FAA CWO",,,,,,,,,,,,,,,,,,,,,,,,,,,,,"0","29",,,"-0.06","1","28","30.57",,"30.54","9.94","22","340",,"10",,,,,,,,,,,,,,,,,,,,,,,,,,,,,,,,,,,,,"SYN06474486 32966 43409 11017 21178 30341 40352 51019 90251 555 92603=","FM-12","4",,,,,,,,,,,,,,,,,,,,,,,,,,,"2009-05-01"
"74486094789","2018-01-25T22:51:00","FM-15","7",,"ESE","1.5","mi","TEMP, PRECIP, SNOW",,,"PSY, SRG, SNOWBOARD",,,"FAA CWO",,,,,,,,,,,,,,,,,,,,,,,,,,,,"30.59","1","27","0.00",,,,"32","30.59","SCT:04 110","30.56","10.00","21","350",,"8",,,,,,,,,,,,,,,,,,,,,,,,,,,,,,,,,,,,,"MET09501/25/18 22:51:02 METAR KJFK 260351Z 35007KT 10SM SCT110 M03/M17 A3059 RMK AO2 SLP358 T10281172","FM-15","7",,,,,,,,,,,,,,,,,,,,,,,,,,,"2009-05-01"
"74486094789","2018-01-25T23:51:00","FM-15","7",,"ESE","1.5","mi","TEMP, PRECIP, SNOW",,,"PSY, SRG, SNOWBOARD",,,"FAA CWO",,,,,,,,,,,,,,,,,,,,,,,,,,,,"30.59","2","28","0.00",,,,"32","30.59","BKN:07 90","30.56","10.00","21","340",,"7",,,,,,,,,,,,,,,,,,,,,,,,,,,,,,,,,,,,,"MET10501/25/18 23:51:02 METAR KJFK 260451Z 34006KT 10SM BKN090 M02/M17 A3059 RMK AO2 SLP359 T10221167 400171050","FM-15","7",,,,,,,,,,,,,,,,,,,,,,,,,,,"2009-05-01"
"74486094789","2018-01-25T23:59:00","SOD  ","6",,"ESE","1.5","mi","TEMP, PRECIP, SNOW",,,"PSY, SRG, SNOWBOARD",,,"FAA CWO",,,,,,"5","29","37","30.39","30.31","22","15.4","0","-3.5","36","35","23","310","31","0.00","0","0.0","320","24",,,,,,,,,,,,,,,,,,,,,,,,,,,,,,,,,,,,,,,,,,,,,,,,,,,,,,,,"SOD73924 HR PRECIPITATION (IN): 0.00 SNOW DEPTH (IN):0     24 HR SNOWFALL (IN):0.0  24 HR MAX TEMP (F): 3524 HR MIN TEMP (F): 23AVERAGE STATION PRESSURE:30.310 MINIMUM SEA LEVEL PRESSURE:30.15 TIME OF OCCURRENCE:0119 PEAK WIND SPEED (MPH): 31 PEAK WIND DIR (DEG):310 PEAK WIND TIME (LST):      FASTEST 2MIN SPEED (MPH): 24FASTEST 2MIN DIR (DEG):320 FASTEST 2MIN TIME (LST):     AVERAGE WIND SPEED (MPH):15.4 24 HR AVG TEMP (F): 29DEPART FROM NORMAL: -3  HEATING DEGREE DAYS: 36 COOLING DEGREE DAYS:  0 LATEST DAY MAX TEMP (0700-1900 LST):35  LATEST NIGHT MIN TEMP(1900-0800 LST):23 HOURLY INCREMENTAL PRECIPITATION VALUES (IN):.00 0.00 0.00 0.00 0.00 0.00 0.00 0.00 0.00 0.00 0.00 0.00 0.00 0.00 0.00 0.00 0.00 0.00 0.00 0.00 0.00 0.00 0.00 0.00","SOD  ","6",,,,,,,,,,,,,,,,,,,,,,,,,"0711","1704","2009-05-01"
"74486094789","2018-01-26T00:51:00","FM-15","7",,"ESE","1.5","mi","TEMP, PRECIP, SNOW",,,"PSY, SRG, SNOWBOARD",,,"FAA CWO",,,,,,,,,,,,,,,,,,,,,,,,,,,,"30.60","3","27","0.00",,"-0.02","1","35","30.60","BKN:07 80","30.58","10.00","21","360",,"6",,,,,,,,,,,,,,,,,,,,,,,,,,,,,,,,,,,,,"MET11801/26/18 00:51:02 METAR KJFK 260551Z 36005KT 10SM BKN080 M03/M16 A3060 RMK AO2 SLP361 T10281161 10000 21033 51008 (JC)","FM-15","7",,,,,,,,,,,,,,,,,,,,,,,,,,,"2009-05-01"
"74486094789","2018-01-26T01:00:00","FM-12","4",,"ESE","1.5","mi","TEMP, PRECIP, SNOW",,,"PSY, SRG, SNOWBOARD",,,"FAA CWO",,,,,,,,,,,,,,,,,,,,,,,,,,,,,"3","27",,,"-0.02","1","35","30.60","74","30.57","9.94","21","360",,"6",,,,,,,,,,,,,,,,,,,,,,,,,,,,,,,,,,,,,"SYN08074486 32866 63605 11028 21161 30351 40361 51008 90551 333 10000 21050 555 92606=","FM-12","4",,,,,,,,,,,,,,,,,,,,,,,,,,,"2009-05-01"
"74486094789","2018-01-26T01:51:00","FM-15","7",,"ESE","1.5","mi","TEMP, PRECIP, SNOW",,,"PSY, SRG, SNOWBOARD",,,"FAA CWO",,,,,,,,,,,,,,,,,,,,,,,,,,,,"30.62","2","28","0.00",,,,"32","30.61","BKN:07 80","30.60","10.00","21","330",,"6",,,,,,,,,,,,,,,,,,,,,,,,,,,,,,,,,,,,,"MET10001/26/18 01:51:02 METAR KJFK 260651Z 33005KT 10SM BKN080 M02/M17 A3062 RMK AO2 SLP367 T10221167 (JC)","FM-15","7",,,,,,,,,,,,,,,,,,,,,,,,,,,"2009-05-01"
"74486094789","2018-01-26T02:51:00","FM-15","7",,"ESE","1.5","mi","TEMP, PRECIP, SNOW",,,"PSY, SRG, SNOWBOARD",,,"FAA CWO",,,,,,,,,,,,,,,,,,,,,,,,,,,,"30.62","0","26","0.00",,,,"32","30.62","FEW:02 80","30.60","10.00","20","310",,"8",,,,,,,,,,,,,,,,,,,,,,,,,,,,,,,,,,,,,"MET10001/26/18 02:51:02 METAR KJFK 260751Z 31007KT 10SM FEW080 M03/M18 A3062 RMK AO2 SLP368 T10331178 (JC)","FM-15","7",,,,,,,,,,,,,,,,,,,,,,,,,,,"2009-05-01"
"74486094789","2018-01-26T03:51:00","FM-15","7",,"ESE","1.5","mi","TEMP, PRECIP, SNOW",,,"PSY, SRG, SNOWBOARD",,,"FAA CWO",,,,,,,,,,,,,,,,,,,,,,,,,,,,"30.64","1","25","0.00",,"-0.04","1","35","30.63","FEW:02 80","30.61","10.00","19","330",,"7",,,,,,,,,,,,,,,,,,,,,,,,,,,,,,,,,,,,,"MET10601/26/18 03:51:02 METAR KJFK 260851Z 33006KT 10SM FEW080 M04/M17 A3064 RMK AO2 SLP373 T10391172 51013 (JC)","FM-15","7",,,,,,,,,,,,,,,,,,,,,,,,,,,"2009-05-01"
"74486094789","2018-01-26T04:00:00","FM-12","4",,"ESE","1.5","mi","TEMP, PRECIP, SNOW",,,"PSY, SRG, SNOWBOARD",,,"FAA CWO",,,,,,,,,,,,,,,,,,,,,,,,,,,,,"1","25",,,"-0.04","1","35","30.63","74","30.60","9.94","19","330",,"7",,,,,,,,,,,,,,,,,,,,,,,,,,,,,,,,,,,,,"SYN06474486 32866 23306 11039 21172 30364 40373 51013 90851 555 92609=","FM-12","4",,,,,,,,,,,,,,,,,,,,,,,,,,,"2009-05-01"
"74486094789","2018-01-26T04:51:00","FM-15","7",,"ESE","1.5","mi","TEMP, PRECIP, SNOW",,,"PSY, SRG, SNOWBOARD",,,"FAA CWO",,,,,,,,,,,,,,,,,,,,,,,,,,,,"30.65","2","25","0.00",,,,"37","30.65","CLR:00","30.63","10.00","19","340",,"7",,,,,,,,,,,,,,,,,,,,,,,,,,,,,,,,,,,,,"MET09701/26/18 04:51:02 METAR KJFK 260951Z 34006KT 10SM CLR M04/M17 A3065 RMK AO2 SLP378 T10391167 (JC)","FM-15","7",,,,,,,,,,,,,,,,,,,,,,,,,,,"2009-05-01"
"74486094789","2018-01-26T05:51:00","FM-15","7",,"ESE","1.5","mi","TEMP, PRECIP, SNOW",,,"PSY, SRG, SNOWBOARD",,,"FAA CWO",,,,,,,,,,,,,,,,,,,,,,,,,,,,"30.67","5","25","0.00",,,,"42","30.67","CLR:00","30.64","10.00","20","010",,"7",,,,,,,,,,,,,,,,,,,,,,,,,,,,,,,,,,,,,"MET09701/26/18 05:51:02 METAR KJFK 261051Z 01006KT 10SM CLR M04/M15 A3067 RMK AO2 SLP385 T10391150 (JC)","FM-15","7",,,,,,,,,,,,,,,,,,,,,,,,,,,"2009-05-01"
"74486094789","2018-01-26T06:51:00","FM-15","7",,"ESE","1.5","mi","TEMP, PRECIP, SNOW",,,"PSY, SRG, SNOWBOARD",,,"FAA CWO",,,,,,,,,,,,,,,,,,,,,,,,,,,,"30.70","3","24","0.00",,"-0.06","3","40","30.70","FEW:02 250","30.68","10.00","19","350",,"5",,,,,,,,,,,,,,,,,,,,,,,,,,,,,,,,,,,,,"MET11801/26/18 06:51:02 METAR KJFK 261151Z 35004KT 10SM FEW250 M04/M16 A3070 RMK AO2 SLP396 T10441161 11017 21044 53022 (BH)","FM-15","7",,,,,,,,,,,,,,,,,,,,,,,,,,,"2009-05-01"
"74486094789","2018-01-26T07:00:00","FM-12","4",,"ESE","1.5","mi","TEMP, PRECIP, SNOW",,,"PSY, SRG, SNOWBOARD",,,"FAA CWO",,,,,,,,,,,,,,,,,,,,,,,,,,,,,"3","24",,,"-0.06","3","40","30.70",,"30.67","9.94","19","350",,"5",,,,,,,,,,,,,,,,,,,,,,,,,,,,,,,,,,,,,"SYN08074486 32966 23504 11044 21161 30385 40396 53022 91151 333 10017 21044 555 92612=","FM-12","4",,,,,,,,,,,,,,,,,,,,,,,,,,,"2009-05-01"
"74486094789","2018-01-26T07:51:00","FM-15","7",,"ESE","1.5","mi","TEMP, PRECIP, SNOW",,,"PSY, SRG, SNOWBOARD",,,"FAA CWO",,,,,,,,,,,,,,,,,,,,,,,,,,,,"30.72","6","26","0.00",,,,"42","30.72","FEW:02 250","30.69","10.00","21","030",,"3",,,,,,,,,,,,,,,,,,,,,,,,,,,,,,,,,,,,,"MET10001/26/18 07:51:02 METAR KJFK 261251Z 03003KT 10SM FEW250 M03/M14 A3072 RMK AO2 SLP402 T10331144 (BH)","FM-15","7",,,,,,,,,,,,,,,,,,,,,,,,,,,"2009-05-01"
"74486094789","2018-01-26T08:51:00","FM-15","7",,"ESE","1.5","mi","TEMP, PRECIP, SNOW",,,"PSY, SRG, SNOWBOARD",,,"FAA CWO",,,,,,,,,,,,,,,,,,,,,,,,,,,,"30.74","6","30","0.00",,,,"36","30.73","FEW:02 250","30.71","10.00","23","360",,"6",,,,,,,,,,,,,,,,,,,,,,,,,,,,,,,,,,,,,"MET10001/26/18 08:51:02 METAR KJFK 261351Z 36005KT 10SM FEW250 M01/M14 A3074 RMK AO2 SLP408 T10111144 (BH)","FM-15","7",,,,,,,,,,,,,,,,,,,,,,,,,,,"2009-05-01"
"74486094789","2018-01-26T09:51:00","FM-15","7",,"ESE","1.5","mi","TEMP, PRECIP, SNOW",,,"PSY, SRG, SNOWBOARD",,,"FAA CWO",,,,,,,,,,,,,,,,,,,,,,,,,,,,"30.75","7","32","0.00",,"-0.04","1","35","30.74","CLR:00","30.73","10.00","25","310",,"7",,,,,,,,,,,,,,,,,,,,,,,,,,,,,,,,,,,,,"MET10201/26/18 09:51:02 METAR KJFK 261451Z 31006KT 10SM CLR 00/M14 A3075 RMK AO2 SLP411 T00001139 51015 (BH)","FM-15","7",,,,,,,,,,,,,,,,,,,,,,,,,,,"2009-05-01"
"74486094789","2018-01-26T10:00:00","FM-12","4",,"ESE","1.5","mi","TEMP, PRECIP, SNOW",,,"PSY, SRG, SNOWBOARD",,,"FAA CWO",,,,,,,,,,,,,,,,,,,,,,,,,,,,,"7","32",,,"-0.04","1","35","30.74",,"30.72","9.94","25","310",,"7",,,,,,,,,,,,,,,,,,,,,,,,,,,,,,,,,,,,,"SYN06474486 32966 03106 10000 21139 30402 40411 51015 91451 555 92615=","FM-12","4",,,,,,,,,,,,,,,,,,,,,,,,,,,"2009-05-01"
"74486094789","2018-01-26T10:51:00","FM-15","7",,"ESE","1.5","mi","TEMP, PRECIP, SNOW",,,"PSY, SRG, SNOWBOARD",,,"FAA CWO",,,,,,,,,,,,,,,,,,,,,,,,,,,,"30.75","8","34","0.00",,,,"34","30.74","CLR:00","30.73","10.00","26","320",,"8",,,,,,,,,,,,,,,,,,,,,,,,,,,,,,,,,,,,,"MET09601/26/18 10:51:02 METAR KJFK 261551Z 32007KT 10SM CLR 01/M13 A3075 RMK AO2 SLP411 T00111133 (BH)","FM-15","7",,,,,,,,,,,,,,,,,,,,,,,,,,,"2009-05-01"
"74486094789","2018-01-26T11:51:00","FM-15","7",,"ESE","1.5","mi","TEMP, PRECIP, SNOW",,,"PSY, SRG, SNOWBOARD",,,"FAA CWO",,,,,,,,,,,,,,,,,,,,,,,,,,,,"30.72","9","35","0.00",,,,"34","30.71","CLR:00","30.69","10.00","27","240",,"6",,,,,,,,,,,,,,,,,,,,,,,,,,,,,,,,,,,,,"MET09601/26/18 11:51:02 METAR KJFK 261651Z 24005KT 10SM CLR 02/M13 A3072 RMK AO2 SLP401 T00171128 (BH)","FM-15","7",,,,,,,,,,,,,,,,,,,,,,,,,,,"2009-05-01"
"74486094789","2018-01-26T12:51:00","FM-15","7",,"ESE","1.5","mi","TEMP, PRECIP, SNOW",,,"PSY, SRG, SNOWBOARD",,,"FAA CWO",,,,,,,,,,,,,,,,,,,,,,,,,,,,"30.69","11","35","0.00",,"+0.05","8","37","30.69","CLR:00","30.66","10.00","28","220",,"10",,,,,,,,,,,,,,,,,,,,,,,,,,,,,,,,,,,,,"MET11401/26/18 12:51:02 METAR KJFK 261751Z 22009KT 10SM CLR 02/M12 A3069 RMK AO2 SLP392 T00171117 10022 21044 58018 (BH)","FM-15","7",,,,,,,,,,,,,,,,,,,,,,,,,,,"2009-05-01"
"74486094789","2018-01-26T13:00:00","FM-12","4",,"ESE","1.5","mi","TEMP, PRECIP, SNOW",,,"PSY, SRG, SNOWBOARD",,,"FAA CWO",,,,,,,,,,,,,,,,,,,,,,,,,,,,,"11","35",,,"+0.05","8","37","30.69",,"30.66","9.94","28","220",,"10",,,,,,,,,,,,,,,,,,,,,,,,,,,,,,,,,,,,,"SYN08074486 32966 02209 10017 21117 30381 40392 58018 91751 333 10022 21044 555 92618=","FM-12","4",,,,,,,,,,,,,,,,,,,,,,,,,,,"2009-05-01"
"74486094789","2018-01-26T13:51:00","FM-15","7",,"ESE","1.5","mi","TEMP, PRECIP, SNOW",,,"PSY, SRG, SNOWBOARD",,,"FAA CWO",,,,,,,,,,,,,,,,,,,,,,,,,,,,"30.67","15","34","0.00",,,,"46","30.67","CLR:00","30.64","10.00","28","170",,"9",,,,,,,,,,,,,,,,,,,,,,,,,,,,,,,,,,,,,"MET09601/26/18 13:51:02 METAR KJFK 261851Z 17008KT 10SM CLR 01/M09 A3067 RMK AO2 SLP386 T00111094 (BH)","FM-15","7",,,,,,,,,,,,,,,,,,,,,,,,,,,"2009-05-01"
"74486094789","2018-01-26T14:51:00","FM-15","7",,"ESE","1.5","mi","TEMP, PRECIP, SNOW",,,"PSY, SRG, SNOWBOARD",,,"FAA CWO",,,,,,,,,,,,,,,,,,,,,,,,,,,,"30.66","14","34","0.00",,,,"44","30.66","FEW:02 250","30.63","10.00","28","180",,"7",,,,,,,,,,,,,,,,,,,,,,,,,,,,,,,,,,,,,"MET09901/26/18 14:51:02 METAR KJFK 261951Z 18006KT 10SM FEW250 01/M10 A3066 RMK AO2 SLP381 T00111100 (RR)","FM-15","7",,,,,,,,,,,,,,,,,,,,,,,,,,,"2009-05-01"
"74486094789","2018-01-26T15:51:00","FM-15","7",,"ESE","1.5","mi","TEMP, PRECIP, SNOW",,,"PSY, SRG, SNOWBOARD",,,"FAA CWO",,,,,,,,,,,,,,,,,,,,,,,,,,,,"30.65","17","34","0.00",,"+0.04","6","50","30.65","FEW:02 250","30.63","10.00","28","170",,"9",,,,,,,,,,,,,,,,,,,,,,,,,,,,,,,,,,,,,"MET10501/26/18 15:51:02 METAR KJFK 262051Z 17008KT 10SM FEW250 01/M08 A3065 RMK AO2 SLP380 T00111083 56012 (RR)","FM-15","7",,,,,,,,,,,,,,,,,,,,,,,,,,,"2009-05-01"
"74486094789","2018-01-26T16:00:00","FM-12","4",,"ESE","1.5","mi","TEMP, PRECIP, SNOW",,,"PSY, SRG, SNOWBOARD",,,"FAA CWO",,,,,,,,,,,,,,,,,,,,,,,,,,,,,"17","34",,,"+0.04","6","50","30.65",,"30.62","9.94","28","170",,"9",,,,,,,,,,,,,,,,,,,,,,,,,,,,,,,,,,,,,"SYN06474486 32966 21708 10011 21083 30368 40380 56012 92051 555 92621=","FM-12","4",,,,,,,,,,,,,,,,,,,,,,,,,,,"2009-05-01"
"74486094789","2018-01-26T16:51:00","FM-15","7",,"ESE","1.5","mi","TEMP, PRECIP, SNOW",,,"PSY, SRG, SNOWBOARD",,,"FAA CWO",,,,,,,,,,,,,,,,,,,,,,,,,,,,"30.64","19","32","0.00",,,,"59","30.64","FEW:02 250","30.61","10.00","28","150",,"7",,,,,,,,,,,,,,,,,,,,,,,,,,,,,,,,,,,,,"MET09901/26/18 16:51:02 METAR KJFK 262151Z 15006KT 10SM FEW250 00/M07 A3064 RMK AO2 SLP376 T00001072 (RR)","FM-15","7",,,,,,,,,,,,,,,,,,,,,,,,,,,"2009-05-01"
"74486094789","2018-01-26T17:51:00","FM-15","7",,"ESE","1.5","mi","TEMP, PRECIP, SNOW",,,"PSY, SRG, SNOWBOARD",,,"FAA CWO",,,,,,,,,,,,,,,,,,,,,,,,,,,,"30.66","19","32","0.00",,,,"59","30.66","FEW:02 250","30.63","10.00","28","180",,"10",,,,,,,,,,,,,,,,,,,,,,,,,,,,,,,,,,,,,"MET09901/26/18 17:51:02 METAR KJFK 262251Z 18009KT 10SM FEW250 00/M07 A3066 RMK AO2 SLP381 T00001072 (RR)","FM-15","7",,,,,,,,,,,,,,,,,,,,,,,,,,,"2009-05-01"
"74486094789","2018-01-26T18:51:00","FM-15","7",,"ESE","1.5","mi","TEMP, PRECIP, SNOW",,,"PSY, SRG, SNOWBOARD",,,"FAA CWO",,,,,,,,,,,,,,,,,,,,,,,,,,,,"30.67","23","32","0.00",,"-0.01","3","69","30.66","FEW:02 250","30.64","10.00","29","170",,"10",,,,,,,,,,,,,,,,,,,,,,,,,,,,,,,,,,,,,"MET11901/26/18 18:51:02 METAR KJFK 262351Z 17009KT 10SM FEW250 00/M05 A3067 RMK AO2 SLP384 T00001050 10017 21006 53004 $ (RR)","FM-15","7",,,,,,,,,,,,,,,,,,,,,,,,,,,"2009-05-01"
"74486094789","2018-01-26T19:00:00","FM-12","4",,"ESE","1.5","mi","TEMP, PRECIP, SNOW",,,"PSY, SRG, SNOWBOARD",,,"FAA CWO",,,,,,,,,,,,,,,,,,,,,,,,,,,,,"23","32",,,"-0.01","3","69","30.66",,"30.64","9.94","29","170",,"10",,,,,,,,,,,,,,,,,,,,,,,,,,,,,,,,,,,,,"SYN08074486 32966 21709 10000 21050 30375 40384 53004 92351 333 10022 21044 555 92700=","FM-12","4",,,,,,,,,,,,,,,,,,,,,,,,,,,"2009-05-01"
"74486094789","2018-01-26T19:51:00","FM-15","7",,"ESE","1.5","mi","TEMP, PRECIP, SNOW",,,"PSY, SRG, SNOWBOARD",,,"FAA CWO",,,,,,,,,,,,,,,,,,,,,,,,,,,,"30.67","24","33","0.00",,,,"70","30.67","SCT:04 250","30.64","10.00","30","180",,"13",,,,,,,,,,,,,,,,,,,,,,,,,,,,,,,,,,,,,"MET09601/26/18 19:51:01 METAR KJFK 270051Z 18011KT 10SM SCT250 01/M04 A3067 RMK AO2 SLP386 T00061044 $","FM-15","7",,,,,,,,,,,,,,,,,,,,,,,,,,,"2009-05-01"
"74486094789","2018-01-26T20:51:00","FM-15","7",,"ESE","1.5","mi","TEMP, PRECIP, SNOW",,,"PSY, SRG, SNOWBOARD",,,"FAA CWO",,,,,,,,,,,,,,,,,,,,,,,,,,,,"30.67","23","34","0.00",,,,"64","30.66","SCT:04 250","30.64","10.00","30","200",,"16",,,,,,,,,,,,,,,,,,,,,,,,,,,,,,,,,,,,,"MET09601/26/18 20:51:01 METAR KJFK 270151Z 20014KT 10SM SCT250 01/M05 A3067 RMK AO2 SLP383 T00111050 $","FM-15","7",,,,,,,,,,,,,,,,,,,,,,,,,,,"2009-05-01"
"74486094789","2018-01-26T21:51:00","FM-15","7",,"ESE","1.5","mi","TEMP, PRECIP, SNOW",,,"PSY, SRG, SNOWBOARD",,,"FAA CWO",,,,,,,,,,,,,,,,,,,,,,,,,,,,"30.66","26","33","0.00",,"+0.01","8","75","30.66","FEW:02 250","30.63","10.00","30","200",,"14",,,,,,,,,,,,,,,,,,,,,,,,,,,,,,,,,,,,,"MET10201/26/18 21:51:01 METAR KJFK 270251Z 20012KT 10SM FEW250 01/M03 A3066 RMK AO2 SLP382 T00061033 58002 $","FM-15","7",,,,,,,,,,,,,,,,,,,,,,,,,,,"2009-05-01"
"74486094789","2018-01-26T22:00:00","FM-12","4",,"ESE","1.5","mi","TEMP, PRECIP, SNOW",,,"PSY, SRG, SNOWBOARD",,,"FAA CWO",,,,,,,,,,,,,,,,,,,,,,,,,,,,,"26","33",,,"+0.01","8","75","30.66",,"30.63","9.94","30","200",,"14",,,,,,,,,,,,,,,,,,,,,,,,,,,,,,,,,,,,,"SYN06474486 32966 22012 10006 21033 30371 40382 58002 90251 555 92703=","FM-12","4",,,,,,,,,,,,,,,,,,,,,,,,,,,"2009-05-01"
"74486094789","2018-01-26T22:51:00","FM-15","7",,"ESE","1.5","mi","TEMP, PRECIP, SNOW",,,"PSY, SRG, SNOWBOARD",,,"FAA CWO",,,,,,,,,,,,,,,,,,,,,,,,,,,,"30.65","28","35","0.00",,,,"76","30.65","FEW:02 250","30.63","10.00","32","210",,"11",,,,,,,,,,,,,,,,,,,,,,,,,,,,,,,,,,,,,"MET09601/26/18 22:51:02 METAR KJFK 270351Z 21010KT 10SM FEW250 02/M02 A3065 RMK AO2 SLP378 T00171022 $","FM-15","7",,,,,,,,,,,,,,,,,,,,,,,,,,,"2009-05-01"
"74486094789","2018-01-26T23:51:00","FM-15","7",,"ESE","1.5","mi","TEMP, PRECIP, SNOW",,,"PSY, SRG, SNOWBOARD",,,"FAA CWO",,,,,,,,,,,,,,,,,,,,,,,,,,,,"30.63","29","33","0.00",,,,"85","30.63","FEW:02 250","30.60","10.00","32","210",,"11",,,,,,,,,,,,,,,,,,,,,,,,,,,,,,,,,,,,,"MET10601/26/18 23:51:02 METAR KJFK 270451Z 21010KT 10SM FEW250 01/M02 A3063 RMK AO2 SLP371 T00061017 400221044 $","FM-15","7",,,,,,,,,,,,,,,,,,,,,,,,,,,"2009-05-01"
"74486094789","2018-01-26T23:59:00","SOD  ","6",,"ESE","1.5","mi","TEMP, PRECIP, SNOW",,,"PSY, SRG, SNOWBOARD",,,"FAA CWO",,,,,,"13","30","49","30.67","30.63","26","8.5","0","-2.6","35","36","24","190","19","0.00","0","0.0","200","16",,,,,,,,,,,,,,,,,,,,,,,,,,,,,,,,,,,,,,,,,,,,,,,,,,,,,,,,"SOD73924 HR PRECIPITATION (IN): 0.00 SNOW DEPTH (IN):0     24 HR SNOWFALL (IN):0.0  24 HR MAX TEMP (F): 3624 HR MIN TEMP (F): 24AVERAGE STATION PRESSURE:30.635 MINIMUM SEA LEVEL PRESSURE:30.59 TIME OF OCCURRENCE:0053 PEAK WIND SPEED (MPH): 19 PEAK WIND DIR (DEG):190 PEAK WIND TIME (LST):      FASTEST 2MIN SPEED (MPH): 16FASTEST 2MIN DIR (DEG):200 FASTEST 2MIN TIME (LST):     AVERAGE WIND SPEED (MPH): 8.5 24 HR AVG TEMP (F): 30DEPART FROM NORMAL: -3  HEATING DEGREE DAYS: 35 COOLING DEGREE DAYS:  0 LATEST DAY MAX TEMP (0700-1900 LST):36  LATEST NIGHT MIN TEMP(1900-0800 LST):24 HOURLY INCREMENTAL PRECIPITATION VALUES (IN):.00 0.00 0.00 0.00 0.00 0.00 0.00 0.00 0.00 0.00 0.00 0.00 0.00 0.00 0.00 0.00 0.00 0.00 0.00 0.00 0.00 0.00 0.00 0.00","SOD  ","6",,,,,,,,,,,,,,,,,,,,,,,,,"0710","1705","2009-05-01"
"74486094789","2018-01-27T00:51:00","FM-15","7",,"ESE","1.5","mi","TEMP, PRECIP, SNOW",,,"PSY, SRG, SNOWBOARD",,,"FAA CWO",,,,,,,,,,,,,,,,,,,,,,,,,,,,"30.61","30","32","0.00",,"+0.06","8","92","30.60","FEW:02 250","30.58","10.00","31","200",,"9",,,,,,,,,,,,,,,,,,,,,,,,,,,,,,,,,,,,,"MET11901/27/18 00:51:02 METAR KJFK 270551Z 20008KT 10SM FEW250 00/M01 A3061 RMK AO2 SLP363 T00001011 10017 20000 58019 $ (DM)","FM-15","7",,,,,,,,,,,,,,,,,,,,,,,,,,,"2009-05-01"
"74486094789","2018-01-27T01:00:00","FM-12","4",,"ESE","1.5","mi","TEMP, PRECIP, SNOW",,,"PSY, SRG, SNOWBOARD",,,"FAA CWO",,,,,,,,,,,,,,,,,,,,,,,,,,,,,"30","32",,,"+0.06","8","92","30.60",,"30.58","9.94","31","200",,"9",,,,,,,,,,,,,,,,,,,,,,,,,,,,,,,,,,,,,"SYN08074486 32966 22008 10000 21011 30354 40363 58019 90551 333 10017 21043 555 92706=","FM-12","4",,,,,,,,,,,,,,,,,,,,,,,,,,,"2009-05-01"
"74486094789","2018-01-27T01:51:00","FM-15","7",,"ESE","1.5","mi","TEMP, PRECIP, SNOW",,,"PSY, SRG, SNOWBOARD",,,"FAA CWO",,,,,,,,,,,,,,,,,,,,,,,,,,,,"30.60","30","32","0.00",,,,"92","30.59","FEW:02 250","30.58","10.00","31","200",,"9",,,,,,,,,,,,,,,,,,,,,,,,,,,,,,,,,,,,,"MET10101/27/18 01:51:02 METAR KJFK 270651Z 20008KT 10SM FEW250 00/M01 A3060 RMK AO2 SLP360 T00001011 $ (DM)","FM-15","7",,,,,,,,,,,,,,,,,,,,,,,,,,,"2009-05-01"
"74486094789","2018-01-27T02:51:00","FM-15","7",,"ESE","1.5","mi","TEMP, PRECIP, SNOW",,,"PSY, SRG, SNOWBOARD",,,"FAA CWO",,,,,,,,,,,,,,,,,,,,,,,,,,,,"30.57","30","32","0.00",,,,"92","30.57","FEW:02 250","30.55","10.00","31","190",,"7",,,,,,,,,,,,,,,,,,,,,,,,,,,,,,,,,,,,,"MET10101/27/18 02:51:02 METAR KJFK 270751Z 19006KT 10SM FEW250 00/M01 A3057 RMK AO2 SLP352 T00001011 $ (DM)","FM-15","7",,,,,,,,,,,,,,,,,,,,,,,,,,,"2009-05-01"
"74486094789","2018-01-27T03:51:00","FM-15","7",,"ESE","1.5","mi","TEMP, PRECIP, SNOW",,,"PSY, SRG, SNOWBOARD",,,"FAA CWO",,,,,,,,,,,,,,,,,,,,,,,,,,,,"30.55","32","34","0.00",,"+0.05","8","92","30.55","FEW:02 250","30.53","10.00","33","200",,"9",,,,,,,,,,,,,,,,,,,,,,,,,,,,,,,,,,,,,"MET10601/27/18 03:51:02 METAR KJFK 270851Z 20008KT 10SM FEW250 01/00 A3055 RMK AO2 SLP346 T00110000 58017 $ (DM)","FM-15","7",,,,,,,,,,,,,,,,,,,,,,,,,,,"2009-05-01"
"74486094789","2018-01-27T04:00:00","FM-12","4",,"ESE","1.5","mi","TEMP, PRECIP, SNOW",,,"PSY, SRG, SNOWBOARD",,,"FAA CWO",,,,,,,,,,,,,,,,,,,,,,,,,,,,,"32","34",,,"+0.05","8","92","30.55",,"30.52","9.94","33","200",,"9",,,,,,,,,,,,,,,,,,,,,,,,,,,,,,,,,,,,,"SYN06474486 32966 22008 10011 20000 30334 40346 58017 90851 555 92709=","FM-12","4",,,,,,,,,,,,,,,,,,,,,,,,,,,"2009-05-01"
"74486094789","2018-01-27T04:51:00","FM-15","7",,"ESE","1.5","mi","TEMP, PRECIP, SNOW",,,"PSY, SRG, SNOWBOARD",,,"FAA CWO",,,,,,,,,,,,,,,,,,,,,,,,,,,,"30.55","34","34","0.00",,,,"100","30.54","FEW:02 250","30.53","10.00","34","220",,"9",,,,,,,,,,,,,,,,,,,,,,,,,,,,,,,,,,,,,"MET10001/27/18 04:51:02 METAR KJFK 270951Z 22008KT 10SM FEW250 01/01 A3055 RMK AO2 SLP343 T00110011 $ (DM)","FM-15","7",,,,,,,,,,,,,,,,,,,,,,,,,,,"2009-05-01"
"74486094789","2018-01-27T05:51:00","FM-15","7",,"ESE","1.5","mi","TEMP, PRECIP, SNOW",,,"PSY, SRG, SNOWBOARD",,,"FAA CWO",,,,,,,,,,,,,,,,,,,,,,,,,,,,"30.54","32","33","0.00",,,,"96","30.53","FEW:02 250","30.51","10.00","33","210",,"8",,,,,,,,,,,,,,,,,,,,,,,,,,,,,,,,,,,,,"MET10001/27/18 05:51:02 METAR KJFK 271051Z 21007KT 10SM FEW250 01/00 A3054 RMK AO2 SLP340 T00060000 $ (DM)","FM-15","7",,,,,,,,,,,,,,,,,,,,,,,,,,,"2009-05-01"
"74486094789","2018-01-27T06:51:00","FM-15","7",,"ESE","1.5","mi","TEMP, PRECIP, SNOW",,,"PSY, SRG, SNOWBOARD",,,"FAA CWO",,,,,,,,,,,,,,,,,,,,,,,,,,,,"30.53","31","33","0.00",,"+0.02","6","92","30.53","FEW:02 250","30.50","10.00","32","230",,"7",,,,,,,,,,,,,,,,,,,,,,,,,,,,,,,,,,,,,"MET11901/27/18 06:51:02 METAR KJFK 271151Z 23006KT 10SM FEW250 01/M01 A3053 RMK AO2 SLP339 T00061006 10017 21006 56007 $ (RG)","FM-15","7",,,,,,,,,,,,,,,,,,,,,,,,,,,"2009-05-01"
"74486094789","2018-01-27T07:00:00","FM-12","4",,"ESE","1.5","mi","TEMP, PRECIP, SNOW",,,"PSY, SRG, SNOWBOARD",,,"FAA CWO",,,,,,,,,,,,,,,,,,,,,,,,,,,,,"31","33",,,"+0.02","6","92","30.53",,"30.50","9.94","32","230",,"7",,,,,,,,,,,,,,,,,,,,,,,,,,,,,,,,,,,,,"SYN08074486 32966 22306 10006 21006 30327 40339 56007 91151 333 10022 21006 555 92712=","FM-12","4",,,,,,,,,,,,,,,,,,,,,,,,,,,"2009-05-01"
"74486094789","2018-01-27T07:51:00","FM-15","7",,"ESE","1.5","mi","TEMP, PRECIP, SNOW",,,"PSY, SRG, SNOWBOARD",,,"FAA CWO",,,,,,,,,,,,,,,,,,,,,,,,,,,,"30.53","32","34","0.00",,,,"92","30.52","SCT:04 250","30.50","10.00","33","230",,"8",,,,,,,,,,,,,,,,,,,,,,,,,,,,,,,,,,,,,"MET10001/27/18 07:51:02 METAR KJFK 271251Z 23007KT 10SM SCT250 01/00 A3053 RMK AO2 SLP336 T00110000 $ (RG)","FM-15","7",,,,,,,,,,,,,,,,,,,,,,,,,,,"2009-05-01"
"74486094789","2018-01-27T08:51:00","FM-15","7",,"ESE","1.5","mi","TEMP, PRECIP, SNOW",,,"PSY, SRG, SNOWBOARD",,,"FAA CWO",,,,,,,,,,,,,,,,,,,,,,,,,,,,"30.52","34","38","0.00",,,,"86","30.51","FEW:02 250","30.50","10.00","36","200",,"6",,,,,,,,,,,,,,,,,,,,,,,,,,,,,,,,,,,,,"MET10001/27/18 08:51:02 METAR KJFK 271351Z 20005KT 10SM FEW250 03/01 A3052 RMK AO2 SLP333 T00330011 $ (RG)","FM-15","7",,,,,,,,,,,,,,,,,,,,,,,,,,,"2009-05-01"
"74486094789","2018-01-27T09:51:00","FM-15","7",,"ESE","1.5","mi","TEMP, PRECIP, SNOW",,,"PSY, SRG, SNOWBOARD",,,"FAA CWO",,,,,,,,,,,,,,,,,,,,,,,,,,,,"30.51","32","41","0.00",,"+0.02","6","70","30.51","SCT:04 250","30.48","10.00","37","210",,"10",,,,,,,,,,,,,,,,,,,,,,,,,,,,,,,,,,,,,"MET10601/27/18 09:51:02 METAR KJFK 271451Z 21009KT 10SM SCT250 05/00 A3051 RMK AO2 SLP332 T00500000 56007 $ (RG)","FM-15","7",,,,,,,,,,,,,,,,,,,,,,,,,,,"2009-05-01"
"74486094789","2018-01-27T10:00:00","FM-12","4",,"ESE","1.5","mi","TEMP, PRECIP, SNOW",,,"PSY, SRG, SNOWBOARD",,,"FAA CWO",,,,,,,,,,,,,,,,,,,,,,,,,,,,,"32","41",,,"+0.02","6","70","30.51",,"30.47","9.94","37","210",,"10",,,,,,,,,,,,,,,,,,,,,,,,,,,,,,,,,,,,,"SYN06474486 32966 42109 10050 20000 30320 40332 56007 91451 555 92715=","FM-12","4",,,,,,,,,,,,,,,,,,,,,,,,,,,"2009-05-01"
"74486094789","2018-01-27T10:51:00","FM-15","7",,"ESE","1.5","mi","TEMP, PRECIP, SNOW",,,"PSY, SRG, SNOWBOARD",,,"FAA CWO",,,,,,,,,,,,,,,,,,,,,,,,,,,,"30.49","30","45","0.00",,,,"56","30.49","BKN:07 250","30.47","10.00","39","180",,"9",,,,,,,,,,,,,,,,,,,,,,,,,,,,,,,,,,,,,"MET10101/27/18 10:51:02 METAR KJFK 271551Z 18008KT 10SM BKN250 07/M01 A3049 RMK AO2 SLP324 T00721011 $ (RG)","FM-15","7",,,,,,,,,,,,,,,,,,,,,,,,,,,"2009-05-01"
"74486094789","2018-01-27T11:51:00","FM-15","7",,"ESE","1.5","mi","TEMP, PRECIP, SNOW",,,"PSY, SRG, SNOWBOARD",,,"FAA CWO",,,,,,,,,,,,,,,,,,,,,,,,,,,,"30.44","35","45","0.00",,,,"68","30.44","FEW:02 200 BKN:07 250","30.42","10.00","41","180",,"8",,,,,,,,,,,,,,,,,,,,,,,,,,,,,,,,,,,,,"MET11401/27/18 11:51:02 METAR KJFK 271651Z 18007KT 10SM FEW200 BKN250 07/02 A3044 RMK AO2 PRESFR SLP308 T00720017 $ (RG)","FM-15","7",,,,,,,,,,,,,,,,,,,,,,,,,,,"2009-05-01"
"74486094789","2018-01-27T12:51:00","FM-15","7",,"ESE","1.5","mi","TEMP, PRECIP, SNOW",,,"PSY, SRG, SNOWBOARD",,,"FAA CWO",,,,,,,,,,,,,,,,,,,,,,,,,,,,"30.40","36","47","0.00",,"+0.11","8","66","30.40","FEW:02 90 BKN:07 250","30.37","10.00","42","200",,"11",,,,,,,,,,,,,,,,,,,,,,,,,,,,,,,,,,,,,"MET12501/27/18 12:51:02 METAR KJFK 271751Z 20010KT 10SM FEW090 BKN250 08/02 A3040 RMK AO2 SLP294 T00830022 10083 20000 58038 $ (RG)","FM-15","7",,,,,,,,,,,,,,,,,,,,,,,,,,,"2009-05-01"
"74486094789","2018-01-27T13:00:00","FM-12","4",,"ESE","1.5","mi","TEMP, PRECIP, SNOW",,,"PSY, SRG, SNOWBOARD",,,"FAA CWO",,,,,,,,,,,,,,,,,,,,,,,,,,,,,"36","47",,,"+0.11","8","66","30.40",,"30.37","9.94","42","200",,"11",,,,,,,,,,,,,,,,,,,,,,,,,,,,,,,,,,,,,"SYN08074486 32966 62010 10083 20022 30283 40294 58038 91751 333 10083 21005 555 92718=","FM-12","4",,,,,,,,,,,,,,,,,,,,,,,,,,,"2009-05-01"
"74486094789","2018-01-27T13:51:00","FM-15","7",,"ESE","1.5","mi","TEMP, PRECIP, SNOW",,,"PSY, SRG, SNOWBOARD",,,"FAA CWO",,,,,,,,,,,,,,,,,,,,,,,,,,,,"30.36","38","47","0.00",,,,"71","30.36","FEW:02 80 BKN:07 170 BKN:07 250","30.34","10.00","43","190",,"15",,,,,,,,,,,,,,,,,,,,,,,,,,,,,,,,,,,,,"MET11401/27/18 13:51:02 METAR KJFK 271851Z 19013KT 10SM FEW080 BKN170 BKN250 08/03 A3036 RMK AO2 SLP280 T00830033 $ (RG)","FM-15","7",,,,,,,,,,,,,,,,,,,,,,,,,,,"2009-05-01"
"74486094789","2018-01-27T14:51:00","FM-15","7",,"ESE","1.5","mi","TEMP, PRECIP, SNOW",,,"PSY, SRG, SNOWBOARD",,,"FAA CWO",,,,,,,,,,,,,,,,,,,,,,,,,,,,"30.33","39","48","0.00",,,,"71","30.33","FEW:02 80 BKN:07 160 BKN:07 250","30.30","10.00","44","190",,"18",,,,,,,,,,,,,,,,,,,,,,,,,,,,,,,,,,,,,"MET11401/27/18 14:51:02 METAR KJFK 271951Z 19016KT 10SM FEW080 BKN160 BKN250 09/04 A3033 RMK AO2 SLP272 T00890039 $ (JT)","FM-15","7",,,,,,,,,,,,,,,,,,,,,,,,,,,"2009-05-01"
"74486094789","2018-01-27T15:51:00","FM-15","7",,"ESE","1.5","mi","TEMP, PRECIP, SNOW",,,"PSY, SRG, SNOWBOARD",,,"FAA CWO",,,,,,,,,,,,,,,,,,,,,,,,,,,,"30.32","39","46","0.00",,"+0.08","6","77","30.32","FEW:02 31 BKN:07 170 OVC:08 250","30.29","10.00","43","190",,"21",,,,,,,,,,,,,,,,,,,,,,,,,,,,,,,,,,,,,"MET12001/27/18 15:51:02 METAR KJFK 272051Z 19018KT 10SM FEW031 BKN170 OVC250 08/04 A3032 RMK AO2 SLP266 T00780039 56027 $ (JT)","FM-15","7",,,,,,,,,,,,,,,,,,,,,,,,,,,"2009-05-01"
"74486094789","2018-01-27T16:00:00","FM-12","4",,"ESE","1.5","mi","TEMP, PRECIP, SNOW",,,"PSY, SRG, SNOWBOARD",,,"FAA CWO",,,,,,,,,,,,,,,,,,,,,,,,,,,,,"39","46",,,"+0.08","6","77","30.32","26","30.29","9.94","43","190",,"21",,,,,,,,,,,,,,,,,,,,,,,,,,,,,,,,,,,,,"SYN06474486 32566 81918 10078 20039 30256 40266 56027 92051 555 92721=","FM-12","4",,,,,,,,,,,,,,,,,,,,,,,,,,,"2009-05-01"
"74486094789","2018-01-27T16:51:00","FM-15","7",,"ESE","1.5","mi","TEMP, PRECIP, SNOW",,,"PSY, SRG, SNOWBOARD",,,"FAA CWO",,,,,,,,,,,,,,,,,,,,,,,,,,,,"30.31","39","45","0.00",,,,"80","30.31","BKN:07 170 BKN:07 250","30.29","10.00","42","180",,"18",,,,,,,,,,,,,,,,,,,,,,,,,,,,,,,,,,,,,"MET10701/27/18 16:51:02 METAR KJFK 272151Z 18016KT 10SM BKN170 BKN250 07/04 A3031 RMK AO2 SLP263 T00720039 $ (JT)","FM-15","7",,,,,,,,,,,,,,,,,,,,,,,,,,,"2009-05-01"
"74486094789","2018-01-27T17:51:00","FM-15","7",,"ESE","1.5","mi","TEMP, PRECIP, SNOW",,,"PSY, SRG, SNOWBOARD",,,"FAA CWO",,,,,,,,,,,,,,,,,,,,,,,,,,,,"30.31","40","44","0.00",,,,"85","30.31","BKN:07 170 OVC:08 250","30.29","10.00","42","190",,"20",,,,,,,,,,,,,,,,,,,,,,,,,,,,,,,,,,,,,"MET10501/27/18 17:51:02 METAR KJFK 272251Z 19017KT 10SM BKN170 OVC250 07/04 A3031 RMK AO2 SLP263 T00670044 (JT)","FM-15","7",,,,,,,,,,,,,,,,,,,,,,,,,,,"2009-05-01"
"74486094789","2018-01-27T18:51:00","FM-15","7",,"ESE","1.5","mi","TEMP, PRECIP, SNOW",,,"PSY, SRG, SNOWBOARD",,,"FAA CWO",,,,,,,,,,,,,,,,,,,,,,,,,,,,"30.32","40","44","0.00",,"+0.00","5","85","30.32","OVC:08 140","30.29","10.00","42","190",,"14",,,,,,,,,,,,,,,,,,,,,,,,,,,,,,,,,,,,,"MET11601/27/18 18:51:02 METAR KJFK 272351Z 19012KT 10SM OVC140 07/04 A3032 RMK AO2 SLP267 T00670044 10094 20067 55000 (JT)","FM-15","7",,,,,,,,,,,,,,,,,,,,,,,,,,,"2009-05-01"
"74486094789","2018-01-27T19:00:00","FM-12","4",,"ESE","1.5","mi","TEMP, PRECIP, SNOW",,,"PSY, SRG, SNOWBOARD",,,"FAA CWO",,,,,,,,,,,,,,,,,,,,,,,,,,,,,"40","44",,,"+0.00","5","85","30.32",,"30.29","9.94","42","190",,"14",,,,,,,,,,,,,,,,,,,,,,,,,,,,,,,,,,,,,"SYN08074486 32966 81912 10067 20044 30256 40267 55000 92351 333 10094 21005 555 92800=","FM-12","4",,,,,,,,,,,,,,,,,,,,,,,,,,,"2009-05-01"
"74486094789","2018-01-27T19:51:00","FM-15","7",,"ESE","1.5","mi","TEMP, PRECIP, SNOW",,,"PSY, SRG, SNOWBOARD",,,"FAA CWO",,,,,,,,,,,,,,,,,,,,,,,,,,,,"30.31","40","44","0.00",,,,"85","30.31","OVC:08 150","30.29","10.00","42","180",,"15",,,,,,,,,,,,,,,,,,,,,,,,,,,,,,,,,,,,,"MET09301/27/18 19:51:01 METAR KJFK 280051Z 18013KT 10SM OVC150 07/04 A3031 RMK AO2 SLP263 T00670044","FM-15","7",,,,,,,,,,,,,,,,,,,,,,,,,,,"2009-05-01"
"74486094789","2018-01-27T20:51:00","FM-15","7",,"ESE","1.5","mi","TEMP, PRECIP, SNOW",,,"PSY, SRG, SNOWBOARD",,,"FAA CWO",,,,,,,,,,,,,,,,,,,,,,,,,,,,"30.30","40","44","0.00",,,,"85","30.30","BKN:07 130 OVC:08 180","30.27","10.00","42","190",,"16",,,,,,,,,,,,,,,,,,,,,,,,,,,,,,,,,,,,,"MET10001/27/18 20:51:01 METAR KJFK 280151Z 19014KT 10SM BKN130 OVC180 07/04 A3030 RMK AO2 SLP260 T00670044","FM-15","7",,,,,,,,,,,,,,,,,,,,,,,,,,,"2009-05-01"
"74486094789","2018-01-27T21:51:00","FM-15","7",,"ESE","1.5","mi","TEMP, PRECIP, SNOW",,,"PSY, SRG, SNOWBOARD",,,"FAA CWO",,,,,,,,,,,,,,,,,,,,,,,,,,,,"30.27","40","44","0.00",,"+0.05","8","85","30.27","BKN:07 140 OVC:08 180","30.24","10.00","42","190",,"11",,,,,,,,,,,,,,,,,,,,,,,,,,,,,,,,,,,,,"MET10601/27/18 21:51:01 METAR KJFK 280251Z 19010KT 10SM BKN140 OVC180 07/04 A3027 RMK AO2 SLP251 T00670044 58016","FM-15","7",,,,,,,,,,,,,,,,,,,,,,,,,,,"2009-05-01"
"74486094789","2018-01-27T22:00:00","FM-12","4",,"ESE","1.5","mi","TEMP, PRECIP, SNOW",,,"PSY, SRG, SNOWBOARD",,,"FAA CWO",,,,,,,,,,,,,,,,,,,,,,,,,,,,,"40","44",,,"+0.05","8","85","30.27",,"30.24","9.94","42","190",,"11",,,,,,,,,,,,,,,,,,,,,,,,,,,,,,,,,,,,,"SYN06474486 32966 81910 10067 20044 30239 40251 58016 90251 555 92803=","FM-12","4",,,,,,,,,,,,,,,,,,,,,,,,,,,"2009-05-01"
"74486094789","2018-01-27T22:51:00","FM-15","7",,"ESE","1.5","mi","TEMP, PRECIP, SNOW",,,"PSY, SRG, SNOWBOARD",,,"FAA CWO",,,,,,,,,,,,,,,,,,,,,,,,,,,,"30.27","40","44","0.00",,,,"85","30.27","BKN:07 50 OVC:08 140","30.24","10.00","42","210",,"9",,,,,,,,,,,,,,,,,,,,,,,,,,,,,,,,,,,,,"MET10001/27/18 22:51:02 METAR KJFK 280351Z 21008KT 10SM BKN050 OVC140 07/04 A3027 RMK AO2 SLP249 T00670044","FM-15","7",,,,,,,,,,,,,,,,,,,,,,,,,,,"2009-05-01"
"74486094789","2018-01-27T23:51:00","FM-15","7",,"ESE","1.5","mi","TEMP, PRECIP, SNOW",,,"PSY, SRG, SNOWBOARD",,,"FAA CWO",,,,,,,,,,,,,,,,,,,,,,,,,,,,"30.25","41","45","0.00",,,,"86","30.24","SCT:04 50 OVC:08 150","30.22","10.00","43","190",,"14",,,,,,,,,,,,,,,,,,,,,,,,,,,,,,,,,,,,,"MET11001/27/18 23:51:02 METAR KJFK 280451Z 19012KT 10SM SCT050 OVC150 07/05 A3025 RMK AO2 SLP242 T00720050 400941006","FM-15","7",,,,,,,,,,,,,,,,,,,,,,,,,,,"2009-05-01"
"74486094789","2018-01-27T23:59:00","SOD  ","6",,"ESE","1.5","mi","TEMP, PRECIP, SNOW",,,"PSY, SRG, SNOWBOARD",,,"FAA CWO",,,,,,"36","40","82","30.42","30.43","38","11.8","0","7.4","25","49","31","190","26","0.00","0","0.0","190","22",,,,,,,,,,,,,,,,,,,,,,,,,,,,,,,,,,,,,,,,,,,,,,,,,,,,,,,,"SOD73924 HR PRECIPITATION (IN): 0.00 SNOW DEPTH (IN):0     24 HR SNOWFALL (IN):0.0  24 HR MAX TEMP (F): 4924 HR MIN TEMP (F): 31AVERAGE STATION PRESSURE:30.435 MINIMUM SEA LEVEL PRESSURE:30.24 TIME OF OCCURRENCE:2359 PEAK WIND SPEED (MPH): 26 PEAK WIND DIR (DEG):190 PEAK WIND TIME (LST):      FASTEST 2MIN SPEED (MPH): 22FASTEST 2MIN DIR (DEG):190 FASTEST 2MIN TIME (LST):     AVERAGE WIND SPEED (MPH):11.8 24 HR AVG TEMP (F): 40DEPART FROM NORMAL:  7  HEATING DEGREE DAYS: 25 COOLING DEGREE DAYS:  0 LATEST DAY MAX TEMP (0700-1900 LST):49  LATEST NIGHT MIN TEMP(1900-0800 LST):31 HOURLY INCREMENTAL PRECIPITATION VALUES (IN):.00 0.00 0.00 0.00 0.00 0.00 0.00 0.00 0.00 0.00 0.00 0.00 0.00 0.00 0.00 0.00 0.00 0.00 0.00 0.00 0.00 0.00 0.00 0.00","SOD  ","6",,,,,,,,,,,,,,,,,,,,,,,,,"0710","1707","2009-05-01"
"74486094789","2018-01-28T00:51:00","FM-15","7",,"ESE","1.5","mi","TEMP, PRECIP, SNOW",,,"PSY, SRG, SNOWBOARD",,,"FAA CWO",,,,,,,,,,,,,,,,,,,,,,,,,,,,"30.24","41","44","T","|RA |","+0.04","8","89","30.24","FEW:02 50 SCT:04 75 BKN:07 100","30.22","10.00","43","190",,"15",,,,,,,,,,,,,,,,,,,,,,,,,,,,,,,,,,,,,"MET15201/28/18 00:51:02 METAR KJFK 280551Z 19013KT 10SM -RA FEW050 SCT075 BKN100 07/05 A3024 RMK AO2 RAB51 SLP239 P0000 60000 T00670050 10072 20061 58012 (DM)","FM-15","7",,,,,,,,,,,,,,,,,,,,,,,,,,,"2009-05-01"
"74486094789","2018-01-28T01:00:00","FM-12","4",,"ESE","1.5","mi","TEMP, PRECIP, SNOW",,,"PSY, SRG, SNOWBOARD",,,"FAA CWO",,,,,,,,,,,,,,,,,,,,,,,,,,,,,"41","44",,"||RA","+0.04","8","89","30.24","57","30.21","9.94","43","190",,"15",,,,,,,,,,,,,,,,,,,,,,,,,,,,,,,,,,,,,"SYN09274486 11766 81913 10067 20050 30229 40239 58012 69901 761// 90551 333 10072 21005 555 92806=","FM-12","4",,,,,,,,,,,,,,,,,,,,,,,,,,,"2009-05-01"
"74486094789","2018-01-28T01:51:00","FM-15","7",,"ESE","1.5","mi","TEMP, PRECIP, SNOW",,,"PSY, SRG, SNOWBOARD",,,"FAA CWO",,,,,,,,,,,,,,,,,,,,,,,,,,,,"30.23","41","44","T","|RA |",,,"89","30.22","FEW:02 50 BKN:07 75 BKN:07 90","30.21","10.00","43","180",,"9",,,,,,,,,,,,,,,,,,,,,,,,,,,,,,,,,,,,,"MET12201/28/18 01:51:02 METAR KJFK 280651Z 18008KT 10SM -RA FEW050 BKN075 BKN090 07/05 A3023 RMK AO2 SLP235 P0000 T00670050 (DM)","FM-15","7",,,,,,,,,,,,,,,,,,,,,,,,,,,"2009-05-01"
"74486094789","2018-01-28T02:51:00","FM-15","7",,"ESE","1.5","mi","TEMP, PRECIP, SNOW",,,"PSY, SRG, SNOWBOARD",,,"FAA CWO",,,,,,,,,,,,,,,,,,,,,,,,,,,,"30.23","41","42","0.01","|RA |",,,"96","30.23","SCT:04 38 BKN:07 45 BKN:07 60","30.21","8.00","42","200",,"6",,,,,,,,,,,,,,,,,,,,,,,,,,,,,,,,,,,,,"MET12101/28/18 02:51:02 METAR KJFK 280751Z 20005KT 8SM -RA SCT038 BKN045 BKN060 06/05 A3023 RMK AO2 SLP237 P0000 T00560050 (DM)","FM-15","7",,,,,,,,,,,,,,,,,,,,,,,,,,,"2009-05-01"
"74486094789","2018-01-28T03:49:00","FM-16","6",,"ESE","1.5","mi","TEMP, PRECIP, SNOW",,,"PSY, SRG, SNOWBOARD",,,"FAA CWO",,,,,,,,,,,,,,,,,,,,,,,,,,,,"30.23","43","43",,"-RA:02 |RA |",,,"100",,"BKN:07 28 BKN:07 40 OVC:08 55","30.21","7.00","43","000",,"0",,,,,,,,,,,,,,,,,,,,,,,,,,,,,,,,,,,,,"MET10901/28/18 03:49:02 SPECI KJFK 280849Z 00000KT 7SM -RA BKN028 BKN040 OVC055 06/06 A3023 RMK AO2 P0002 FIBI (DM)","FM-16","6",,,,,,,,,,,,,,,,,,,,,,,,,,,"2009-05-01"
"74486094789","2018-01-28T03:51:00","FM-15","7",,"ESE","1.5","mi","TEMP, PRECIP, SNOW",,,"PSY, SRG, SNOWBOARD",,,"FAA CWO",,,,,,,,,,,,,,,,,,,,,,,,,,,,"30.23","43","43","0.02","-RA:02 BR:1 |RA |","+0.00","5","100","30.23","BKN:07 28 BKN:07 40 OVC:08 55","30.21","6.00","43","000",,"0",,,,,,,,,,,,,,,,,,,,,,,,,,,,,,,,,,,,,"MET13601/28/18 03:51:02 METAR KJFK 280851Z 00000KT 6SM -RA BR BKN028 BKN040 OVC055 06/06 A3023 RMK AO2 SLP238 P0002 60002 T00610061 55001 (DM)","FM-15","7",,,,,,,,,,,,,,,,,,,,,,,,,,,"2009-05-01"
"74486094789","2018-01-28T04:00:00","FM-12","4",,"ESE","1.5","mi","TEMP, PRECIP, SNOW",,,"PSY, SRG, SNOWBOARD",,,"FAA CWO",,,,,,,,,,,,,,,,,,,,,,,,,,,,,"43","43",,"||RA","+0.00","5","100","30.23","26","30.20","5.59","43","000",,"0",,,,,,,,,,,,,,,,,,,,,,,,,,,,,,,,,,,,,"SYN08674486 11559 80000 10061 20061 30226 40238 55001 69957 761// 90851 333 96010 555 92809=","FM-12","4",,,,,,,,,,,,,,,,,,,,,,,,,,,"2009-05-01"
"74486094789","2018-01-28T04:51:00","FM-15","7",,"ESE","1.5","mi","TEMP, PRECIP, SNOW",,,"PSY, SRG, SNOWBOARD",,,"FAA CWO",,,,,,,,,,,,,,,,,,,,,,,,,,,,"30.24","44","44","0.04","-RA:02 BR:1 |RA |",,,"100","30.24","BKN:07 23 OVC:08 40","30.22","6.00","44","190",,"5",,,,,,,,,,,,,,,,,,,,,,,,,,,,,,,,,,,,,"MET11701/28/18 04:51:02 METAR KJFK 280951Z 19004KT 6SM -RA BR BKN023 OVC040 07/07 A3024 RMK AO2 SLP239 P0005 T00670067 (DM)","FM-15","7",,,,,,,,,,,,,,,,,,,,,,,,,,,"2009-05-01"
"74486094789","2018-01-28T05:51:00","FM-15","7",,"ESE","1.5","mi","TEMP, PRECIP, SNOW",,,"PSY, SRG, SNOWBOARD",,,"FAA CWO",,,,,,,,,,,,,,,,,,,,,,,,,,,,"30.25","47","47","0.03","-RA:02 BR:1 |RA |",,,"100","30.24","BKN:07 28 OVC:08 40","30.22","6.00","47","250",,"8",,,,,,,,,,,,,,,,,,,,,,,,,,,,,,,,,,,,,"MET11701/28/18 05:51:02 METAR KJFK 281051Z 25007KT 6SM -RA BR BKN028 OVC040 08/08 A3025 RMK AO2 SLP242 P0002 T00830083 (DM)","FM-15","7",,,,,,,,,,,,,,,,,,,,,,,,,,,"2009-05-01"
"74486094789","2018-01-28T06:18:00","FM-16","7",,"ESE","1.5","mi","TEMP, PRECIP, SNOW",,,"PSY, SRG, SNOWBOARD",,,"FAA CWO",,,,,,,,,,,,,,,,,,,,,,,,,,,,"30.25","46","46","0.01","-RA:02 |RA |",,,"100",,"FEW:02 28 OVC:08 38","30.22","9.00","46","250",,"8",,,,,,,,,,,,,,,,,,,,,,,,,,,,,,,,,,,,,"MET10701/28/18 06:18:02 SPECI KJFK 281118Z 25007KT 9SM -RA FEW028 OVC038 08/08 A3025 RMK AO2 P0001 T00780078 (ML)","FM-16","7",,,,,,,,,,,,,,,,,,,,,,,,,,,"2009-05-01"
"74486094789","2018-01-28T06:51:00","FM-15","7",,"ESE","1.5","mi","TEMP, PRECIP, SNOW",,,"PSY, SRG, SNOWBOARD",,,"FAA CWO",,,,,,,,,,,,,,,,,,,,,,,,,,,,"30.27","48","49","0.03","-RA:02 |RA |","-0.03","3","97","30.26","OVC:08 38","30.24","7.00","48","260",,"8",,,,,,,,,,,,,,,,,,,,,,,,,,,,,,,,,,,,,"MET13701/28/18 06:51:02 METAR KJFK 281151Z 26007KT 7SM -RA OVC038 09/09 A3027 RMK AO2 SLP248 P0004 60013 70013 T00940089 10094 20056 53010 (ML)","FM-15","7",,,,,,,,,,,,,,,,,,,,,,,,,,,"2009-05-01"
"74486094789","2018-01-28T07:00:00","FM-12","4",,"ESE","1.5","mi","TEMP, PRECIP, SNOW",,,"PSY, SRG, SNOWBOARD",,,"FAA CWO",,,,,,,,,,,,,,,,,,,,,,,,,,,,,"48","49",,"||RA","-0.03","3","97","30.26","41","30.24","6.84","48","260",,"8",,,,,,,,,,,,,,,,,,,,,,,,,,,,,,,,,,,,,"SYN09874486 11661 82607 10094 20089 30239 40248 53010 60031 761// 91151 333 10094 20056 70033 555 92812=","FM-12","4",,,,,,,,,,,,,,,,,,,,,,,,,,,"2009-05-01"
"74486094789","2018-01-28T07:51:00","FM-15","7",,"ESE","1.5","mi","TEMP, PRECIP, SNOW",,,"PSY, SRG, SNOWBOARD",,,"FAA CWO",,,,,,,,,,,,,,,,,,,,,,,,,,,,"30.27","48","48","0.03","-RA:02 BR:1 |RA |",,,"100","30.27","OVC:08 70","30.24","6.00","48","260",,"7",,,,,,,,,,,,,,,,,,,,,,,,,,,,,,,,,,,,,"MET11801/28/18 07:51:02 METAR KJFK 281251Z 26006KT 6SM -RA BR OVC070 09/09 A3027 RMK AO2 VIS 1 W SLP250 P0003 T00890089 (ML)","FM-15","7",,,,,,,,,,,,,,,,,,,,,,,,,,,"2009-05-01"
"74486094789","2018-01-28T08:51:00","FM-15","7",,"ESE","1.5","mi","TEMP, PRECIP, SNOW",,,"PSY, SRG, SNOWBOARD",,,"FAA CWO",,,,,,,,,,,,,,,,,,,,,,,,,,,,"30.28","49","49","0.02","-RA:02 BR:1 |RA |",,,"100","30.28","FEW:02 15 OVC:08 70","30.25","5.00","49","250",,"7",,,,,,,,,,,,,,,,,,,,,,,,,,,,,,,,,,,,,"MET13501/28/18 08:51:02 METAR KJFK 281351Z 25006KT 5SM R04R/1600VP6000FT -RA BR FEW015 OVC070 09/09 A3028 RMK AO2 SLP254 P0001 T00940094 (ML)","FM-15","7",,,,,,,,,,,,,,,,,,,,,,,,,,,"2009-05-01"
"74486094789","2018-01-28T09:51:00","FM-15","7",,"ESE","1.5","mi","TEMP, PRECIP, SNOW",,,"PSY, SRG, SNOWBOARD",,,"FAA CWO",,,,,,,,,,,,,,,,,,,,,,,,,,,,"30.28","48","48","0.01","-RA:02 BR:1 |RA |","-0.02","1","100","30.28","FEW:02 15 BKN:07 60 OVC:08 75","30.25","4.00","48","230",,"3",,,,,,,,,,,,,,,,,,,,,,,,,,,,,,,,,,,,,"MET15301/28/18 09:51:02 METAR KJFK 281451Z 23003KT 4SM R04R/2000V5000FT -RA BR FEW015 BKN060 OVC075 09/09 A3028 RMK AO2 SLP254 P0002 60006 T00890089 51006 (ML)","FM-15","7",,,,,,,,,,,,,,,,,,,,,,,,,,,"2009-05-01"
"74486094789","2018-01-28T10:00:00","FM-12","4",,"ESE","1.5","mi","TEMP, PRECIP, SNOW",,,"PSY, SRG, SNOWBOARD",,,"FAA CWO",,,,,,,,,,,,,,,,,,,,,,,,,,,,,"48","48",,"||RA","-0.02","1","100","30.28","15","30.25","3.73","48","230",,"3",,,,,,,,,,,,,,,,,,,,,,,,,,,,,,,,,,,,,"SYN08674486 11456 82303 10089 20089 30243 40254 51006 60027 761// 91451 333 96010 555 92815=","FM-12","4",,,,,,,,,,,,,,,,,,,,,,,,,,,"2009-05-01"
"74486094789","2018-01-28T10:51:00","FM-15","7",,"ESE","1.5","mi","TEMP, PRECIP, SNOW",,,"PSY, SRG, SNOWBOARD",,,"FAA CWO",,,,,,,,,,,,,,,,,,,,,,,,,,,,"30.29","48","48","0.01","-RA:02 BR:1 |RA |",,,"100","30.29","FEW:02 15 BKN:07 70 OVC:08 80","30.27","3.00","48","220",,"3",,,,,,,,,,,,,,,,,,,,,,,,,,,,,,,,,,,,,"MET15101/28/18 10:51:02 METAR KJFK 281551Z 22003KT 3SM R04R/1400V3000FT -RA BR FEW015 BKN070 OVC080 09/09 A3029 RMK AO2 VIS 1/4 W SLP257 P0001 T00890089 (ML)","FM-15","7",,,,,,,,,,,,,,,,,,,,,,,,,,,"2009-05-01"
"74486094789","2018-01-28T11:34:00","FM-16","7",,"ESE","1.5","mi","TEMP, PRECIP, SNOW",,,"PSY, SRG, SNOWBOARD",,,"FAA CWO",,,,,,,,,,,,,,,,,,,,,,,,,,,,"30.28","49","50","0.02","-RA:02 BR:1 |RA |",,,"96",,"FEW:02 15 OVC:08 60","30.25","3.00","49","310",,"3",,,,,,,,,,,,,,,,,,,,,,,,,,,,,,,,,,,,,"MET12701/28/18 11:34:02 SPECI KJFK 281634Z 31003KT 3SM R04R/1400V2200FT -RA BR FEW015 OVC060 10/09 A3028 RMK AO2 P0002 T01000094 (ML)","FM-16","7",,,,,,,,,,,,,,,,,,,,,,,,,,,"2009-05-01"
"74486094789","2018-01-28T11:51:00","FM-15","7",,"ESE","1.5","mi","TEMP, PRECIP, SNOW",,,"PSY, SRG, SNOWBOARD",,,"FAA CWO",,,,,,,,,,,,,,,,,,,,,,,,,,,,"30.28","47","50","0.03","-RA:02 BR:1 |RA |",,,"89","30.27","FEW:02 15 OVC:08 60","30.25","5.00","49","310",,"5",,,,,,,,,,,,,,,,,,,,,,,,,,,,,,,,,,,,,"MET13401/28/18 11:51:02 METAR KJFK 281651Z 31004KT 5SM R04R/1000V2200FT -RA BR FEW015 OVC060 10/08 A3028 RMK AO2 SLP252 P0002 T01000083 (ML)","FM-15","7",,,,,,,,,,,,,,,,,,,,,,,,,,,"2009-05-01"
"74486094789","2018-01-28T12:01:00","FM-16","7",,"ESE","1.5","mi","TEMP, PRECIP, SNOW",,,"PSY, SRG, SNOWBOARD",,,"FAA CWO",,,,,,,,,,,,,,,,,,,,,,,,,,,,"30.27","46","50","0.01","-RA:02 BR:1 |RA |",,,"86",,"FEW:02 15 OVC:08 65","30.24","6.00","48","320",,"6",,,,,,,,,,,,,,,,,,,,,,,,,,,,,,,,,,,,,"MET14201/28/18 12:01:02 SPECI KJFK 281701Z 32005KT 6SM R04R/1400VP6000FT -RA BR FEW015 OVC065 10/08 A3027 RMK AO2 VIS LWR SE-SW P0001 T01000078 (ML)","FM-16","7",,,,,,,,,,,,,,,,,,,,,,,,,,,"2009-05-01"
"74486094789","2018-01-28T12:51:00","FM-15","7",,"ESE","1.5","mi","TEMP, PRECIP, SNOW",,,"PSY, SRG, SNOWBOARD",,,"FAA CWO",,,,,,,,,,,,,,,,,,,,,,,,,,,,"30.24","47","49","0.02","-RA:02 BR:1 |RA |","+0.04","8","93","30.24","FEW:02 15 OVC:08 70","30.22","3.00","48","050",,"3",,,,,,,,,,,,,,,,,,,,,,,,,,,,,,,,,,,,,"MET15901/28/18 12:51:02 METAR KJFK 281751Z 05003KT 3SM R04R/3000VP6000FT -RA BR FEW015 OVC070 09/08 A3024 RMK AO2 SLP241 P0003 60012 T00940083 10100 20083 58013 (ML)","FM-15","7",,,,,,,,,,,,,,,,,,,,,,,,,,,"2009-05-01"
"74486094789","2018-01-28T13:00:00","FM-12","4",,"ESE","1.5","mi","TEMP, PRECIP, SNOW",,,"PSY, SRG, SNOWBOARD",,,"FAA CWO",,,,,,,,,,,,,,,,,,,,,,,,,,,,,"47","49",,"||RA","+0.04","8","93","30.24","15","30.21","2.98","48","050",,"3",,,,,,,,,,,,,,,,,,,,,,,,,,,,,,,,,,,,,"SYN09874486 11448 80503 10094 20083 30229 40241 58013 60031 761// 91751 333 10100 20067 96010 555 92818=","FM-12","4",,,,,,,,,,,,,,,,,,,,,,,,,,,"2009-05-01"
"74486094789","2018-01-28T13:39:00","FM-16","7",,"ESE","1.5","mi","TEMP, PRECIP, SNOW",,,"PSY, SRG, SNOWBOARD",,,"FAA CWO",,,,,,,,,,,,,,,,,,,,,,,,,,,,"30.23","45","49","0.01","-RA:02 |RA |",,,"86",,"BKN:07 17 OVC:08 60","30.21","7.00","47","020",,"6",,,,,,,,,,,,,,,,,,,,,,,,,,,,,,,,,,,,,"MET10701/28/18 13:39:02 SPECI KJFK 281839Z 02005KT 7SM -RA BKN017 OVC060 09/07 A3023 RMK AO2 P0001 T00940072 (ML)","FM-16","7",,,,,,,,,,,,,,,,,,,,,,,,,,,"2009-05-01"
"74486094789","2018-01-28T13:51:00","FM-15","7",,"ESE","1.5","mi","TEMP, PRECIP, SNOW",,,"PSY, SRG, SNOWBOARD",,,"FAA CWO",,,,,,,,,,,,,,,,,,,,,,,,,,,,"30.22","45","49","0.01","-RA:02 |RA |",,,"86","30.22","BKN:07 17 OVC:08 60","30.19","7.00","47","020",,"6",,,,,,,,,,,,,,,,,,,,,,,,,,,,,,,,,,,,,"MET11401/28/18 13:51:02 METAR KJFK 281851Z 02005KT 7SM -RA BKN017 OVC060 09/07 A3022 RMK AO2 SLP234 P0001 T00940072 (ML)","FM-15","7",,,,,,,,,,,,,,,,,,,,,,,,,,,"2009-05-01"
"74486094789","2018-01-28T14:15:00","FM-16","6",,"ESE","1.5","mi","TEMP, PRECIP, SNOW",,,"PSY, SRG, SNOWBOARD",,,"FAA CWO",,,,,,,,,,,,,,,,,,,,,,,,,,,,"30.22","46","50",,,,,"86",,"SCT:04 18 OVC:08 60","30.19","10.00","48","350",,"3",,,,,,,,,,,,,,,,,,,,,,,,,,,,,,,,,,,,,"MET11201/28/18 14:15:02 SPECI KJFK 281915Z 35003KT 10SM SCT018 OVC060 10/08 A3022 RMK AO2 RAE1854 P0000 T01000078 (RG)","FM-16","6",,,,,,,,,,,,,,,,,,,,,,,,,,,"2009-05-01"
"74486094789","2018-01-28T14:51:00","FM-15","7",,"ESE","1.5","mi","TEMP, PRECIP, SNOW",,,"PSY, SRG, SNOWBOARD",,,"FAA CWO",,,,,,,,,,,,,,,,,,,,,,,,,,,,"30.23","43","50","0.00",,,,"77","30.23","SCT:04 17 OVC:08 60","30.21","10.00","47","330",,"5",,,,,,,,,,,,,,,,,,,,,,,,,,,,,,,,,,,,,"MET11901/28/18 14:51:02 METAR KJFK 281951Z 33004KT 10SM SCT017 OVC060 10/06 A3023 RMK AO2 RAE1854 SLP236 P0000 T01000061 (RG)","FM-15","7",,,,,,,,,,,,,,,,,,,,,,,,,,,"2009-05-01"
"74486094789","2018-01-28T15:51:00","FM-15","7",,"ESE","1.5","mi","TEMP, PRECIP, SNOW",,,"PSY, SRG, SNOWBOARD",,,"FAA CWO",,,,,,,,,,,,,,,,,,,,,,,,,,,,"30.22","41","50","0.00",,"+0.02","6","71","30.22","FEW:02 20 OVC:08 75","30.19","10.00","46","000",,"0",,,,,,,,,,,,,,,,,,,,,,,,,,,,,,,,,,,,,"MET11701/28/18 15:51:02 METAR KJFK 282051Z 00000KT 10SM FEW020 OVC075 10/05 A3022 RMK AO2 SLP234 60001 T01000050 56007 (RG)","FM-15","7",,,,,,,,,,,,,,,,,,,,,,,,,,,"2009-05-01"
"74486094789","2018-01-28T16:00:00","FM-12","4",,"ESE","1.5","mi","TEMP, PRECIP, SNOW",,,"PSY, SRG, SNOWBOARD",,,"FAA CWO",,,,,,,,,,,,,,,,,,,,,,,,,,,,,"41","50",,,"+0.02","6","71","30.22","26","30.19","9.94","46","000",,"0",,,,,,,,,,,,,,,,,,,,,,,,,,,,,,,,,,,,,"SYN07074486 12566 80000 10100 20050 30222 40234 56007 69937 92051 555 92821=","FM-12","4",,,,,,,,,,,,,,,,,,,,,,,,,,,"2009-05-01"
"74486094789","2018-01-28T16:51:00","FM-15","7",,"ESE","1.5","mi","TEMP, PRECIP, SNOW",,,"PSY, SRG, SNOWBOARD",,,"FAA CWO",,,,,,,,,,,,,,,,,,,,,,,,,,,,"30.23","39","49","0.00",,,,"69","30.23","OVC:08 85","30.21","10.00","44","320",,"3",,,,,,,,,,,,,,,,,,,,,,,,,,,,,,,,,,,,,"MET09801/28/18 16:51:02 METAR KJFK 282151Z 32003KT 10SM OVC085 09/04 A3023 RMK AO2 SLP237 T00940039 (RG)","FM-15","7",,,,,,,,,,,,,,,,,,,,,,,,,,,"2009-05-01"
"74486094789","2018-01-28T17:51:00","FM-15","7",,"ESE","1.5","mi","TEMP, PRECIP, SNOW",,,"PSY, SRG, SNOWBOARD",,,"FAA CWO",,,,,,,,,,,,,,,,,,,,,,,,,,,,"30.24","44","45","0.00",,,,"97","30.23","BKN:07 100","30.22","9.00","45","000",,"0",,,,,,,,,,,,,,,,,,,,,,,,,,,,,,,,,,,,,"MET09701/28/18 17:51:02 METAR KJFK 282251Z 00000KT 9SM BKN100 07/07 A3024 RMK AO2 SLP238 T00720067 (RG)","FM-15","7",,,,,,,,,,,,,,,,,,,,,,,,,,,"2009-05-01"
"74486094789","2018-01-28T18:51:00","FM-15","7",,"ESE","1.5","mi","TEMP, PRECIP, SNOW",,,"PSY, SRG, SNOWBOARD",,,"FAA CWO",,,,,,,,,,,,,,,,,,,,,,,,,,,,"30.25","44","46","0.00",,"-0.02","2","93","30.24","BKN:07 100","30.22","10.00","45","000",,"0",,,,,,,,,,,,,,,,,,,,,,,,,,,,,,,,,,,,,"MET12201/28/18 18:51:02 METAR KJFK 282351Z 00000KT 10SM BKN100 08/07 A3025 RMK AO2 SLP241 60001 T00780067 10100 20067 52007 (RG)","FM-15","7",,,,,,,,,,,,,,,,,,,,,,,,,,,"2009-05-01"
"74486094789","2018-01-28T19:00:00","FM-12","4",,"ESE","1.5","mi","TEMP, PRECIP, SNOW",,,"PSY, SRG, SNOWBOARD",,,"FAA CWO",,,,,,,,,,,,,,,,,,,,,,,,,,,,,"44","46",,,"-0.02","2","93","30.24",,"30.22","9.94","45","000",,"0",,,,,,,,,,,,,,,,,,,,,,,,,,,,,,,,,,,,,"SYN08674486 12966 60000 10078 20067 30232 40241 52007 69931 92351 333 10100 20056 555 92900=","FM-12","4",,,,,,,,,,,,,,,,,,,,,,,,,,,"2009-05-01"
"74486094789","2018-01-28T19:51:00","FM-15","7",,"ESE","1.5","mi","TEMP, PRECIP, SNOW",,,"PSY, SRG, SNOWBOARD",,,"FAA CWO",,,,,,,,,,,,,,,,,,,,,,,,,,,,"30.25","40","47","0.00",,,,"77","30.25","BKN:07 90","30.22","10.00","44","020",,"5",,,,,,,,,,,,,,,,,,,,,,,,,,,,,,,,,,,,,"MET09301/28/18 19:51:01 METAR KJFK 290051Z 02004KT 10SM BKN090 08/04 A3025 RMK AO2 SLP244 T00830044","FM-15","7",,,,,,,,,,,,,,,,,,,,,,,,,,,"2009-05-01"
"74486094789","2018-01-28T20:51:00","FM-15","7",,"ESE","1.5","mi","TEMP, PRECIP, SNOW",,,"PSY, SRG, SNOWBOARD",,,"FAA CWO",,,,,,,,,,,,,,,,,,,,,,,,,,,,"30.25","39","47","0.00",,,,"74","30.24","BKN:07 85","30.22","10.00","43","360",,"7",,,,,,,,,,,,,,,,,,,,,,,,,,,,,,,,,,,,,"MET09301/28/18 20:51:01 METAR KJFK 290151Z 36006KT 10SM BKN085 08/04 A3025 RMK AO2 SLP242 T00830039","FM-15","7",,,,,,,,,,,,,,,,,,,,,,,,,,,"2009-05-01"
"74486094789","2018-01-28T21:51:00","FM-15","7",,"ESE","1.5","mi","TEMP, PRECIP, SNOW",,,"PSY, SRG, SNOWBOARD",,,"FAA CWO",,,,,,,,,,,,,,,,,,,,,,,,,,,,"30.25","40","46","0.00",,"-0.00","0","79","30.24","BKN:07 100 OVC:08 170","30.22","10.00","43","010",,"7",,,,,,,,,,,,,,,,,,,,,,,,,,,,,,,,,,,,,"MET10601/28/18 21:51:01 METAR KJFK 290251Z 01006KT 10SM BKN100 OVC170 08/04 A3025 RMK AO2 SLP242 T00780044 50000","FM-15","7",,,,,,,,,,,,,,,,,,,,,,,,,,,"2009-05-01"
"74486094789","2018-01-28T22:00:00","FM-12","4",,"ESE","1.5","mi","TEMP, PRECIP, SNOW",,,"PSY, SRG, SNOWBOARD",,,"FAA CWO",,,,,,,,,,,,,,,,,,,,,,,,,,,,,"40","46",,,"0.00","9","79","30.24",,"30.22","9.94","43","010",,"7",,,,,,,,,,,,,,,,,,,,,,,,,,,,,,,,,,,,,"SYN06474486 32966 80106 10078 20044 30232 40242 50000 90251 555 92903=","FM-12","4",,,,,,,,,,,,,,,,,,,,,,,,,,,"2009-05-01"
"74486094789","2018-01-28T22:40:00","FM-16","7",,"ESE","1.5","mi","TEMP, PRECIP, SNOW",,,"PSY, SRG, SNOWBOARD",,,"FAA CWO",,,,,,,,,,,,,,,,,,,,,,,,,,,,"30.26","42","45",,,,,"90",,"BKN:07 20 OVC:08 100","30.24","10.00","44","020",,"7",,,,,,,,,,,,,,,,,,,,,,,,,,,,,,,,,,,,,"MET09301/28/18 22:40:01 SPECI KJFK 290340Z 02006KT 10SM BKN020 OVC100 07/06 A3026 RMK AO2 T00720056","FM-16","7",,,,,,,,,,,,,,,,,,,,,,,,,,,"2009-05-01"
"74486094789","2018-01-28T22:51:00","FM-15","7",,"ESE","1.5","mi","TEMP, PRECIP, SNOW",,,"PSY, SRG, SNOWBOARD",,,"FAA CWO",,,,,,,,,,,,,,,,,,,,,,,,,,,,"30.25","42","45","0.00",,,,"90","30.24","BKN:07 21 OVC:08 100","30.22","10.00","44","030",,"7",,,,,,,,,,,,,,,,,,,,,,,,,,,,,,,,,,,,,"MET10201/28/18 22:51:01 METAR KJFK 290351Z 03006KT 10SM BKN021 OVC100 07/06 A3025 RMK AO2 SLP242 T00720056 $","FM-15","7",,,,,,,,,,,,,,,,,,,,,,,,,,,"2009-05-01"
"74486094789","2018-01-28T23:34:00","FM-16","7",,"ESE","1.5","mi","TEMP, PRECIP, SNOW",,,"PSY, SRG, SNOWBOARD",,,"FAA CWO",,,,,,,,,,,,,,,,,,,,,,,,,,,,"30.24","43","45",,,,,"93",,"FEW:02 20 OVC:08 110","30.22","10.00","44","040",,"7",,,,,,,,,,,,,,,,,,,,,,,,,,,,,,,,,,,,,"MET09501/28/18 23:34:01 SPECI KJFK 290434Z 04006KT 10SM FEW020 OVC110 07/06 A3024 RMK AO2 T00720061 $","FM-16","7",,,,,,,,,,,,,,,,,,,,,,,,,,,"2009-05-01"
"74486094789","2018-01-28T23:51:00","FM-15","7",,"ESE","1.5","mi","TEMP, PRECIP, SNOW",,,"PSY, SRG, SNOWBOARD",,,"FAA CWO",,,,,,,,,,,,,,,,,,,,,,,,,,,,"30.25","42","45","0.00",,,,"90","30.24","FEW:02 20 OVC:08 110","30.22","10.00","44","040",,"7",,,,,,,,,,,,,,,,,,,,,,,,,,,,,,,,,,,,,"MET11201/28/18 23:51:01 METAR KJFK 290451Z 04006KT 10SM FEW020 OVC110 07/06 A3025 RMK AO2 SLP242 T00720056 401000056 $","FM-15","7",,,,,,,,,,,,,,,,,,,,,,,,,,,"2009-05-01"
"74486094789","2018-01-28T23:59:00","SOD  ","6",,"ESE","1.5","mi","TEMP, PRECIP, SNOW",,,"PSY, SRG, SNOWBOARD",,,"FAA CWO",,,,,,"44","46","90","30.24","30.22","46","5.2","0","13.3","19","50","42","190","19","0.26","0","0.0","190","15","RA BR",,,,,,,,,,,,,,,,,,,,,,,,,,,,,,,,,,,,,,,,,,,,,,,,,,,,,,,"SOD78324 HR PRECIPITATION (IN): 0.26 SNOW DEPTH (IN):0     24 HR SNOWFALL (IN):0.0  WEATHER(CODE):1  24 HR MAX TEMP (F): 5024 HR MIN TEMP (F): 42AVERAGE STATION PRESSURE:30.220 MINIMUM SEA LEVEL PRESSURE:30.22 TIME OF OCCURRENCE:1724 PEAK WIND SPEED (MPH): 19 PEAK WIND DIR (DEG):190 PEAK WIND TIME (LST):      FASTEST 2MIN SPEED (MPH): 15FASTEST 2MIN DIR (DEG):190 FASTEST 2MIN TIME (LST):     AVERAGE WIND SPEED (MPH): 5.2 24 HR AVG TEMP (F): 46DEPART FROM NORMAL: 13  SKY COVER SR-SS (TENTHS): 1HEATING DEGREE DAYS: 19 COOLING DEGREE DAYS:  0 LATEST DAY MAX TEMP (0700-1900 LST):50  LATEST NIGHT MIN TEMP(1900-0800 LST):42 HOURLY INCREMENTAL PRECIPITATION VALUES (IN):    T    0.01 0.02 0.04 0.03 0.03 0.03 0.02 0.01 0.01 0.03 0.02 0.01 0.00 0.00 0.00 0.00 0.00 0.00 0.00 0.00 0.00 0.00","SOD  ","6",,,,,,,,,,,,,,,,,,,,,,,,,"0709","1708","2009-05-01"
"74486094789","2018-01-29T00:51:00","FM-15","7",,"ESE","1.5","mi","TEMP, PRECIP, SNOW",,,"PSY, SRG, SNOWBOARD",,,"FAA CWO",,,,,,,,,,,,,,,,,,,,,,,,,,,,"30.25","40","44","0.00",,"-0.01","3","85","30.25","FEW:02 100 OVC:08 180","30.22","10.00","42","030",,"7",,,,,,,,,,,,,,,,,,,,,,,,,,,,,,,,,,,,,"MET12501/29/18 00:51:02 METAR KJFK 290551Z 03006KT 10SM FEW100 OVC180 07/04 A3025 RMK AO2 SLP243 T00670044 10089 20061 53002 $ (JC)","FM-15","7",,,,,,,,,,,,,,,,,,,,,,,,,,,"2009-05-01"
"74486094789","2018-01-29T01:00:00","FM-12","4",,"ESE","1.5","mi","TEMP, PRECIP, SNOW",,,"PSY, SRG, SNOWBOARD",,,"FAA CWO",,,,,,,,,,,,,,,,,,,,,,,,,,,,,"40","44",,,"-0.01","3","85","30.25",,"30.22","9.94","42","030",,"7",,,,,,,,,,,,,,,,,,,,,,,,,,,,,,,,,,,,,"SYN08074486 32966 80306 10067 20044 30232 40243 53002 90551 333 10094 20056 555 92906=","FM-12","4",,,,,,,,,,,,,,,,,,,,,,,,,,,"2009-05-01"
"74486094789","2018-01-29T01:51:00","FM-15","7",,"ESE","1.5","mi","TEMP, PRECIP, SNOW",,,"PSY, SRG, SNOWBOARD",,,"FAA CWO",,,,,,,,,,,,,,,,,,,,,,,,,,,,"30.25","37","43","0.00",,,,"80","30.24","SCT:04 100 OVC:08 180","30.22","10.00","40","030",,"10",,,,,,,,,,,,,,,,,,,,,,,,,,,,,,,,,,,,,"MET10701/29/18 01:51:02 METAR KJFK 290651Z 03009KT 10SM SCT100 OVC180 06/03 A3025 RMK AO2 SLP242 T00610028 $ (JC)","FM-15","7",,,,,,,,,,,,,,,,,,,,,,,,,,,"2009-05-01"
"74486094789","2018-01-29T02:51:00","FM-15","7",,"ESE","1.5","mi","TEMP, PRECIP, SNOW",,,"PSY, SRG, SNOWBOARD",,,"FAA CWO",,,,,,,,,,,,,,,,,,,,,,,,,,,,"30.24","34","42","0.00",,,,"73","30.24","FEW:02 110 OVC:08 180","30.22","10.00","39","020",,"11",,,,,,,,,,,,,,,,,,,,,,,,,,,,,,,,,,,,,"MET10701/29/18 02:51:02 METAR KJFK 290751Z 02010KT 10SM FEW110 OVC180 06/01 A3024 RMK AO2 SLP239 T00560011 $ (JC)","FM-15","7",,,,,,,,,,,,,,,,,,,,,,,,,,,"2009-05-01"
"74486094789","2018-01-29T03:51:00","FM-15","7",,"ESE","1.5","mi","TEMP, PRECIP, SNOW",,,"PSY, SRG, SNOWBOARD",,,"FAA CWO",,,,,,,,,,,,,,,,,,,,,,,,,,,,"30.21","31","41","0.00",,"+0.04","8","67","30.21","FEW:02 110 OVC:08 180","30.19","10.00","37","020",,"14",,,,,,,,,,,,,,,,,,,,,,,,,,,,,,,,,,,,,"MET11401/29/18 03:51:02 METAR KJFK 290851Z 02012KT 10SM FEW110 OVC180 05/M01 A3021 RMK AO2 SLP231 T00501006 58013 $ (JC)","FM-15","7",,,,,,,,,,,,,,,,,,,,,,,,,,,"2009-05-01"
"74486094789","2018-01-29T04:00:00","FM-12","4",,"ESE","1.5","mi","TEMP, PRECIP, SNOW",,,"PSY, SRG, SNOWBOARD",,,"FAA CWO",,,,,,,,,,,,,,,,,,,,,,,,,,,,,"31","41",,,"+0.04","8","67","30.21",,"30.18","9.94","37","020",,"14",,,,,,,,,,,,,,,,,,,,,,,,,,,,,,,,,,,,,"SYN06474486 32966 80212 10050 21006 30219 40231 58013 90851 555 92909=","FM-12","4",,,,,,,,,,,,,,,,,,,,,,,,,,,"2009-05-01"
"74486094789","2018-01-29T04:51:00","FM-15","7",,"ESE","1.5","mi","TEMP, PRECIP, SNOW",,,"PSY, SRG, SNOWBOARD",,,"FAA CWO",,,,,,,,,,,,,,,,,,,,,,,,,,,,"30.22","30","40","0.00",,,,"68","30.22","OVC:08 180","30.19","10.00","36","020",,"13",,,,,,,,,,,,,,,,,,,,,,,,,,,,,,,,,,,,,"MET10101/29/18 04:51:02 METAR KJFK 290951Z 02011KT 10SM OVC180 04/M01 A3022 RMK AO2 SLP233 T00441011 $ (JC)","FM-15","7",,,,,,,,,,,,,,,,,,,,,,,,,,,"2009-05-01"
"74486094789","2018-01-29T05:51:00","FM-15","7",,"ESE","1.5","mi","TEMP, PRECIP, SNOW",,,"PSY, SRG, SNOWBOARD",,,"FAA CWO",,,,,,,,,,,,,,,,,,,,,,,,,,,,"30.22","29","40","0.00",,,,"65","30.22","OVC:08 210","30.19","10.00","36","030",,"13",,,,,,,,,,,,,,,,,,,,,,,,,,,,,,,,,,,,,"MET10101/29/18 05:51:02 METAR KJFK 291051Z 03011KT 10SM OVC210 04/M02 A3022 RMK AO2 SLP233 T00441017 $ (JC)","FM-15","7",,,,,,,,,,,,,,,,,,,,,,,,,,,"2009-05-01"
"74486094789","2018-01-29T06:51:00","FM-15","7",,"ESE","1.5","mi","TEMP, PRECIP, SNOW",,,"PSY, SRG, SNOWBOARD",,,"FAA CWO",,,,,,,,,,,,,,,,,,,,,,,,,,,,"30.24","28","39","0.00",,"-0.02","3","65","30.24","FEW:02 120 OVC:08 230","30.22","10.00","35","030",,"11",,,,,,,,,,,,,,,,,,,,,,,,,,,,,,,,,,,,,"MET13201/29/18 06:51:02 METAR KJFK 291151Z 03010KT 10SM FEW120 OVC230 04/M02 A3024 RMK AO2 SLP239 70013 T00391022 10067 20039 53008 $ (BH)","FM-15","7",,,,,,,,,,,,,,,,,,,,,,,,,,,"2009-05-01"
"74486094789","2018-01-29T07:00:00","FM-12","4",,"ESE","1.5","mi","TEMP, PRECIP, SNOW",,,"PSY, SRG, SNOWBOARD",,,"FAA CWO",,,,,,,,,,,,,,,,,,,,,,,,,,,,,"28","39",,,"-0.02","3","65","30.24",,"30.21","9.94","35","030",,"11",,,,,,,,,,,,,,,,,,,,,,,,,,,,,,,,,,,,,"SYN08674486 32966 80310 10039 21022 30229 40239 53008 91151 333 10100 20039 70033 555 92912=","FM-12","4",,,,,,,,,,,,,,,,,,,,,,,,,,,"2009-05-01"
"74486094789","2018-01-29T07:51:00","FM-15","7",,"ESE","1.5","mi","TEMP, PRECIP, SNOW",,,"PSY, SRG, SNOWBOARD",,,"FAA CWO",,,,,,,,,,,,,,,,,,,,,,,,,,,,"30.23","28","39","0.00",,,,"65","30.23","FEW:02 120 OVC:08 230","30.21","10.00","35","020",,"13",,,,,,,,,,,,,,,,,,,,,,,,,,,,,,,,,,,,,"MET10801/29/18 07:51:02 METAR KJFK 291251Z 02011KT 10SM FEW120 OVC230 04/M02 A3023 RMK AO2 SLP237 T00391022 $ (BH)","FM-15","7",,,,,,,,,,,,,,,,,,,,,,,,,,,"2009-05-01"
"74486094789","2018-01-29T08:51:00","FM-15","7",,"ESE","1.5","mi","TEMP, PRECIP, SNOW",,,"PSY, SRG, SNOWBOARD",,,"FAA CWO",,,,,,,,,,,,,,,,,,,,,,,,,,,,"30.22","28","41","0.00",,,,"60","30.22","FEW:02 120 BKN:07 230","30.19","10.00","36","030",,"16",,,,,,,,,,,,,,,,,,,,,,,,,,,,,,,,,,,,,"MET10801/29/18 08:51:02 METAR KJFK 291351Z 03014KT 10SM FEW120 BKN230 05/M02 A3022 RMK AO2 SLP234 T00501022 $ (BH)","FM-15","7",,,,,,,,,,,,,,,,,,,,,,,,,,,"2009-05-01"
"74486094789","2018-01-29T09:51:00","FM-15","7",,"ESE","1.5","mi","TEMP, PRECIP, SNOW",,,"PSY, SRG, SNOWBOARD",,,"FAA CWO",,,,,,,,,,,,,,,,,,,,,,,,,,,,"30.22","29","41","0.00",,"+0.02","6","62","30.22","FEW:02 140 BKN:07 220","30.19","10.00","36","040",,"17",,,,,,,,,,,,,,,,,,,,,,,,,,,,,,,,,,,,,"MET11401/29/18 09:51:02 METAR KJFK 291451Z 04015KT 10SM FEW140 BKN220 05/M02 A3022 RMK AO2 SLP233 T00501017 56006 $ (BH)","FM-15","7",,,,,,,,,,,,,,,,,,,,,,,,,,,"2009-05-01"
"74486094789","2018-01-29T10:00:00","FM-12","4",,"ESE","1.5","mi","TEMP, PRECIP, SNOW",,,"PSY, SRG, SNOWBOARD",,,"FAA CWO",,,,,,,,,,,,,,,,,,,,,,,,,,,,,"29","41",,,"+0.02","6","62","30.22",,"30.19","9.94","36","040",,"17",,,,,,,,,,,,,,,,,,,,,,,,,,,,,,,,,,,,,"SYN06474486 32966 60415 10050 21017 30222 40233 56006 91451 555 92915=","FM-12","4",,,,,,,,,,,,,,,,,,,,,,,,,,,"2009-05-01"
"74486094789","2018-01-29T10:51:00","FM-15","7",,"ESE","1.5","mi","TEMP, PRECIP, SNOW",,,"PSY, SRG, SNOWBOARD",,,"FAA CWO",,,,,,,,,,,,,,,,,,,,,,,,,,,,"30.21","29","41","0.00",,,,"62","30.21","FEW:02 100 FEW:02 140 BKN:07 230","30.19","10.00","36","030",,"15",,,,,,,,,,,,,,,,,,,,,,,,,,,,,,,,,,,,,"MET11301/29/18 10:51:02 METAR KJFK 291551Z 03013KT 10SM FEW100 FEW140 BKN230 05/M02 A3021 RMK AO2 SLP229 T00501017 (BH)","FM-15","7",,,,,,,,,,,,,,,,,,,,,,,,,,,"2009-05-01"
"74486094789","2018-01-29T11:51:00","FM-15","7",,"ESE","1.5","mi","TEMP, PRECIP, SNOW",,,"PSY, SRG, SNOWBOARD",,,"FAA CWO",,,,,,,,,,,,,,,,,,,,,,,,,,,,"30.18","30","42","0.00",,,,"62","30.18","FEW:02 120 BKN:07 150 BKN:07 230","30.16","10.00","37","040",,"16",,,,,,,,,,,,,,,,,,,,,,,,,,,,,,,,,,,,,"MET11301/29/18 11:51:02 METAR KJFK 291651Z 04014KT 10SM FEW120 BKN150 BKN230 06/M01 A3018 RMK AO2 SLP220 T00561011 (BH)","FM-15","7",,,,,,,,,,,,,,,,,,,,,,,,,,,"2009-05-01"
"74486094789","2018-01-29T12:19:00","FM-16","7",,"ESE","1.5","mi","TEMP, PRECIP, SNOW",,,"PSY, SRG, SNOWBOARD",,,"FAA CWO",,,,,,,,,,,,,,,,,,,,,,,,,,,,"30.16","31","43",,,,,"63",,"BKN:07 26 BKN:07 150 BKN:07 230","30.14","10.00","38","030",,"14",,,,,,,,,,,,,,,,,,,,,,,,,,,,,,,,,,,,,"MET10601/29/18 12:19:02 SPECI KJFK 291719Z 03012KT 10SM BKN026 BKN150 BKN230 06/M01 A3016 RMK AO2 T00611006 (BH)","FM-16","7",,,,,,,,,,,,,,,,,,,,,,,,,,,"2009-05-01"
"74486094789","2018-01-29T12:51:00","FM-15","7",,"ESE","1.5","mi","TEMP, PRECIP, SNOW",,,"PSY, SRG, SNOWBOARD",,,"FAA CWO",,,,,,,,,,,,,,,,,,,,,,,,,,,,"30.14","31","43","0.00",,"+0.08","8","63","30.14","BKN:07 27 BKN:07 150 BKN:07 230","30.11","10.00","38","040","26","17",,,,,,,,,,,,,,,,,,,,,,,,,,,,,,,,,,,,,"MET13401/29/18 12:51:02 METAR KJFK 291751Z 04015G23KT 10SM BKN027 BKN150 BKN230 06/M01 A3014 RMK AO2 SLP207 T00611006 10061 20039 58026 (BH)","FM-15","7",,,,,,,,,,,,,,,,,,,,,,,,,,,"2009-05-01"
"74486094789","2018-01-29T13:00:00","FM-12","4",,"ESE","1.5","mi","TEMP, PRECIP, SNOW",,,"PSY, SRG, SNOWBOARD",,,"FAA CWO",,,,,,,,,,,,,,,,,,,,,,,,,,,,,"31","43",,,"+0.08","8","63","30.14","26","30.11","9.94","38","040",,"17",,,,,,,,,,,,,,,,,,,,,,,,,,,,,,,,,,,,,"SYN08674486 32566 60415 10061 21006 30195 40207 58026 91751 333 10067 20039 91023 555 92918=","FM-12","4",,,,,,,,,,,,,,,,,,,,,,,,,,,"2009-05-01"
"74486094789","2018-01-29T13:45:00","FM-16","7",,"ESE","1.5","mi","TEMP, PRECIP, SNOW",,,"PSY, SRG, SNOWBOARD",,,"FAA CWO",,,,,,,,,,,,,,,,,,,,,,,,,,,,"30.12","30","43",,,,,"61",,"BKN:07 30 BKN:07 110 OVC:08 220","30.09","10.00","38","030",,"18",,,,,,,,,,,,,,,,,,,,,,,,,,,,,,,,,,,,,"MET09801/29/18 13:45:02 SPECI KJFK 291845Z 03016KT 10SM BKN030 BKN110 OVC220 06/M01 A3012 RMK AO2 $ (BH)","FM-16","7",,,,,,,,,,,,,,,,,,,,,,,,,,,"2009-05-01"
"74486094789","2018-01-29T13:51:00","FM-15","7",,"ESE","1.5","mi","TEMP, PRECIP, SNOW",,,"PSY, SRG, SNOWBOARD",,,"FAA CWO",,,,,,,,,,,,,,,,,,,,,,,,,,,,"30.12","31","43","0.00",,,,"63","30.12","BKN:07 31 BKN:07 110 OVC:08 220","30.09","10.00","38","040","24","18",,,,,,,,,,,,,,,,,,,,,,,,,,,,,,,,,,,,,"MET11801/29/18 13:51:02 METAR KJFK 291851Z 04016G21KT 10SM BKN031 BKN110 OVC220 06/M01 A3012 RMK AO2 SLP200 T00611006 $ (BH)","FM-15","7",,,,,,,,,,,,,,,,,,,,,,,,,,,"2009-05-01"
"74486094789","2018-01-29T14:51:00","FM-15","7",,"ESE","1.5","mi","TEMP, PRECIP, SNOW",,,"PSY, SRG, SNOWBOARD",,,"FAA CWO",,,,,,,,,,,,,,,,,,,,,,,,,,,,"30.10","30","42","0.00",,,,"62","30.10","SCT:04 34 BKN:07 110 BKN:07 150","30.08","10.00","37","040",,"17",,,,,,,,,,,,,,,,,,,,,,,,,,,,,,,,,,,,,"MET11501/29/18 14:51:02 METAR KJFK 291951Z 04015KT 10SM SCT034 BKN110 BKN150 06/M01 A3010 RMK AO2 SLP193 T00561011 $ (RR)","FM-15","7",,,,,,,,,,,,,,,,,,,,,,,,,,,"2009-05-01"
"74486094789","2018-01-29T15:51:00","FM-15","7",,"ESE","1.5","mi","TEMP, PRECIP, SNOW",,,"PSY, SRG, SNOWBOARD",,,"FAA CWO",,,,,,,,,,,,,,,,,,,,,,,,,,,,"30.09","30","42","0.00",,"+0.06","6","62","30.09","BKN:07 39 BKN:07 80 OVC:08 110","30.06","10.00","37","040",,"15",,,,,,,,,,,,,,,,,,,,,,,,,,,,,,,,,,,,,"MET12101/29/18 15:51:02 METAR KJFK 292051Z 04013KT 10SM BKN039 BKN080 OVC110 06/M01 A3009 RMK AO2 SLP188 T00561011 56019 $ (RR)","FM-15","7",,,,,,,,,,,,,,,,,,,,,,,,,,,"2009-05-01"
"74486094789","2018-01-29T16:00:00","FM-12","4",,"ESE","1.5","mi","TEMP, PRECIP, SNOW",,,"PSY, SRG, SNOWBOARD",,,"FAA CWO",,,,,,,,,,,,,,,,,,,,,,,,,,,,,"30","42",,,"+0.06","6","62","30.09","41","30.06","9.94","37","040",,"15",,,,,,,,,,,,,,,,,,,,,,,,,,,,,,,,,,,,,"SYN06474486 32666 80413 10056 21011 30178 40188 56019 92051 555 92921=","FM-12","4",,,,,,,,,,,,,,,,,,,,,,,,,,,"2009-05-01"
"74486094789","2018-01-29T16:51:00","FM-15","7",,"ESE","1.5","mi","TEMP, PRECIP, SNOW",,,"PSY, SRG, SNOWBOARD",,,"FAA CWO",,,,,,,,,,,,,,,,,,,,,,,,,,,,"30.09","29","41","0.00",,,,"62","30.08","FEW:02 41 OVC:08 110","30.06","10.00","36","030",,"15",,,,,,,,,,,,,,,,,,,,,,,,,,,,,,,,,,,,,"MET10801/29/18 16:51:02 METAR KJFK 292151Z 03013KT 10SM FEW041 OVC110 05/M02 A3009 RMK AO2 SLP187 T00501017 $ (RR)","FM-15","7",,,,,,,,,,,,,,,,,,,,,,,,,,,"2009-05-01"
"74486094789","2018-01-29T17:51:00","FM-15","7",,"ESE","1.5","mi","TEMP, PRECIP, SNOW",,,"PSY, SRG, SNOWBOARD",,,"FAA CWO",,,,,,,,,,,,,,,,,,,,,,,,,,,,"30.08","29","41","0.00",,,,"62","30.07","FEW:02 41 BKN:07 85 OVC:08 100","30.06","10.00","36","040",,"18",,,,,,,,,,,,,,,,,,,,,,,,,,,,,,,,,,,,,"MET11301/29/18 17:51:02 METAR KJFK 292251Z 04016KT 10SM FEW041 BKN085 OVC100 05/M02 A3008 RMK AO2 SLP184 T00501017 (RR)","FM-15","7",,,,,,,,,,,,,,,,,,,,,,,,,,,"2009-05-01"
"74486094789","2018-01-29T18:51:00","FM-15","7",,"ESE","1.5","mi","TEMP, PRECIP, SNOW",,,"PSY, SRG, SNOWBOARD",,,"FAA CWO",,,,,,,,,,,,,,,,,,,,,,,,,,,,"30.07","28","40","0.00",,"+0.02","8","63","30.06","FEW:02 30 OVC:08 90","30.04","10.00","35","030",,"16",,,,,,,,,,,,,,,,,,,,,,,,,,,,,,,,,,,,,"MET12401/29/18 18:51:02 METAR KJFK 292351Z 03014KT 10SM FEW030 OVC090 04/M02 A3007 RMK AO2 SLP181 T00441022 10061 20044 58007 (RR)","FM-15","7",,,,,,,,,,,,,,,,,,,,,,,,,,,"2009-05-01"
"74486094789","2018-01-29T19:00:00","FM-12","4",,"ESE","1.5","mi","TEMP, PRECIP, SNOW",,,"PSY, SRG, SNOWBOARD",,,"FAA CWO",,,,,,,,,,,,,,,,,,,,,,,,,,,,,"28","40",,,"+0.02","8","63","30.06","26","30.04","9.94","35","030",,"16",,,,,,,,,,,,,,,,,,,,,,,,,,,,,,,,,,,,,"SYN08074486 32566 80314 10044 21022 30172 40181 58007 92351 333 10061 20039 555 93000=","FM-12","4",,,,,,,,,,,,,,,,,,,,,,,,,,,"2009-05-01"
"74486094789","2018-01-29T19:51:00","FM-15","7",,"ESE","1.5","mi","TEMP, PRECIP, SNOW",,,"PSY, SRG, SNOWBOARD",,,"FAA CWO",,,,,,,,,,,,,,,,,,,,,,,,,,,,"30.06","28","39","0.00",,,,"65","30.06","FEW:02 29 FEW:02 60 OVC:08 75","30.03","10.00","35","040","24","17",,,,,,,,,,,,,,,,,,,,,,,,,,,,,,,,,,,,,"MET11101/29/18 19:51:01 METAR KJFK 300051Z 04015G21KT 10SM FEW029 FEW060 OVC075 04/M02 A3006 RMK AO2 SLP178 T00391022","FM-15","7",,,,,,,,,,,,,,,,,,,,,,,,,,,"2009-05-01"
"74486094789","2018-01-29T20:51:00","FM-15","7",,"ESE","1.5","mi","TEMP, PRECIP, SNOW",,,"PSY, SRG, SNOWBOARD",,,"FAA CWO",,,,,,,,,,,,,,,,,,,,,,,,,,,,"30.04","29","38","0.00",,,,"70","30.03","FEW:02 29 BKN:07 55 OVC:08 75","30.01","10.00","34","040","26","21",,,,,,,,,,,,,,,,,,,,,,,,,,,,,,,,,,,,,"MET11101/29/18 20:51:01 METAR KJFK 300151Z 04018G23KT 10SM FEW029 BKN055 OVC075 03/M02 A3004 RMK AO2 SLP171 T00331017","FM-15","7",,,,,,,,,,,,,,,,,,,,,,,,,,,"2009-05-01"
"74486094789","2018-01-29T21:22:00","FM-16","7",,"ESE","1.5","mi","TEMP, PRECIP, SNOW",,,"PSY, SRG, SNOWBOARD",,,"FAA CWO",,,,,,,,,,,,,,,,,,,,,,,,,,,,"30.05","29","38",,,,,"70",,"BKN:07 28 BKN:07 50 OVC:08 90","30.03","10.00","34","030",,"16",,,,,,,,,,,,,,,,,,,,,,,,,,,,,,,,,,,,,"MET10101/29/18 21:22:01 SPECI KJFK 300222Z 03014KT 10SM BKN028 BKN050 OVC090 03/M02 A3005 RMK AO2 T00331017","FM-16","7",,,,,,,,,,,,,,,,,,,,,,,,,,,"2009-05-01"
"74486094789","2018-01-29T21:51:00","FM-15","7",,"ESE","1.5","mi","TEMP, PRECIP, SNOW",,,"PSY, SRG, SNOWBOARD",,,"FAA CWO",,,,,,,,,,,,,,,,,,,,,,,,,,,,"30.05","30","37","0.00",,"+0.02","5","76","30.04","BKN:07 28 OVC:08 50","30.03","10.00","34","030",,"16",,,,,,,,,,,,,,,,,,,,,,,,,,,,,,,,,,,,,"MET10701/29/18 21:51:02 METAR KJFK 300251Z 03014KT 10SM BKN028 OVC050 03/M01 A3005 RMK AO2 SLP174 T00281011 55007","FM-15","7",,,,,,,,,,,,,,,,,,,,,,,,,,,"2009-05-01"
"74486094789","2018-01-29T22:00:00","FM-12","4",,"ESE","1.5","mi","TEMP, PRECIP, SNOW",,,"PSY, SRG, SNOWBOARD",,,"FAA CWO",,,,,,,,,,,,,,,,,,,,,,,,,,,,,"30","37",,,"+0.02","5","76","30.04","26","30.02","9.94","34","030",,"16",,,,,,,,,,,,,,,,,,,,,,,,,,,,,,,,,,,,,"SYN06474486 32566 80314 10028 21011 30165 40174 55007 90251 555 93003=","FM-12","4",,,,,,,,,,,,,,,,,,,,,,,,,,,"2009-05-01"
"74486094789","2018-01-29T22:51:00","FM-15","7",,"ESE","1.5","mi","TEMP, PRECIP, SNOW",,,"PSY, SRG, SNOWBOARD",,,"FAA CWO",,,,,,,,,,,,,,,,,,,,,,,,,,,,"30.01","28","36","T","-SN:03 |SN |",,,"73","30.01","BKN:07 24 OVC:08 60","29.98","10.00","33","040",,"20",,,,,,,,,,,,,,,,,,,,,,,,,,,,,,,,,,,,,"MET11701/29/18 22:51:02 METAR KJFK 300351Z 04017KT 10SM -SN BKN024 OVC060 02/M02 A3001 RMK AO2 SNB47 SLP163 P0000 T00221022","FM-15","7",,,,,,,,,,,,,,,,,,,,,,,,,,,"2009-05-01"
"74486094789","2018-01-29T23:51:00","FM-15","7",,"ESE","1.5","mi","TEMP, PRECIP, SNOW",,,"PSY, SRG, SNOWBOARD",,,"FAA CWO",,,,,,,,,,,,,,,,,,,,,,,,,,,,"30.01","28","33","T","-SN:03 |SN |",,,"82","30.01","OVC:08 22","29.98","4.00","31","030",,"17",,,,,,,,,,,,,,,,,,,,,,,,,,,,,,,,,,,,,"MET11301/29/18 23:51:02 METAR KJFK 300451Z 03015KT 4SM -SN OVC022 01/M02 A3001 RMK AO2 SLP161 P0000 T00061022 400670006","FM-15","7",,,,,,,,,,,,,,,,,,,,,,,,,,,"2009-05-01"
"74486094789","2018-01-29T23:59:00","SOD  ","6",,"ESE","1.5","mi","TEMP, PRECIP, SNOW",,,"PSY, SRG, SNOWBOARD",,,"FAA CWO",,,,,,"30","38","67","30.15","30.14","36","15.2","0","5.2","27","44","32","050","28","T","0","0.1","040","22","SN",,,,,,,,,,,,,,,,,,,,,,,,,,,,,,,,,,,,,,,,,,,,,,,,,,,,,,,"SOD78024 HR PRECIPITATION (IN): 0.01 SNOW DEPTH (IN):0     24 HR SNOWFALL (IN):T    WEATHER(CODE):1  24 HR MAX TEMP (F): 4424 HR MIN TEMP (F): 32AVERAGE STATION PRESSURE:30.145 MINIMUM SEA LEVEL PRESSURE:30.00 TIME OF OCCURRENCE:2354 PEAK WIND SPEED (MPH): 28 PEAK WIND DIR (DEG): 50 PEAK WIND TIME (LST):      FASTEST 2MIN SPEED (MPH): 22FASTEST 2MIN DIR (DEG): 40 FASTEST 2MIN TIME (LST):     AVERAGE WIND SPEED (MPH):15.2 24 HR AVG TEMP (F): 38DEPART FROM NORMAL:  5  SKY COVER SR-SS (TENTHS): 1HEATING DEGREE DAYS: 27 COOLING DEGREE DAYS:  0 LATEST DAY MAX TEMP (0700-1900 LST):43  LATEST NIGHT MIN TEMP(1900-0800 LST):39 HOURLY INCREMENTAL PRECIPITATION VALUES (IN):.00 0.00 0.00 0.00 0.00 0.00 0.00 0.00 0.00 0.00 0.00 0.00 0.00 0.00 0.00 0.00 0.00 0.00 0.00 0.00 0.00 0.00 T    T","SOD  ","6",,,,,,,,,,,,,,,,,,,,,,,,,"0708","1709","2009-05-01"
"74486094789","2018-01-30T00:23:00","FM-16","7",,"ESE","1.5","mi","TEMP, PRECIP, SNOW",,,"PSY, SRG, SNOWBOARD",,,"FAA CWO",,,,,,,,,,,,,,,,,,,,,,,,,,,,"30.01","28","31","0.01","-SN:03 BR:1 |SN |",,,"89",,"OVC:08 18","29.98","2.50","30","030",,"11",,,,,,,,,,,,,,,,,,,,,,,,,,,,,,,,,,,,,"MET12701/30/18 00:23:02 SPECI KJFK 300523Z 03010KT 2 1/2SM R04R/5500VP6000FT -SN BR OVC018 M01/M02 A3001 RMK AO2 P0001 T10061022 (JC)","FM-16","7",,,,,,,,,,,,,,,,,,,,,,,,,,,"2009-05-01"
"74486094789","2018-01-30T00:51:00","FM-15","7",,"ESE","1.5","mi","TEMP, PRECIP, SNOW",,,"PSY, SRG, SNOWBOARD",,,"FAA CWO",,,,,,,,,,,,,,,,,,,,,,,,,,,,"30.00","28","30","0.02s","-SN:03 BR:1 |SN |","+0.04","6","92","30.00","FEW:02 9 OVC:08 24","29.98","2.50","29","010",,"10",,,,,,,,,,,,,,,,,,,,,,,,,,,,,,,,,,,,,"MET15401/30/18 00:51:02 METAR KJFK 300551Z 01009KT 2 1/2SM -SN BR FEW009 OVC024 M01/M02 A3000 RMK AO2 SLP160 931003 P0001 60001 T10111022 10044 21011 56014 (JC)","FM-15","7",,,,,,,,,,,,,,,,,,,,,,,,,,,"2009-05-01"
"74486094789","2018-01-30T01:00:00","FM-12","4",,"ESE","1.5","mi","TEMP, PRECIP, SNOW",,,"PSY, SRG, SNOWBOARD",,,"FAA CWO",,,,,,,,,,,,,,,,,,,,,,,,,,,,,"28","30",,,"+0.04","6","92","30.00","8","29.97","2.49","29","010",,"10",,,,,,,,,,,,,,,,,,,,,,,,,,,,,,,,,,,,,"SYN09874486 11340 80109 11011 21022 30148 40160 56014 69931 771// 90551 333 10067 21011 96010 555 93006=","FM-12","4",,,,,,,,,,,,,,,,,,,,,,,,,,,"2009-05-01"
"74486094789","2018-01-30T01:51:00","FM-15","7",,"ESE","1.5","mi","TEMP, PRECIP, SNOW",,,"PSY, SRG, SNOWBOARD",,,"FAA CWO",,,,,,,,,,,,,,,,,,,,,,,,,,,,"29.97","28","30","0.02","-SN:03 BR:1 |SN |",,,"92","29.97","FEW:02 6 OVC:08 18","29.95","2.00","29","010",,"17",,,,,,,,,,,,,,,,,,,,,,,,,,,,,,,,,,,,,"MET12601/30/18 01:51:02 METAR KJFK 300651Z 01015KT 2SM -SN BR FEW006 OVC018 M01/M02 A2997 RMK AO2 PRESFR SLP148 P0001 T10111022 (JC)","FM-15","7",,,,,,,,,,,,,,,,,,,,,,,,,,,"2009-05-01"
"74486094789","2018-01-30T02:51:00","FM-15","7",,"ESE","1.5","mi","TEMP, PRECIP, SNOW",,,"PSY, SRG, SNOWBOARD",,,"FAA CWO",,,,,,,,,,,,,,,,,,,,,,,,,,,,"29.98","28","30","0.01","-SN:03 BR:1 |SN |",,,"92","29.98","FEW:02 8 OVC:08 26","29.96","2.50","29","350",,"15",,,,,,,,,,,,,,,,,,,,,,,,,,,,,,,,,,,,,"MET13301/30/18 02:51:02 METAR KJFK 300751Z 35013KT 2 1/2SM -SN BR FEW008 OVC026 M01/M02 A2998 RMK AO2 SFC VIS 3 SLP152 P0000 T10111022 (JC)","FM-15","7",,,,,,,,,,,,,,,,,,,,,,,,,,,"2009-05-01"
"74486094789","2018-01-30T03:11:00","FM-16","7",,"ESE","1.5","mi","TEMP, PRECIP, SNOW",,,"PSY, SRG, SNOWBOARD",,,"FAA CWO",,,,,,,,,,,,,,,,,,,,,,,,,,,,"29.98","27","30","T","-SN:03 BR:1 |SN |",,,"88",,"FEW:02 9 OVC:08 32","29.96","3.00","29","360",,"13",,,,,,,,,,,,,,,,,,,,,,,,,,,,,,,,,,,,,"MET11201/30/18 03:11:02 SPECI KJFK 300811Z 36011KT 3SM -SN BR FEW009 OVC032 M01/M03 A2998 RMK AO2 P0000 T10111028 (JC)","FM-16","7",,,,,,,,,,,,,,,,,,,,,,,,,,,"2009-05-01"
"74486094789","2018-01-30T03:46:00","FM-16","7",,"ESE","1.5","mi","TEMP, PRECIP, SNOW",,,"PSY, SRG, SNOWBOARD",,,"FAA CWO",,,,,,,,,,,,,,,,,,,,,,,,,,,,"29.98","28","30","0.01","-SN:03 BR:1 |SN |",,,"93",,"FEW:02 8 OVC:08 19","29.96","2.00","29","350",,"13",,,,,,,,,,,,,,,,,,,,,,,,,,,,,,,,,,,,,"MET10201/30/18 03:46:02 SPECI KJFK 300846Z 35011KT 2SM -SN BR FEW008 OVC019 M01/M02 A2998 RMK AO2 P0001 (JC)","FM-16","7",,,,,,,,,,,,,,,,,,,,,,,,,,,"2009-05-01"
"74486094789","2018-01-30T03:51:00","FM-15","7",,"ESE","1.5","mi","TEMP, PRECIP, SNOW",,,"PSY, SRG, SNOWBOARD",,,"FAA CWO",,,,,,,,,,,,,,,,,,,,,,,,,,,,"29.98","28","30","0.01","-SN:03 BR:1 |SN |","-0.01","1","92","29.98","FEW:02 8 OVC:08 19","29.96","2.00","29","360",,"13",,,,,,,,,,,,,,,,,,,,,,,,,,,,,,,,,,,,,"MET13101/30/18 03:51:02 METAR KJFK 300851Z 36011KT 2SM -SN BR FEW008 OVC019 M01/M02 A2998 RMK AO2 SLP151 P0001 60002 T10111022 51003 (JC)","FM-15","7",,,,,,,,,,,,,,,,,,,,,,,,,,,"2009-05-01"
"74486094789","2018-01-30T04:00:00","FM-12","4",,"ESE","1.5","mi","TEMP, PRECIP, SNOW",,,"PSY, SRG, SNOWBOARD",,,"FAA CWO",,,,,,,,,,,,,,,,,,,,,,,,,,,,,"28","30",,,"-0.01","1","92","29.98","8","29.95","1.99","29","360",,"13",,,,,,,,,,,,,,,,,,,,,,,,,,,,,,,,,,,,,"SYN08674486 11332 83611 11011 21022 30141 40151 51003 69957 771// 90851 333 96010 555 93009=","FM-12","4",,,,,,,,,,,,,,,,,,,,,,,,,,,"2009-05-01"
"74486094789","2018-01-30T04:02:00","FM-16","7",,"ESE","1.5","mi","TEMP, PRECIP, SNOW",,,"PSY, SRG, SNOWBOARD",,,"FAA CWO",,,,,,,,,,,,,,,,,,,,,,,,,,,,"29.97","28","29","T","-SN:03 BR:1 |SN |",,,"96",,"OVC:08 13","29.95","2.00","29","360",,"10",,,,,,,,,,,,,,,,,,,,,,,,,,,,,,,,,,,,,"MET12301/30/18 04:02:02 SPECI KJFK 300902Z 36009KT 2SM R04R/5500VP6000FT -SN BR OVC013 M02/M02 A2997 RMK AO2 P0000 T10171022 (JC)","FM-16","7",,,,,,,,,,,,,,,,,,,,,,,,,,,"2009-05-01"
"74486094789","2018-01-30T04:36:00","FM-16","7",,"ESE","1.5","mi","TEMP, PRECIP, SNOW",,,"PSY, SRG, SNOWBOARD",,,"FAA CWO",,,,,,,,,,,,,,,,,,,,,,,,,,,,"29.98","28","30","0.01","-SN:03 BR:1 |SN |",,,"92",,"SCT:04 12 OVC:08 28","29.96","3.00","29","360",,"10",,,,,,,,,,,,,,,,,,,,,,,,,,,,,,,,,,,,,"MET11201/30/18 04:36:02 SPECI KJFK 300936Z 36009KT 3SM -SN BR SCT012 OVC028 M01/M02 A2998 RMK AO2 P0001 T10111022 (JC)","FM-16","7",,,,,,,,,,,,,,,,,,,,,,,,,,,"2009-05-01"
"74486094789","2018-01-30T04:51:00","FM-15","7",,"ESE","1.5","mi","TEMP, PRECIP, SNOW",,,"PSY, SRG, SNOWBOARD",,,"FAA CWO",,,,,,,,,,,,,,,,,,,,,,,,,,,,"29.98","28","30","0.01","-SN:03 BR:1 |SN |",,,"92","29.98","FEW:02 8 OVC:08 23","29.96","3.00","29","360",,"11",,,,,,,,,,,,,,,,,,,,,,,,,,,,,,,,,,,,,"MET11901/30/18 04:51:02 METAR KJFK 300951Z 36010KT 3SM -SN BR FEW008 OVC023 M01/M02 A2998 RMK AO2 SLP151 P0001 T10111022 (JC)","FM-15","7",,,,,,,,,,,,,,,,,,,,,,,,,,,"2009-05-01"
"74486094789","2018-01-30T05:12:00","FM-16","7",,"ESE","1.5","mi","TEMP, PRECIP, SNOW",,,"PSY, SRG, SNOWBOARD",,,"FAA CWO",,,,,,,,,,,,,,,,,,,,,,,,,,,,"29.99","28","30","0.02","-SN:03 BR:1 |SN |",,,"92",,"FEW:02 7 OVC:08 13","29.96","1.50","29","340",,"14",,,,,,,,,,,,,,,,,,,,,,,,,,,,,,,,,,,,,"MET13401/30/18 05:12:02 SPECI KJFK 301012Z 34012KT 1 1/2SM R04R/5500VP6000FT -SN BR FEW007 OVC013 M01/M02 A2999 RMK AO2 P0002 T10111022 (JC)","FM-16","7",,,,,,,,,,,,,,,,,,,,,,,,,,,"2009-05-01"
"74486094789","2018-01-30T05:49:00","FM-16","6",,"ESE","1.5","mi","TEMP, PRECIP, SNOW",,,"PSY, SRG, SNOWBOARD",,,"FAA CWO",,,,,,,,,,,,,,,,,,,,,,,,,,,,"29.98","28","30",,"-SN:03 BR:1 |SN |",,,"93",,"FEW:02 8 OVC:08 22","29.96","1.50","29","350",,"13",,,,,,,,,,,,,,,,,,,,,,,,,,,,,,,,,,,,,"MET11101/30/18 05:49:02 SPECI KJFK 301049Z 35011KT 1 1/2SM -SN BR FEW008 OVC022 M01/M02 A2998 RMK AO2 P0003 FIBI (JC)","FM-16","6",,,,,,,,,,,,,,,,,,,,,,,,,,,"2009-05-01"
"74486094789","2018-01-30T05:51:00","FM-15","7",,"ESE","1.5","mi","TEMP, PRECIP, SNOW",,,"PSY, SRG, SNOWBOARD",,,"FAA CWO",,,,,,,,,,,,,,,,,,,,,,,,,,,,"29.98","28","30","0.01","-SN:03 BR:1 |SN |",,,"92","29.98","FEW:02 8 OVC:08 22","29.96","1.50","29","350",,"13",,,,,,,,,,,,,,,,,,,,,,,,,,,,,,,,,,,,,"MET12301/30/18 05:51:02 METAR KJFK 301051Z 35011KT 1 1/2SM -SN BR FEW008 OVC022 M01/M02 A2998 RMK AO2 SLP153 P0003 T10111022 (JC)","FM-15","7",,,,,,,,,,,,,,,,,,,,,,,,,,,"2009-05-01"
"74486094789","2018-01-30T06:43:00","FM-16","7",,"ESE","1.5","mi","TEMP, PRECIP, SNOW",,,"PSY, SRG, SNOWBOARD",,,"FAA CWO",,,,,,,,,,,,,,,,,,,,,,,,,,,,"29.99","28","30","T","-SN:03 BR:1 |SN |",,,"92",,"SCT:04 9 OVC:08 31","29.96","2.50","29","350",,"9",,,,,,,,,,,,,,,,,,,,,,,,,,,,,,,,,,,,,"MET12601/30/18 06:43:02 SPECI KJFK 301143Z 35008KT 2 1/2SM -SN BR SCT009 OVC031 M01/M02 A2999 RMK AO2 SFC VIS 3 P0000 T10111022 (BH)","FM-16","7",,,,,,,,,,,,,,,,,,,,,,,,,,,"2009-05-01"
"74486094789","2018-01-30T06:51:00","FM-15","7",,"ESE","1.5","mi","TEMP, PRECIP, SNOW",,,"PSY, SRG, SNOWBOARD",,,"FAA CWO",,,,,,,,,,,,,,,,,,,,,,,,,,,,"29.99","28","30","0.01","-SN:03 BR:1 |SN |","-0.01","3","92","29.99","SCT:04 9 OVC:08 33","29.96","2.50","29","340",,"9",,,,,,,,,,,,,,,,,,,,,,,,,,,,,,,,,,,,,"MET17801/30/18 06:51:02 METAR KJFK 301151Z 34008KT 2 1/2SM -SN BR SCT009 OVC033 M01/M02 A2999 RMK AO2 SFC VIS 3 SLP155 931011 4/001 P0000 60006 70007 T10111022 11011 21017 53004 $ (BH)","FM-15","7",,,,,,,,,,,,,,,,,,,,,,,,,,,"2009-05-01"
"74486094789","2018-01-30T07:00:00","FM-12","4",,"ESE","1.5","mi","TEMP, PRECIP, SNOW",,,"PSY, SRG, SNOWBOARD",,,"FAA CWO",,,,,,,,,,,,,,,,,,,,,,,,,,,,,"28","30",,,"-0.01","3","92","29.99","8","29.96","2.49","29","340",,"9",,,,,,,,,,,,,,,,,,,,,,,,,,,,,,,,,,,,,"SYN11074486 11340 83408 11011 21022 30144 40155 53004 60021 771// 91151 333 10067 21017 4/003 70018 96010 555 93012=","FM-12","4",,,,,,,,,,,,,,,,,,,,,,,,,,,"2009-05-01"
"74486094789","2018-01-30T07:13:00","FM-16","7",,"ESE","1.5","mi","TEMP, PRECIP, SNOW",,,"PSY, SRG, SNOWBOARD",,,"FAA CWO",,,,,,,,,,,,,,,,,,,,,,,,,,,,"29.98","28","30","T","-SN:03 BR:1 |SN |",,,"92",,"BKN:07 10 OVC:08 37","29.96","2.50","29","350",,"11",,,,,,,,,,,,,,,,,,,,,,,,,,,,,,,,,,,,,"MET14001/30/18 07:13:02 SPECI KJFK 301213Z 35010KT 2 1/2SM -SN BR BKN010 OVC037 M01/M02 A2998 RMK AO2 SFC VIS 3 CIG 008V012 P0000 T10111022 $ (BH)","FM-16","7",,,,,,,,,,,,,,,,,,,,,,,,,,,"2009-05-01"
"74486094789","2018-01-30T07:49:00","FM-16","6",,"ESE","1.5","mi","TEMP, PRECIP, SNOW",,,"PSY, SRG, SNOWBOARD",,,"FAA CWO",,,,,,,,,,,,,,,,,,,,,,,,,,,,"29.99","28","30",,"-SN:03 BR:1 |SN |",,,"93",,"FEW:02 7 BKN:07 12 OVC:08 38","29.96","2.50","29","360",,"10",,,,,,,,,,,,,,,,,,,,,,,,,,,,,,,,,,,,,"MET14001/30/18 07:49:02 SPECI KJFK 301249Z 36009KT 2 1/2SM -SN BR FEW007 BKN012 OVC038 M01/M02 A2999 RMK AO2 SFC VIS 4 BKN V SCT P0000 $ FIBI (BH)","FM-16","6",,,,,,,,,,,,,,,,,,,,,,,,,,,"2009-05-01"
"74486094789","2018-01-30T07:51:00","FM-15","7",,"ESE","1.5","mi","TEMP, PRECIP, SNOW",,,"PSY, SRG, SNOWBOARD",,,"FAA CWO",,,,,,,,,,,,,,,,,,,,,,,,,,,,"29.99","28","30","T","-SN:03 BR:1 |SN |",,,"92","29.98","FEW:02 7 BKN:07 12 OVC:08 38","29.96","2.50","29","350",,"13",,,,,,,,,,,,,,,,,,,,,,,,,,,,,,,,,,,,,"MET15201/30/18 07:51:02 METAR KJFK 301251Z 35011KT 2 1/2SM -SN BR FEW007 BKN012 OVC038 M01/M02 A2999 RMK AO2 SFC VIS 4 SLP153 BKN V SCT P0000 T10111022 $ (BH)","FM-15","7",,,,,,,,,,,,,,,,,,,,,,,,,,,"2009-05-01"
"74486094789","2018-01-30T08:43:00","FM-16","7",,"ESE","1.5","mi","TEMP, PRECIP, SNOW",,,"PSY, SRG, SNOWBOARD",,,"FAA CWO",,,,,,,,,,,,,,,,,,,,,,,,,,,,"29.98","28","30","T","-SN:03 BR:1 |SN |",,,"92",,"BKN:07 12 OVC:08 38","29.96","5.00","29","010",,"8",,,,,,,,,,,,,,,,,,,,,,,,,,,,,,,,,,,,,"MET11401/30/18 08:43:02 SPECI KJFK 301343Z 01007KT 5SM -SN BR BKN012 OVC038 M01/M02 A2998 RMK AO2 P0000 T10111022 $ (BH)","FM-16","7",,,,,,,,,,,,,,,,,,,,,,,,,,,"2009-05-01"
"74486094789","2018-01-30T08:51:00","FM-15","7",,"ESE","1.5","mi","TEMP, PRECIP, SNOW",,,"PSY, SRG, SNOWBOARD",,,"FAA CWO",,,,,,,,,,,,,,,,,,,,,,,,,,,,"29.98","28","31","0.01","-SN:03 BR:1 |SN |",,,"89","29.98","BKN:07 12 BKN:07 17 OVC:08 50","29.96","6.00","30","360",,"10",,,,,,,,,,,,,,,,,,,,,,,,,,,,,,,,,,,,,"MET12801/30/18 08:51:02 METAR KJFK 301351Z 36009KT 6SM -SN BR BKN012 BKN017 OVC050 M01/M02 A2998 RMK AO2 SLP153 P0000 T10061022 $ (BH)","FM-15","7",,,,,,,,,,,,,,,,,,,,,,,,,,,"2009-05-01"
"74486094789","2018-01-30T09:51:00","FM-15","7",,"ESE","1.5","mi","TEMP, PRECIP, SNOW",,,"PSY, SRG, SNOWBOARD",,,"FAA CWO",,,,,,,,,,,,,,,,,,,,,,,,,,,,"29.99","26","31","T","-SN:03 |SN |","+0.00","5","82","29.98","BKN:07 14 BKN:07 32 BKN:07 50","29.96","9.00","29","010",,"10",,,,,,,,,,,,,,,,,,,,,,,,,,,,,,,,,,,,,"MET13701/30/18 09:51:02 METAR KJFK 301451Z 01009KT 9SM -SN BKN014 BKN032 BKN050 M01/M03 A2999 RMK AO2 SLP154 P0000 60000 T10061033 55001 $ (BH)","FM-15","7",,,,,,,,,,,,,,,,,,,,,,,,,,,"2009-05-01"
"74486094789","2018-01-30T10:00:00","FM-12","4",,"ESE","1.5","mi","TEMP, PRECIP, SNOW",,,"PSY, SRG, SNOWBOARD",,,"FAA CWO",,,,,,,,,,,,,,,,,,,,,,,,,,,,,"26","31",,,"+0.00","5","82","29.98","15","29.96","8.70","29","010",,"10",,,,,,,,,,,,,,,,,,,,,,,,,,,,,,,,,,,,,"SYN07674486 11464 60109 11006 21033 30144 40154 55001 69907 771// 91451 555 93015=","FM-12","4",,,,,,,,,,,,,,,,,,,,,,,,,,,"2009-05-01"
"74486094789","2018-01-30T10:19:00","FM-16","7",,"ESE","1.5","mi","TEMP, PRECIP, SNOW",,,"PSY, SRG, SNOWBOARD",,,"FAA CWO",,,,,,,,,,,,,,,,,,,,,,,,,,,,"29.99","28","32","T",,,,"85",,"BKN:07 17 BKN:07 50 BKN:07 220","29.96","10.00","31","330",,"10",,,,,,,,,,,,,,,,,,,,,,,,,,,,,,,,,,,,,"MET13401/30/18 10:19:02 SPECI KJFK 301519Z 33009KT 10SM BKN017 BKN050 BKN220 00/M02 A2999 RMK AO2 SNE1458 CIG 014V020 P0000 T00001022 $ (BH)","FM-16","7",,,,,,,,,,,,,,,,,,,,,,,,,,,"2009-05-01"
"74486094789","2018-01-30T10:51:00","FM-15","7",,"ESE","1.5","mi","TEMP, PRECIP, SNOW",,,"PSY, SRG, SNOWBOARD",,,"FAA CWO",,,,,,,,,,,,,,,,,,,,,,,,,,,,"29.99","28","33","0.00",,,,"82","29.98","BKN:07 19 BKN:07 220","29.96","10.00","31","360",,"9",,,,,,,,,,,,,,,,,,,,,,,,,,,,,,,,,,,,,"MET12201/30/18 10:51:02 METAR KJFK 301551Z 36008KT 10SM BKN019 BKN220 01/M02 A2999 RMK AO2 SNE1458 SLP154 P0000 T00061022 $ (BH)","FM-15","7",,,,,,,,,,,,,,,,,,,,,,,,,,,"2009-05-01"
"74486094789","2018-01-30T11:51:00","FM-15","7",,"ESE","1.5","mi","TEMP, PRECIP, SNOW",,,"PSY, SRG, SNOWBOARD",,,"FAA CWO",,,,,,,,,,,,,,,,,,,,,,,,,,,,"29.96","27","34","0.00",,,,"75","29.96","BKN:07 19 BKN:07 220","29.93","10.00","31","350",,"6",,,,,,,,,,,,,,,,,,,,,,,,,,,,,,,,,,,,,"MET10801/30/18 11:51:02 METAR KJFK 301651Z 35005KT 10SM BKN019 BKN220 01/M03 A2996 RMK AO2 SLP146 T00111028 $ (BH)","FM-15","7",,,,,,,,,,,,,,,,,,,,,,,,,,,"2009-05-01"
"74486094789","2018-01-30T12:51:00","FM-15","7",,"ESE","1.5","mi","TEMP, PRECIP, SNOW",,,"PSY, SRG, SNOWBOARD",,,"FAA CWO",,,,,,,,,,,,,,,,,,,,,,,,,,,,"29.95","27","34","0.00",,"+0.04","8","75","29.95","FEW:02 17 OVC:08 26","29.93","10.00","31","320",,"7",,,,,,,,,,,,,,,,,,,,,,,,,,,,,,,,,,,,,"MET15501/30/18 12:51:02 METAR KJFK 301751Z 32006KT 10SM FEW017 OVC026 01/M03 A2995 RMK AO2 SLP141 VCSH SW-N 931001 4/001 60000 T00111028 10017 21011 58013 $ (BH)","FM-15","7",,,,,,,,,,,,,,,,,,,,,,,,,,,"2009-05-01"
"74486094789","2018-01-30T13:00:00","FM-12","4",,"ESE","1.5","mi","TEMP, PRECIP, SNOW",,,"PSY, SRG, SNOWBOARD",,,"FAA CWO",,,,,,,,,,,,,,,,,,,,,,,,,,,,,"27","34",,,"+0.04","8","75","29.95","15","29.92","9.94","31","320",,"7",,,,,,,,,,,,,,,,,,,,,,,,,,,,,,,,,,,,,"SYN09274486 12466 83206 10011 21028 30131 40141 58013 69901 91751 333 10017 21011 4/003 555 93018=","FM-12","4",,,,,,,,,,,,,,,,,,,,,,,,,,,"2009-05-01"
"74486094789","2018-01-30T13:51:00","FM-15","7",,"ESE","1.5","mi","TEMP, PRECIP, SNOW",,,"PSY, SRG, SNOWBOARD",,,"FAA CWO",,,,,,,,,,,,,,,,,,,,,,,,,,,,"29.93","30","35","0.00",,,,"82","29.93","BKN:07 21 BKN:07 28 BKN:07 250","29.91","10.00","33","280",,"8",,,,,,,,,,,,,,,,,,,,,,,,,,,,,,,,,,,,,"MET12901/30/18 13:51:02 METAR KJFK 301851Z 28007KT 10SM BKN021 BKN028 BKN250 02/M01 A2993 RMK AO2 SLP135 VCSH N AND SE T00171011 $ (BH)","FM-15","7",,,,,,,,,,,,,,,,,,,,,,,,,,,"2009-05-01"
"74486094789","2018-01-30T14:51:00","FM-15","7",,"ESE","1.5","mi","TEMP, PRECIP, SNOW",,,"PSY, SRG, SNOWBOARD",,,"FAA CWO",,,,,,,,,,,,,,,,,,,,,,,,,,,,"29.93","30","36","T","-SN:03 |SN |",,,"79","29.93","BKN:07 28 BKN:07 34 OVC:08 47","29.91","9.00","34","310",,"14",,,,,,,,,,,,,,,,,,,,,,,,,,,,,,,,,,,,,"MET14301/30/18 14:51:02 METAR KJFK 301951Z 31012KT 9SM -SN BKN028 BKN034 OVC047 02/M01 A2993 RMK AO2 SNB42 SLP136 BKN028 V SCT P0000 T00221011 $ (RR)","FM-15","7",,,,,,,,,,,,,,,,,,,,,,,,,,,"2009-05-01"
"74486094789","2018-01-30T15:24:00","FM-16","7",,"ESE","1.5","mi","TEMP, PRECIP, SNOW",,,"PSY, SRG, SNOWBOARD",,,"FAA CWO",,,,,,,,,,,,,,,,,,,,,,,,,,,,"29.94","30","36","T",,,,"79",,"SCT:04 22 BKN:07 36 BKN:07 50","29.91","10.00","34","310",,"11",,,,,,,,,,,,,,,,,,,,,,,,,,,,,,,,,,,,,"MET13001/30/18 15:24:02 SPECI KJFK 302024Z 31010KT 10SM SCT022 BKN036 BKN050 02/M01 A2994 RMK AO2 SNE08 VCSH S-SW P0000 T00221011 $ (RR)","FM-16","7",,,,,,,,,,,,,,,,,,,,,,,,,,,"2009-05-01"
"74486094789","2018-01-30T15:51:00","FM-15","7",,"ESE","1.5","mi","TEMP, PRECIP, SNOW",,,"PSY, SRG, SNOWBOARD",,,"FAA CWO",,,,,,,,,,,,,,,,,,,,,,,,,,,,"29.95","28","36","T",,"+0.00","5","73","29.94","FEW:02 23 BKN:07 33 BKN:07 110","29.93","10.00","33","320",,"16",,,,,,,,,,,,,,,,,,,,,,,,,,,,,,,,,,,,,"MET13901/30/18 15:51:02 METAR KJFK 302051Z 32014KT 10SM FEW023 BKN033 BKN110 02/M02 A2995 RMK AO2 SNE08 SLP140 P0000 60000 T00221022 55000 $ (RR)","FM-15","7",,,,,,,,,,,,,,,,,,,,,,,,,,,"2009-05-01"
"74486094789","2018-01-30T16:00:00","FM-12","4",,"ESE","1.5","mi","TEMP, PRECIP, SNOW",,,"PSY, SRG, SNOWBOARD",,,"FAA CWO",,,,,,,,,,,,,,,,,,,,,,,,,,,,,"28","36",,,"+0.00","5","73","29.94","26","29.92","9.94","33","320",,"16",,,,,,,,,,,,,,,,,,,,,,,,,,,,,,,,,,,,,"SYN07074486 12566 63214 10022 21022 30131 40140 55000 69907 92051 555 93021=","FM-12","4",,,,,,,,,,,,,,,,,,,,,,,,,,,"2009-05-01"
"74486094789","2018-01-30T16:51:00","FM-15","7",,"ESE","1.5","mi","TEMP, PRECIP, SNOW",,,"PSY, SRG, SNOWBOARD",,,"FAA CWO",,,,,,,,,,,,,,,,,,,,,,,,,,,,"29.98","22","33","0.00",,,,"64","29.98","FEW:02 38 FEW:02 60 SCT:04 120","29.96","10.00","29","310",,"21",,,,,,,,,,,,,,,,,,,,,,,,,,,,,,,,,,,,,"MET11501/30/18 16:51:02 METAR KJFK 302151Z 31018KT 10SM FEW038 FEW060 SCT120 01/M06 A2998 RMK AO2 SLP153 T00061056 $ (RR)","FM-15","7",,,,,,,,,,,,,,,,,,,,,,,,,,,"2009-05-01"
"74486094789","2018-01-30T17:51:00","FM-15","7",,"ESE","1.5","mi","TEMP, PRECIP, SNOW",,,"PSY, SRG, SNOWBOARD",,,"FAA CWO",,,,,,,,,,,,,,,,,,,,,,,,,,,,"30.03","17","31","0.00",,,,"56","30.03","BKN:07 39 BKN:07 65 BKN:07 250","30.01","10.00","26","320","34","26",,,,,,,,,,,,,,,,,,,,,,,,,,,,,,,,,,,,,"MET14501/30/18 17:51:02 METAR KJFK 302251Z 32023G30KT 10SM BKN039 BKN065 BKN250 M01/M08 A3003 RMK AO2 PK WND 32030/2249 SLP168 VCSH NW T10061083 $ (RR)","FM-15","7",,,,,,,,,,,,,,,,,,,,,,,,,,,"2009-05-01"
"74486094789","2018-01-30T18:51:00","FM-15","7",,"ESE","1.5","mi","TEMP, PRECIP, SNOW",,,"PSY, SRG, SNOWBOARD",,,"FAA CWO",,,,,,,,,,,,,,,,,,,,,,,,,,,,"30.07","15","30","0.00",,"-0.12","3","54","30.07","BKN:07 43 BKN:07 60 BKN:07 80","30.04","10.00","25","320","34","29",,,,,,,,,,,,,,,,,,,,,,,,,,,,,,,,,,,,,"MET17901/30/18 18:51:02 METAR KJFK 302351Z 32025G30KT 10SM BKN043 BKN060 BKN080 M01/M09 A3007 RMK AO2 PK WND 33030/2306 SLP182 VIRGA SW-W 931000 60000 T10111094 10022 21011 53042 $ (RR)","FM-15","7",,,,,,,,,,,,,,,,,,,,,,,,,,,"2009-05-01"
"74486094789","2018-01-30T19:00:00","FM-12","4",,"ESE","1.5","mi","TEMP, PRECIP, SNOW",,,"PSY, SRG, SNOWBOARD",,,"FAA CWO",,,,,,,,,,,,,,,,,,,,,,,,,,,,,"15","30",,,"-0.12","3","54","30.07","41","30.04","9.94","25","320",,"29",,,,,,,,,,,,,,,,,,,,,,,,,,,,,,,,,,,,,"SYN09274486 12666 63225 11011 21094 30172 40182 53042 69901 92351 333 10022 21017 91030 555 93100=","FM-12","4",,,,,,,,,,,,,,,,,,,,,,,,,,,"2009-05-01"
"74486094789","2018-01-30T19:51:00","FM-15","7",,"ESE","1.5","mi","TEMP, PRECIP, SNOW",,,"PSY, SRG, SNOWBOARD",,,"FAA CWO",,,,,,,,,,,,,,,,,,,,,,,,,,,,"30.10","14","28","0.00",,,,"56","30.10","FEW:02 43 BKN:07 70 BKN:07 90","30.08","10.00","24","300",,"23",,,,,,,,,,,,,,,,,,,,,,,,,,,,,,,,,,,,,"MET13401/30/18 19:51:03 METAR KJFK 310051Z 30020KT 10SM FEW043 BKN070 BKN090 M02/M10 A3010 RMK AO2 PK WND 32030/2356 SLP192 T10221100 $ (RR)","FM-15","7",,,,,,,,,,,,,,,,,,,,,,,,,,,"2009-05-01"
"74486094789","2018-01-30T20:51:00","FM-15","7",,"ESE","1.5","mi","TEMP, PRECIP, SNOW",,,"PSY, SRG, SNOWBOARD",,,"FAA CWO",,,,,,,,,,,,,,,,,,,,,,,,,,,,"30.12","13","27","0.00",,,,"55","30.12","FEW:02 70 BKN:07 100 BKN:07 130","30.09","10.00","23","320","30","20",,,,,,,,,,,,,,,,,,,,,,,,,,,,,,,,,,,,,"MET13701/30/18 20:51:03 METAR KJFK 310151Z 32017G26KT 10SM FEW070 BKN100 BKN130 M03/M11 A3012 RMK AO2 PK WND 30028/0114 SLP199 T10281106 $ (RR)","FM-15","7",,,,,,,,,,,,,,,,,,,,,,,,,,,"2009-05-01"
"74486094789","2018-01-30T21:51:00","FM-15","7",,"ESE","1.5","mi","TEMP, PRECIP, SNOW",,,"PSY, SRG, SNOWBOARD",,,"FAA CWO",,,,,,,,,,,,,,,,,,,,,,,,,,,,"30.14","11","26","0.00",,"-0.07","1","53","30.14","FEW:02 44 SCT:04 110 BKN:07 250","30.11","10.00","22","320","32","22",,,,,,,,,,,,,,,,,,,,,,,,,,,,,,,,,,,,,"MET14301/30/18 21:51:03 METAR KJFK 310251Z 32019G28KT 10SM FEW044 SCT110 BKN250 M03/M12 A3014 RMK AO2 PK WND 33032/0238 SLP206 T10331117 51024 $ (JC)","FM-15","7",,,,,,,,,,,,,,,,,,,,,,,,,,,"2009-05-01"
"74486094789","2018-01-30T22:00:00","FM-12","4",,"ESE","1.5","mi","TEMP, PRECIP, SNOW",,,"PSY, SRG, SNOWBOARD",,,"FAA CWO",,,,,,,,,,,,,,,,,,,,,,,,,,,,,"11","26",,,"-0.07","1","53","30.14","41","30.11","9.94","22","320",,"22",,,,,,,,,,,,,,,,,,,,,,,,,,,,,,,,,,,,,"SYN07474486 32666 63219 11033 21117 30195 40206 51024 90251 333 91028 555 93103=","FM-12","4",,,,,,,,,,,,,,,,,,,,,,,,,,,"2009-05-01"
"74486094789","2018-01-30T22:51:00","FM-15","7",,"ESE","1.5","mi","TEMP, PRECIP, SNOW",,,"PSY, SRG, SNOWBOARD",,,"FAA CWO",,,,,,,,,,,,,,,,,,,,,,,,,,,,"30.16","11","25","0.00",,,,"55","30.15","FEW:02 50 SCT:04 110 SCT:04 250","30.14","10.00","21","330",,"21",,,,,,,,,,,,,,,,,,,,,,,,,,,,,,,,,,,,,"MET13401/30/18 22:51:03 METAR KJFK 310351Z 33018KT 10SM FEW050 SCT110 SCT250 M04/M12 A3016 RMK AO2 PK WND 31032/0307 SLP211 T10391117 $ (JC)","FM-15","7",,,,,,,,,,,,,,,,,,,,,,,,,,,"2009-05-01"
"74486094789","2018-01-30T23:51:00","FM-15","7",,"ESE","1.5","mi","TEMP, PRECIP, SNOW",,,"PSY, SRG, SNOWBOARD",,,"FAA CWO",,,,,,,,,,,,,,,,,,,,,,,,,,,,"30.16","12","24","0.00",,,,"60","30.16","FEW:02 50","30.14","10.00","21","310",,"21",,,,,,,,,,,,,,,,,,,,,,,,,,,,,,,,,,,,,"MET13001/30/18 23:51:03 METAR KJFK 310451Z 31018KT 10SM FEW050 M04/M11 A3016 RMK AO2 PK WND 33030/0400 SLP214 T10441111 400221044 $ (JC)","FM-15","7",,,,,,,,,,,,,,,,,,,,,,,,,,,"2009-05-01"
"74486094789","2018-01-30T23:59:00","SOD  ","6",,"ESE","1.5","mi","TEMP, PRECIP, SNOW",,,"PSY, SRG, SNOWBOARD",,,"FAA CWO",,,,,,"23","30","75","30.01","29.98","28","15.3","0","-2.8","35","36","24","330","37","0.10","1","1.4","320","29","SN BR",,,,,,,,,,,,,,,,,,,,,,,,,,,,,,,,,,,,,,,,,,,,,,,,,,,,,,,"SOD75624 HR PRECIPITATION (IN): 0.10 SNOW DEPTH (IN):1     24 HR SNOWFALL (IN):1.4  WEATHER(CODE):1  24 HR MAX TEMP (F): 3624 HR MIN TEMP (F): 24AVERAGE STATION PRESSURE:29.975 MINIMUM SEA LEVEL PRESSURE:29.92 TIME OF OCCURRENCE:1414 PEAK WIND SPEED (MPH): 37 PEAK WIND DIR (DEG):330 PEAK WIND TIME (LST):      FASTEST 2MIN SPEED (MPH): 29FASTEST 2MIN DIR (DEG):320 FASTEST 2MIN TIME (LST):     AVERAGE WIND SPEED (MPH):15.3 24 HR AVG TEMP (F): 30DEPART FROM NORMAL: -3  HEATING DEGREE DAYS: 35 COOLING DEGREE DAYS:  0 LATEST DAY MAX TEMP (0700-1900 LST):36  LATEST NIGHT MIN TEMP(1900-0800 LST):29 HOURLY INCREMENTAL PRECIPITATION VALUES (IN):.02 0.02 0.01 0.01 0.01 0.01 0.01 T    0.01 T    0.00 0.00 0.00 0.00 T    T    0.00 0.00 0.00 0.00 0.00 0.00 0.00 0.00","SOD  ","6",,,,,,,,,,,,,,,,,,,,,,,,,"0707","1710","2009-05-01"
"74486094789","2018-01-31T00:51:00","FM-15","7",,"ESE","1.5","mi","TEMP, PRECIP, SNOW",,,"PSY, SRG, SNOWBOARD",,,"FAA CWO",,,,,,,,,,,,,,,,,,,,,,,,,,,,"30.17","10","23","0.00",,"-0.03","1","57","30.17","FEW:02 50","30.14","10.00","19","320",,"17",,,,,,,,,,,,,,,,,,,,,,,,,,,,,,,,,,,,,"MET12001/31/18 00:51:02 METAR KJFK 310551Z 32015KT 10SM FEW050 M05/M12 A3017 RMK AO2 SLP217 T10501122 11011 21050 51011 $ (JC)","FM-15","7",,,,,,,,,,,,,,,,,,,,,,,,,,,"2009-05-01"
"74486094789","2018-01-31T01:00:00","FM-12","4",,"ESE","1.5","mi","TEMP, PRECIP, SNOW",,,"PSY, SRG, SNOWBOARD",,,"FAA CWO",,,,,,,,,,,,,,,,,,,,,,,,,,,,,"10","23",,,"-0.03","1","57","30.17","57","30.14","9.94","19","320",,"17",,,,,,,,,,,,,,,,,,,,,,,,,,,,,,,,,,,,,"SYN08074486 32766 23215 11050 21122 30205 40217 51011 90551 333 11011 21050 555 93106=","FM-12","4",,,,,,,,,,,,,,,,,,,,,,,,,,,"2009-05-01"
"74486094789","2018-01-31T01:51:00","FM-15","7",,"ESE","1.5","mi","TEMP, PRECIP, SNOW",,,"PSY, SRG, SNOWBOARD",,,"FAA CWO",,,,,,,,,,,,,,,,,,,,,,,,,,,,"30.19","9","22","0.00",,,,"57","30.19","CLR:00","30.16","10.00","19","320",,"16",,,,,,,,,,,,,,,,,,,,,,,,,,,,,,,,,,,,,"MET09901/31/18 01:51:02 METAR KJFK 310651Z 32014KT 10SM CLR M06/M13 A3019 RMK AO2 SLP222 T10561128 $ (JC)","FM-15","7",,,,,,,,,,,,,,,,,,,,,,,,,,,"2009-05-01"
"74486094789","2018-01-31T02:51:00","FM-15","6",,"ESE","1.5","mi","TEMP, PRECIP, SNOW",,,"PSY, SRG, SNOWBOARD",,,"FAA CWO",,,,,,,,,,,,,,,,,,,,,,,,,,,,"30.21","8","22","0.00",,,,"55","30.21","CLR:00","30.19","10.00","18","310",,"18",,,,,,,,,,,,,,,,,,,,,,,,,,,,,,,,,,,,,"MET09901/31/18 02:51:02 METAR KJFK 310751Z 31016KT 10SM CLR M06/M13 A3021 RMK AO2 SLP229 T10561133 $ (JC)","FM-15","6",,,,,,,,,,,,,,,,,,,,,,,,,,,"2009-05-01"
"74486094789","2018-01-31T03:51:00","FM-15","7",,"ESE","1.5","mi","TEMP, PRECIP, SNOW",,,"PSY, SRG, SNOWBOARD",,,"FAA CWO",,,,,,,,,,,,,,,,,,,,,,,,,,,,"30.22","7","21","0.00",,"-0.05","1","54","30.22","CLR:00","30.19","10.00","17","320",,"18",,,,,,,,,,,,,,,,,,,,,,,,,,,,,,,,,,,,,"MET10501/31/18 03:51:02 METAR KJFK 310851Z 32016KT 10SM CLR M06/M14 A3022 RMK AO2 SLP234 T10611139 51017 $ (JC)","FM-15","7",,,,,,,,,,,,,,,,,,,,,,,,,,,"2009-05-01"
"74486094789","2018-01-31T04:00:00","FM-12","4",,"ESE","1.5","mi","TEMP, PRECIP, SNOW",,,"PSY, SRG, SNOWBOARD",,,"FAA CWO",,,,,,,,,,,,,,,,,,,,,,,,,,,,,"7","21",,,"-0.05","1","54","30.22",,"30.19","9.94","17","320",,"18",,,,,,,,,,,,,,,,,,,,,,,,,,,,,,,,,,,,,"SYN06474486 32966 03216 11061 21139 30222 40234 51017 90851 555 93109=","FM-12","4",,,,,,,,,,,,,,,,,,,,,,,,,,,"2009-05-01"
"74486094789","2018-01-31T04:51:00","FM-15","7",,"ESE","1.5","mi","TEMP, PRECIP, SNOW",,,"PSY, SRG, SNOWBOARD",,,"FAA CWO",,,,,,,,,,,,,,,,,,,,,,,,,,,,"30.24","7","20","0.00",,,,"57","30.24","CLR:00","30.22","10.00","17","310",,"11",,,,,,,,,,,,,,,,,,,,,,,,,,,,,,,,,,,,,"MET09901/31/18 04:51:02 METAR KJFK 310951Z 31010KT 10SM CLR M07/M14 A3024 RMK AO2 SLP240 T10671139 $ (JC)","FM-15","7",,,,,,,,,,,,,,,,,,,,,,,,,,,"2009-05-01"
"74486094789","2018-01-31T05:51:00","FM-15","7",,"ESE","1.5","mi","TEMP, PRECIP, SNOW",,,"PSY, SRG, SNOWBOARD",,,"FAA CWO",,,,,,,,,,,,,,,,,,,,,,,,,,,,"30.27","5","19","0.00",,,,"54","30.27","CLR:00","30.24","10.00","16","320",,"15",,,,,,,,,,,,,,,,,,,,,,,,,,,,,,,,,,,,,"MET09901/31/18 05:51:02 METAR KJFK 311051Z 32013KT 10SM CLR M07/M15 A3027 RMK AO2 SLP250 T10721150 $ (JC)","FM-15","7",,,,,,,,,,,,,,,,,,,,,,,,,,,"2009-05-01"
"74486094789","2018-01-31T06:51:00","FM-15","7",,"ESE","1.5","mi","TEMP, PRECIP, SNOW",,,"PSY, SRG, SNOWBOARD",,,"FAA CWO",,,,,,,,,,,,,,,,,,,,,,,,,,,,"30.31","6","18","0.00",,"-0.08","3","59","30.30","FEW:02 35 FEW:02 250","30.29","10.00","15","300",,"15",,,,,,,,,,,,,,,,,,,,,,,,,,,,,,,,,,,,,"MET12701/31/18 06:51:02 METAR KJFK 311151Z 30013KT 10SM FEW035 FEW250 M08/M14 A3031 RMK AO2 SLP262 T10781144 11050 21078 53028 $ (DM)","FM-15","7",,,,,,,,,,,,,,,,,,,,,,,,,,,"2009-05-01"
"74486094789","2018-01-31T07:00:00","FM-12","4",,"ESE","1.5","mi","TEMP, PRECIP, SNOW",,,"PSY, SRG, SNOWBOARD",,,"FAA CWO",,,,,,,,,,,,,,,,,,,,,,,,,,,,,"6","18",,,"-0.08","3","59","30.30","41","30.28","9.94","15","300",,"15",,,,,,,,,,,,,,,,,,,,,,,,,,,,,,,,,,,,,"SYN08074486 32666 23013 11078 21144 30253 40262 53028 91151 333 10022 21078 555 93112=","FM-12","4",,,,,,,,,,,,,,,,,,,,,,,,,,,"2009-05-01"
"74486094789","2018-01-31T07:51:00","FM-15","7",,"ESE","1.5","mi","TEMP, PRECIP, SNOW",,,"PSY, SRG, SNOWBOARD",,,"FAA CWO",,,,,,,,,,,,,,,,,,,,,,,,,,,,"30.32","5","19","0.00",,,,"54","30.32","FEW:02 35 FEW:02 150 FEW:02 250","30.29","10.00","16","290",,"13",,,,,,,,,,,,,,,,,,,,,,,,,,,,,,,,,,,,,"MET11601/31/18 07:51:02 METAR KJFK 311251Z 29011KT 10SM FEW035 FEW150 FEW250 M07/M15 A3032 RMK AO2 SLP267 T10721150 $ (DM)","FM-15","7",,,,,,,,,,,,,,,,,,,,,,,,,,,"2009-05-01"
"74486094789","2018-01-31T08:51:00","FM-15","7",,"ESE","1.5","mi","TEMP, PRECIP, SNOW",,,"PSY, SRG, SNOWBOARD",,,"FAA CWO",,,,,,,,,,,,,,,,,,,,,,,,,,,,"30.33","6","21","0.00",,,,"52","30.33","FEW:02 150 FEW:02 250","30.30","10.00","17","300",,"9",,,,,,,,,,,,,,,,,,,,,,,,,,,,,,,,,,,,,"MET10901/31/18 08:51:02 METAR KJFK 311351Z 30008KT 10SM FEW150 FEW250 M06/M14 A3033 RMK AO2 SLP271 T10611144 $ (DM)","FM-15","7",,,,,,,,,,,,,,,,,,,,,,,,,,,"2009-05-01"
"74486094789","2018-01-31T09:51:00","FM-15","7",,"ESE","1.5","mi","TEMP, PRECIP, SNOW",,,"PSY, SRG, SNOWBOARD",,,"FAA CWO",,,,,,,,,,,,,,,,,,,,,,,,,,,,"30.30","6","23","0.00",,"+0.01","8","48","30.29","FEW:02 150 SCT:04 250","30.27","10.00","19","330",,"8",,,,,,,,,,,,,,,,,,,,,,,,,,,,,,,,,,,,,"MET11501/31/18 09:51:02 METAR KJFK 311451Z 33007KT 10SM FEW150 SCT250 M05/M14 A3030 RMK AO2 SLP259 T10501144 58003 $ (DM)","FM-15","7",,,,,,,,,,,,,,,,,,,,,,,,,,,"2009-05-01"
"74486094789","2018-01-31T10:00:00","FM-12","4",,"ESE","1.5","mi","TEMP, PRECIP, SNOW",,,"PSY, SRG, SNOWBOARD",,,"FAA CWO",,,,,,,,,,,,,,,,,,,,,,,,,,,,,"6","23",,,"+0.01","8","48","30.29",,"30.27","9.94","19","330",,"8",,,,,,,,,,,,,,,,,,,,,,,,,,,,,,,,,,,,,"SYN06474486 32966 43307 11050 21144 30249 40259 58003 91451 555 93115=","FM-12","4",,,,,,,,,,,,,,,,,,,,,,,,,,,"2009-05-01"
"74486094789","2018-01-31T10:51:00","FM-15","7",,"ESE","1.5","mi","TEMP, PRECIP, SNOW",,,"PSY, SRG, SNOWBOARD",,,"FAA CWO",,,,,,,,,,,,,,,,,,,,,,,,,,,,"30.30","7","25","0.00",,,,"46","30.29","FEW:02 150 SCT:04 250","30.27","10.00","20","300",,"7",,,,,,,,,,,,,,,,,,,,,,,,,,,,,,,,,,,,,"MET10701/31/18 10:51:02 METAR KJFK 311551Z 30006KT 10SM FEW150 SCT250 M04/M14 A3030 RMK AO2 SLP258 T10391139 (DM)","FM-15","7",,,,,,,,,,,,,,,,,,,,,,,,,,,"2009-05-01"
"74486094789","2018-01-31T11:51:00","FM-15","7",,"ESE","1.5","mi","TEMP, PRECIP, SNOW",,,"PSY, SRG, SNOWBOARD",,,"FAA CWO",,,,,,,,,,,,,,,,,,,,,,,,,,,,"30.28","7","28","0.00",,,,"41","30.28","FEW:02 200 SCT:04 250","30.25","10.00","22","270",,"13",,,,,,,,,,,,,,,,,,,,,,,,,,,,,,,,,,,,,"MET10701/31/18 11:51:02 METAR KJFK 311651Z 27011KT 10SM FEW200 SCT250 M02/M14 A3028 RMK AO2 SLP253 T10221139 (DM)","FM-15","7",,,,,,,,,,,,,,,,,,,,,,,,,,,"2009-05-01"
"74486094789","2018-01-31T12:51:00","FM-15","7",,"ESE","1.5","mi","TEMP, PRECIP, SNOW",,,"PSY, SRG, SNOWBOARD",,,"FAA CWO",,,,,,,,,,,,,,,,,,,,,,,,,,,,"30.23","7","29","0.00",,"+0.06","8","39","30.23","FEW:02 200 SCT:04 250","30.21","10.00","23","240",,"10",,,,,,,,,,,,,,,,,,,,,,,,,,,,,,,,,,,,,"MET12501/31/18 12:51:02 METAR KJFK 311751Z 24009KT 10SM FEW200 SCT250 M02/M14 A3023 RMK AO2 SLP237 T10171139 11017 21078 58022 (DM)","FM-15","7",,,,,,,,,,,,,,,,,,,,,,,,,,,"2009-05-01"
"74486094789","2018-01-31T13:00:00","FM-12","4",,"ESE","1.5","mi","TEMP, PRECIP, SNOW",,,"PSY, SRG, SNOWBOARD",,,"FAA CWO",,,,,,,,,,,,,,,,,,,,,,,,,,,,,"7","29",,,"+0.06","8","39","30.23",,"30.20","9.94","23","240",,"10",,,,,,,,,,,,,,,,,,,,,,,,,,,,,,,,,,,,,"SYN08074486 32966 42409 11017 21139 30226 40237 58022 91751 333 11017 21078 555 93118=","FM-12","4",,,,,,,,,,,,,,,,,,,,,,,,,,,"2009-05-01"
"74486094789","2018-01-31T13:51:00","FM-15","7",,"ESE","1.5","mi","TEMP, PRECIP, SNOW",,,"PSY, SRG, SNOWBOARD",,,"FAA CWO",,,,,,,,,,,,,,,,,,,,,,,,,,,,"30.19","10","29","0.00",,,,"45","30.19","FEW:02 200 SCT:04 250","30.16","10.00","24","220",,"11",,,,,,,,,,,,,,,,,,,,,,,,,,,,,,,,,,,,,"MET10701/31/18 13:51:02 METAR KJFK 311851Z 22010KT 10SM FEW200 SCT250 M02/M12 A3019 RMK AO2 SLP224 T10171122 (DM)","FM-15","7",,,,,,,,,,,,,,,,,,,,,,,,,,,"2009-05-01"
"74486094789","2018-01-31T14:51:00","FM-15","7",,"ESE","1.5","mi","TEMP, PRECIP, SNOW",,,"PSY, SRG, SNOWBOARD",,,"FAA CWO",,,,,,,,,,,,,,,,,,,,,,,,,,,,"30.18","9","30","0.00",,,,"41","30.18","FEW:02 200 BKN:07 250","30.16","10.00","24","220",,"13",,,,,,,,,,,,,,,,,,,,,,,,,,,,,,,,,,,,,"MET10701/31/18 14:51:02 METAR KJFK 311951Z 22011KT 10SM FEW200 BKN250 M01/M13 A3018 RMK AO2 SLP220 T10111128 (RR)","FM-15","7",,,,,,,,,,,,,,,,,,,,,,,,,,,"2009-05-01"
"74486094789","2018-01-31T15:51:00","FM-15","7",,"ESE","1.5","mi","TEMP, PRECIP, SNOW",,,"PSY, SRG, SNOWBOARD",,,"FAA CWO",,,,,,,,,,,,,,,,,,,,,,,,,,,,"30.17","10","30","0.00",,"+0.07","6","43","30.16","BKN:07 140 BKN:07 250","30.14","10.00","24","210",,"9",,,,,,,,,,,,,,,,,,,,,,,,,,,,,,,,,,,,,"MET11301/31/18 15:51:02 METAR KJFK 312051Z 21008KT 10SM BKN140 BKN250 M01/M12 A3017 RMK AO2 SLP214 T10111122 56023 (RR)","FM-15","7",,,,,,,,,,,,,,,,,,,,,,,,,,,"2009-05-01"
"74486094789","2018-01-31T16:00:00","FM-12","4",,"ESE","1.5","mi","TEMP, PRECIP, SNOW",,,"PSY, SRG, SNOWBOARD",,,"FAA CWO",,,,,,,,,,,,,,,,,,,,,,,,,,,,,"10","30",,,"+0.07","6","43","30.16",,"30.14","9.94","24","210",,"9",,,,,,,,,,,,,,,,,,,,,,,,,,,,,,,,,,,,,"SYN06474486 32966 62108 11011 21122 30205 40214 56023 92051 555 93121=","FM-12","4",,,,,,,,,,,,,,,,,,,,,,,,,,,"2009-05-01"
"74486094789","2018-01-31T16:51:00","FM-15","7",,"ESE","1.5","mi","TEMP, PRECIP, SNOW",,,"PSY, SRG, SNOWBOARD",,,"FAA CWO",,,,,,,,,,,,,,,,,,,,,,,,,,,,"30.14","14","30","0.00",,,,"51","30.14","FEW:02 85 BKN:07 110 BKN:07 160","30.11","10.00","25","190",,"11",,,,,,,,,,,,,,,,,,,,,,,,,,,,,,,,,,,,,"MET11401/31/18 16:51:02 METAR KJFK 312151Z 19010KT 10SM FEW085 BKN110 BKN160 M01/M10 A3014 RMK AO2 SLP207 T10111100 (RR)","FM-15","7",,,,,,,,,,,,,,,,,,,,,,,,,,,"2009-05-01"
"74486094789","2018-01-31T17:51:00","FM-15","7",,"ESE","1.5","mi","TEMP, PRECIP, SNOW",,,"PSY, SRG, SNOWBOARD",,,"FAA CWO",,,,,,,,,,,,,,,,,,,,,,,,,,,,"30.13","16","30","0.00",,,,"56","30.12","FEW:02 85 SCT:04 110 BKN:07 180","30.11","10.00","26","190",,"14",,,,,,,,,,,,,,,,,,,,,,,,,,,,,,,,,,,,,"MET11401/31/18 17:51:02 METAR KJFK 312251Z 19012KT 10SM FEW085 SCT110 BKN180 M01/M09 A3013 RMK AO2 SLP201 T10111089 (RR)","FM-15","7",,,,,,,,,,,,,,,,,,,,,,,,,,,"2009-05-01"
"74486094789","2018-01-31T18:51:00","FM-15","7",,"ESE","1.5","mi","TEMP, PRECIP, SNOW",,,"PSY, SRG, SNOWBOARD",,,"FAA CWO",,,,,,,,,,,,,,,,,,,,,,,,,,,,"30.11","20","31","0.00",,"+0.06","6","64","30.11","FEW:02 110 BKN:07 230","30.09","10.00","27","200",,"17",,,,,,,,,,,,,,,,,,,,,,,,,,,,,,,,,,,,,"MET12501/31/18 18:51:02 METAR KJFK 312351Z 20015KT 10SM FEW110 BKN230 M01/M07 A3011 RMK AO2 SLP195 T10061067 10000 21022 56019 (RR)","FM-15","7",,,,,,,,,,,,,,,,,,,,,,,,,,,"2009-05-01"
"74486094789","2018-01-31T19:00:00","FM-12","4",,"ESE","1.5","mi","TEMP, PRECIP, SNOW",,,"PSY, SRG, SNOWBOARD",,,"FAA CWO",,,,,,,,,,,,,,,,,,,,,,,,,,,,,"20","31",,,"+0.06","6","64","30.11",,"30.08","9.94","27","200",,"17",,,,,,,,,,,,,,,,,,,,,,,,,,,,,,,,,,,,,"SYN08074486 32966 62015 11006 21067 30185 40195 56019 92351 333 10000 21078 555 90100=","FM-12","4",,,,,,,,,,,,,,,,,,,,,,,,,,,"2009-05-01"
"74486094789","2018-01-31T19:51:00","FM-15","7",,"ESE","1.5","mi","TEMP, PRECIP, SNOW",,,"PSY, SRG, SNOWBOARD",,,"FAA CWO",,,,,,,,,,,,,,,,,,,,,,,,,,,,"30.09","20","31","0.00",,,,"64","30.09","BKN:07 180 BKN:07 230","30.06","10.00","27","200",,"20",,,,,,,,,,,,,,,,,,,,,,,,,,,,,,,,,,,,,"MET10701/31/18 19:51:03 METAR KJFK 010051Z 20017KT 10SM BKN180 BKN230 M01/M07 A3009 RMK AO2 SLP190 T10061067 (RR)","FM-15","7",,,,,,,,,,,,,,,,,,,,,,,,,,,"2009-05-01"
"74486094789","2018-01-31T20:51:00","FM-15","7",,"ESE","1.5","mi","TEMP, PRECIP, SNOW",,,"PSY, SRG, SNOWBOARD",,,"FAA CWO",,,,,,,,,,,,,,,,,,,,,,,,,,,,"30.10","18","31","0.00",,,,"59","30.10","OVC:08 170","30.08","10.00","27","210","28","21",,,,,,,,,,,,,,,,,,,,,,,,,,,,,,,,,,,,,"MET10301/31/18 20:51:03 METAR KJFK 010151Z 21018G24KT 10SM OVC170 M01/M08 A3010 RMK AO2 SLP192 T10061078 (RR)","FM-15","7",,,,,,,,,,,,,,,,,,,,,,,,,,,"2009-05-01"
"74486094789","2018-01-31T21:51:00","FM-15","7",,"ESE","1.5","mi","TEMP, PRECIP, SNOW",,,"PSY, SRG, SNOWBOARD",,,"FAA CWO",,,,,,,,,,,,,,,,,,,,,,,,,,,,"30.10","21","31","0.00",,"+0.01","6","67","30.09","OVC:08 160","30.08","10.00","28","210","29","18",,,,,,,,,,,,,,,,,,,,,,,,,,,,,,,,,,,,,"MET10901/31/18 21:51:03 METAR KJFK 010251Z 21016G25KT 10SM OVC160 M01/M06 A3010 RMK AO2 SLP191 T10061061 56004 (RR)","FM-15","7",,,,,,,,,,,,,,,,,,,,,,,,,,,"2009-05-01"
"74486094789","2018-01-31T22:00:00","FM-12","4",,"ESE","1.5","mi","TEMP, PRECIP, SNOW",,,"PSY, SRG, SNOWBOARD",,,"FAA CWO",,,,,,,,,,,,,,,,,,,,,,,,,,,,,"21","31",,,"+0.01","6","67","30.09",,"30.07","9.94","28","210",,"18",,,,,,,,,,,,,,,,,,,,,,,,,,,,,,,,,,,,,"SYN07474486 32966 82116 11006 21061 30182 40191 56004 90251 333 91025 555 90103=","FM-12","4",,,,,,,,,,,,,,,,,,,,,,,,,,,"2009-05-01"
"74486094789","2018-01-31T22:51:00","FM-15","7",,"ESE","1.5","mi","TEMP, PRECIP, SNOW",,,"PSY, SRG, SNOWBOARD",,,"FAA CWO",,,,,,,,,,,,,,,,,,,,,,,,,,,,"30.09","20","31","0.00",,,,"64","30.09","OVC:08 160","30.06","10.00","27","220",,"16",,,,,,,,,,,,,,,,,,,,,,,,,,,,,,,,,,,,,"MET10001/31/18 22:51:03 METAR KJFK 010351Z 22014KT 10SM OVC160 M01/M07 A3009 RMK AO2 SLP189 T10061067 (JC)","FM-15","7",,,,,,,,,,,,,,,,,,,,,,,,,,,"2009-05-01"
"74486094789","2018-01-31T23:51:00","FM-15","7",,"ESE","1.5","mi","TEMP, PRECIP, SNOW",,,"PSY, SRG, SNOWBOARD",,,"FAA CWO",,,,,,,,,,,,,,,,,,,,,,,,,,,,"30.09","20","32","0.00",,,,"61","30.09","OVC:08 130","30.06","10.00","28","220",,"13",,,,,,,,,,,,,,,,,,,,,,,,,,,,,,,,,,,,,"MET10901/31/18 23:51:03 METAR KJFK 010451Z 22011KT 10SM OVC130 00/M07 A3009 RMK AO2 SLP189 T00001067 400001078 (JC)","FM-15","7",,,,,,,,,,,,,,,,,,,,,,,,,,,"2009-05-01"
"74486094789","2018-01-31T23:59:00","SOD  ","6",,"ESE","1.5","mi","TEMP, PRECIP, SNOW",,,"PSY, SRG, SNOWBOARD",,,"FAA CWO",,,,,,"11","25","53","30.20","30.17","22","13.9","0","-7.9","40","32","18","210","29","0.00","T","0.0","210","24",,,,,,,,,,,,,,,,,,,,,,,,,,,,,,,,,,,,,,,,,,,,,,,,,,,,,,,,"SOD73924 HR PRECIPITATION (IN): 0.00 SNOW DEPTH (IN):T     24 HR SNOWFALL (IN):0.0  24 HR MAX TEMP (F): 3224 HR MIN TEMP (F): 18AVERAGE STATION PRESSURE:30.175 MINIMUM SEA LEVEL PRESSURE:30.08 TIME OF OCCURRENCE:2359 PEAK WIND SPEED (MPH): 29 PEAK WIND DIR (DEG):210 PEAK WIND TIME (LST):      FASTEST 2MIN SPEED (MPH): 24FASTEST 2MIN DIR (DEG):210 FASTEST 2MIN TIME (LST):     AVERAGE WIND SPEED (MPH):13.9 24 HR AVG TEMP (F): 25DEPART FROM NORMAL: -8  HEATING DEGREE DAYS: 40 COOLING DEGREE DAYS:  0 LATEST DAY MAX TEMP (0700-1900 LST):32  LATEST NIGHT MIN TEMP(1900-0800 LST):18 HOURLY INCREMENTAL PRECIPITATION VALUES (IN):.00 0.00 0.00 0.00 0.00 0.00 0.00 0.00 0.00 0.00 0.00 0.00 0.00 0.00 0.00 0.00 0.00 0.00 0.00 0.00 0.00 0.00 0.00 0.00","SOD  ","6",,,,,,,,,,,,,,,,,,,,,,,,,"0706","1712","2009-05-01"
"74486094789","2018-01-31T23:59:00","SOM  ","6","13.4","ESE","1.5","mi","TEMP, PRECIP, SNOW",,,"PSY, SRG, SNOWBOARD",,,"FAA CWO","0","0","2",,,,,,,,,,,,,,,,,,,,,,,"2704","1076",,,,,,,,,,,,,,,,,,"8","6","26","0","0","11","-2.5","0","75","-1.6","-3.4","-1.32",,"0.53","12-13","8","08","8.0","04-04","30.74","26","1126","37.5","30.2","29.22","04","1251","22.9","30.19","30.16","1.84","9.7",,"0","1001","SOM877PCP MTOT:1.84 PCP GT 24HRS:0.53 DATE(S):12-13 DAYS W/PCP >=.01:8  DAYS W/PCP >=.10:6  DAYS W/ PCP >=.50:0 DAYS W/PCP >=1.00:0 MSDP AMTS W/DATE-TIME TAGS:MIN:5 0.07  12/1226 MIN:10 0.10  12/1227 MIN:15 0.11  12/1226 MIN:20 0.12  12/1227 MIN:30 0.13  12/1242 MIN:45 0.15  12/1252 MIN:60 0.17  12/2235 MIN:80 0.17  12/2235 MIN:100 0.18  12/2323 MIN:120 0.20  12/2336 MIN:150 0.21  13/0005 MIN:180 0.22  13/0027 SN GT DP ON GRND:8 DATE(S):5  6  7  SN GT IN 24HRS:8.0 DATE(S): 4SN MTOT:9.7 AVG DLY MIN:22.9  AVG DLY MAX:37.5  AVG MLY TMP:30.2  MIN TMP:4  DATE(S):07 MAX TMP:54  DATE(S):23 20 12 DAYS MAX <=32:1 DAYS MAX >=90:0  DAYS MIN <=32:26 DAYS MIN  <=0:0  AVG STP:30.165 LWST SLP:29.21 DATE/TIME:041331 HGST SLP:30.74 DATE/TIME:261126 HDD MTH TOT:1073 DEP NORM:-2553 SEASON(JUL 1-JUN 30):2682 DEP NORM:-25536 CDD MTH TOT:0 DEP NORM:-2553 SEASON(JAN 1-DEC 31):0 DEP NORM:-25536","SOM  ","6","2018-01-12 12:26","2018-01-12 12:27","2018-01-12 12:26","2018-01-12 12:27","2018-01-12 12:42","2018-01-12 12:52","2018-01-12 22:35","2018-01-12 22:35","2018-01-12 23:23","2018-01-12 23:36","2018-01-13 00:05","2018-01-13 00:27","0.07","0.10","0.11","0.12","0.13","0.15","0.17","0.17","0.18","0.20","0.21","0.22",,,"2009-05-01"
